{"type":"FeatureCollection","features":[{"type":"Feature","properties":{"rank":3},"geometry":{"type":"Polygon","coordinates":[[[118.652,33.190],[118.614,33.172],[118.578,33.183],[118.558,33.152],[118.565,33.118],[118.544,33.087],[118.544,33.046],[118.524,33.056],[118.481,32.985],[118.333,32.937],[118.319,32.936],[118.315,32.955],[118.294,32.950],[118.288,32.932],[118.260,32.933],[118.250,32.882],[118.229,32.887],[118.222,32.909],[118.174,32.861],[118.160,32.906],[118.191,32.934],[118.188,32.950],[118.229,32.957],[118.134,33.029],[118.116,32.971],[118.081,32.960],[118.003,32.895],[117.985,32.860],[117.982,32.903],[117.975,32.895],[118.100,33.036],[118.126,33.046],[118.172,33.034],[118.242,32.972],[118.291,32.970],[118.255,32.988],[118.230,33.026],[118.198,33.154],[118.157,33.163],[118.062,33.135],[117.907,33.136],[117.907,33.050],[117.844,33.021],[117.807,33.023],[117.757,33.060],[117.877,33.050],[117.893,33.087],[117.877,33.147],[117.920,33.193],[118.051,33.183],[118.116,33.224],[118.173,33.226],[118.210,33.206],[118.236,33.163],[118.228,33.117],[118.260,33.018],[118.291,32.991],[118.343,32.979],[118.415,33.000],[118.456,33.060],[118.403,33.031],[118.338,33.032],[118.456,33.081],[118.469,33.106],[118.442,33.101],[118.485,33.137],[118.482,33.166],[118.393,33.156],[118.232,33.207],[118.197,33.405],[118.209,33.423],[118.255,33.269],[118.304,33.238],[118.330,33.275],[118.409,33.327],[118.396,33.389],[118.411,33.403],[118.456,33.396],[118.476,33.444],[118.494,33.433],[118.489,33.373],[118.510,33.368],[118.537,33.391],[118.556,33.387],[118.575,33.357],[118.618,33.353],[118.633,33.368],[118.585,33.403],[118.542,33.412],[118.469,33.553],[118.469,33.639],[118.564,33.658],[118.578,33.622],[118.558,33.602],[118.583,33.596],[118.578,33.567],[118.606,33.577],[118.615,33.563],[118.606,33.512],[118.622,33.507],[118.606,33.451],[118.633,33.477],[118.781,33.446],[118.880,33.358],[118.836,33.306],[118.815,33.235],[118.788,33.214],[118.744,33.129],[118.743,33.087],[118.685,33.079],[118.688,33.060],[118.668,33.076],[118.669,33.132],[118.695,33.149],[118.652,33.190]]]}},{"type":"Feature","properties":{"rank":3},"geometry":{"type":"Polygon","coordinates":[[[100.784,51.432],[100.795,51.389],[100.780,51.343],[100.788,51.316],[100.769,51.302],[100.776,51.254],[100.708,51.128],[100.741,51.069],[100.672,51.021],[100.711,50.995],[100.657,50.919],[100.511,50.844],[100.494,50.800],[100.529,50.790],[100.510,50.765],[100.439,50.733],[100.423,50.632],[100.446,50.630],[100.460,50.650],[100.494,50.637],[100.481,50.593],[100.433,50.589],[100.474,50.562],[100.422,50.555],[100.388,50.527],[100.322,50.542],[100.262,50.525],[100.228,50.535],[100.193,50.479],[100.193,50.452],[100.166,50.489],[100.159,50.534],[100.165,50.561],[100.206,50.603],[100.202,50.634],[100.262,50.678],[100.240,50.699],[100.247,50.894],[100.335,51.135],[100.266,51.268],[100.266,51.328],[100.291,51.350],[100.323,51.329],[100.405,51.346],[100.431,51.366],[100.467,51.425],[100.458,51.442],[100.366,51.432],[100.360,51.456],[100.431,51.520],[100.505,51.545],[100.522,51.610],[100.549,51.619],[100.615,51.590],[100.645,51.514],[100.678,51.480],[100.784,51.432]]]}},{"type":"Feature","properties":{"rank":3},"geometry":{"type":"Polygon","coordinates":[[[132.836,45.107],[132.838,45.066],[132.819,45.024],[132.742,44.924],[132.648,44.854],[132.627,44.795],[132.640,44.751],[132.631,44.710],[132.491,44.626],[132.418,44.603],[132.394,44.552],[132.353,44.527],[132.236,44.573],[132.247,44.609],[132.216,44.638],[132.284,44.634],[132.232,44.663],[132.107,44.693],[132.065,44.729],[132.037,44.816],[132.120,44.867],[132.114,44.991],[132.086,45.024],[132.012,45.045],[132.003,45.069],[132.041,45.112],[132.003,45.161],[132.000,45.202],[131.983,45.211],[132.030,45.264],[132.151,45.324],[132.420,45.337],[132.572,45.307],[132.722,45.250],[132.798,45.189],[132.836,45.107]]]}},{"type":"Feature","properties":{"rank":3},"geometry":{"type":"Polygon","coordinates":[[[104.613,12.416],[104.620,12.379],[104.496,12.510],[104.441,12.522],[104.407,12.509],[104.212,12.580],[104.148,12.663],[104.151,12.692],[104.133,12.693],[104.139,12.741],[104.117,12.760],[104.127,12.797],[104.111,12.789],[104.092,12.824],[104.078,12.804],[104.023,12.783],[104.009,12.810],[103.986,12.801],[103.955,12.844],[103.940,12.834],[103.923,12.844],[103.859,12.906],[103.852,12.865],[103.845,12.913],[103.810,12.919],[103.777,12.999],[103.749,13.009],[103.777,13.036],[103.727,13.078],[103.714,13.109],[103.688,13.228],[103.704,13.260],[103.825,13.249],[103.839,13.228],[103.902,13.224],[104.011,13.179],[104.073,13.108],[104.127,12.961],[104.169,12.902],[104.239,12.745],[104.277,12.735],[104.391,12.756],[104.455,12.729],[104.476,12.663],[104.449,12.605],[104.490,12.560],[104.441,12.557],[104.447,12.541],[104.462,12.529],[104.492,12.543],[104.500,12.529],[104.525,12.564],[104.521,12.526],[104.579,12.499],[104.593,12.466],[104.525,12.495],[104.533,12.480],[104.613,12.416]]]}},{"type":"Feature","properties":{"rank":4},"geometry":{"type":"Polygon","coordinates":[[[76.735,54.812],[76.715,54.817],[76.787,54.854],[76.810,54.889],[76.912,54.894],[77.052,54.934],[77.140,54.934],[77.178,54.918],[77.161,54.907],[77.107,54.915],[77.263,54.797],[77.346,54.913],[77.284,54.907],[77.291,54.954],[77.313,54.972],[77.393,55.020],[77.619,55.067],[77.647,55.057],[77.627,55.043],[77.703,55.064],[77.689,55.050],[77.709,55.043],[77.682,55.030],[77.755,55.023],[77.819,54.995],[77.941,55.030],[78.012,55.017],[78.069,54.977],[78.072,54.948],[78.052,54.915],[78.021,54.901],[77.890,54.894],[77.786,54.853],[77.765,54.851],[77.791,54.879],[77.744,54.878],[77.687,54.809],[77.553,54.760],[77.543,54.748],[77.585,54.747],[77.655,54.790],[77.647,54.748],[77.703,54.728],[77.730,54.742],[77.738,54.684],[77.712,54.657],[77.755,54.666],[77.765,54.659],[77.750,54.646],[77.798,54.646],[77.753,54.626],[77.661,54.632],[77.603,54.598],[77.545,54.605],[77.556,54.623],[77.531,54.626],[77.593,54.646],[77.576,54.668],[77.503,54.659],[77.414,54.684],[77.407,54.707],[77.340,54.687],[77.332,54.701],[77.309,54.680],[77.284,54.701],[77.428,54.721],[77.401,54.730],[77.205,54.720],[77.209,54.735],[77.088,54.715],[77.016,54.748],[76.945,54.708],[76.866,54.693],[76.866,54.714],[76.847,54.717],[76.769,54.687],[76.722,54.714],[76.722,54.748],[76.748,54.739],[76.756,54.711],[76.804,54.721],[76.764,54.758],[76.735,54.812]]]}},{"type":"Feature","properties":{"rank":4},"geometry":{"type":"Polygon","coordinates":[[[117.291,48.597],[117.069,48.543],[117.051,48.568],[117.107,48.574],[117.114,48.607],[117.133,48.615],[117.126,48.629],[117.153,48.629],[117.170,48.657],[117.078,48.677],[117.109,48.731],[117.036,48.767],[117.030,48.788],[116.976,48.800],[116.995,48.812],[116.977,48.855],[117.005,48.895],[117.057,48.896],[117.126,48.923],[117.112,48.937],[117.126,48.951],[117.308,49.038],[117.339,49.096],[117.570,49.325],[117.635,49.332],[117.701,49.377],[117.702,49.331],[117.722,49.314],[117.681,49.280],[117.666,49.221],[117.700,49.205],[117.729,49.157],[117.739,49.183],[117.787,49.172],[117.790,49.114],[117.879,49.100],[118.048,49.126],[118.053,49.067],[118.026,49.035],[117.983,49.023],[117.836,49.024],[117.826,49.041],[117.844,49.060],[117.769,49.091],[117.709,49.027],[117.727,49.026],[117.743,48.972],[117.667,48.972],[117.509,48.819],[117.304,48.725],[117.346,48.715],[117.348,48.698],[117.291,48.597]]]}},{"type":"Feature","properties":{"rank":4},"geometry":{"type":"Polygon","coordinates":[[[120.576,31.172],[120.601,31.086],[120.589,31.077],[120.389,30.959],[120.304,30.930],[120.213,30.920],[120.128,30.943],[119.942,31.086],[119.898,31.248],[119.984,31.396],[120.018,31.429],[120.014,31.460],[120.091,31.468],[120.105,31.490],[120.203,31.545],[120.196,31.531],[120.229,31.538],[120.237,31.518],[120.278,31.518],[120.264,31.471],[120.216,31.518],[120.208,31.412],[120.224,31.402],[120.336,31.460],[120.402,31.443],[120.380,31.369],[120.326,31.361],[120.292,31.306],[120.357,31.329],[120.329,31.281],[120.387,31.244],[120.353,31.223],[120.470,31.216],[120.474,31.192],[120.427,31.143],[120.434,31.109],[120.384,31.109],[120.330,31.057],[120.331,31.038],[120.402,31.004],[120.462,31.111],[120.546,31.107],[120.552,31.153],[120.576,31.172]]]}},{"type":"Feature","properties":{"rank":4},"geometry":{"type":"Polygon","coordinates":[[[90.384,30.523],[90.325,30.511],[90.337,30.539],[90.298,30.583],[90.315,30.614],[90.277,30.627],[90.304,30.713],[90.271,30.835],[90.284,30.869],[90.314,30.887],[90.400,30.874],[90.428,30.883],[90.496,30.819],[90.582,30.812],[90.623,30.840],[90.681,30.840],[90.658,30.865],[90.705,30.912],[90.778,30.888],[90.804,30.901],[90.887,30.860],[90.884,30.918],[90.929,30.894],[90.938,30.932],[90.967,30.936],[90.998,30.926],[91.025,30.886],[91.030,30.862],[90.995,30.787],[90.846,30.784],[90.864,30.714],[90.798,30.657],[90.523,30.558],[90.498,30.566],[90.399,30.542],[90.384,30.523]]]}},{"type":"Feature","properties":{"rank":4},"geometry":{"type":"Polygon","coordinates":[[[87.416,41.839],[87.310,41.866],[87.296,41.893],[87.281,41.884],[87.133,41.921],[86.844,41.865],[86.753,41.825],[86.680,41.845],[86.734,41.858],[86.721,41.889],[86.763,41.972],[86.844,42.002],[86.850,42.034],[86.803,42.119],[86.816,42.133],[87.073,42.060],[87.337,42.023],[87.354,42.002],[87.351,41.913],[87.377,41.913],[87.427,41.858],[87.433,41.848],[87.416,41.839]]]}},{"type":"Feature","properties":{"rank":4},"geometry":{"type":"Polygon","coordinates":[[[116.688,29.168],[116.715,29.137],[116.707,29.082],[116.688,29.078],[116.684,29.127],[116.656,29.127],[116.633,29.072],[116.618,29.078],[116.627,29.103],[116.615,29.135],[116.607,29.117],[116.564,29.140],[116.537,29.119],[116.506,29.160],[116.476,29.152],[116.492,29.112],[116.537,29.078],[116.485,29.046],[116.461,29.051],[116.459,29.036],[116.522,28.940],[116.509,28.894],[116.558,28.886],[116.530,28.856],[116.543,28.825],[116.526,28.782],[116.516,28.776],[116.523,28.790],[116.509,28.798],[116.462,28.794],[116.423,28.850],[116.424,28.874],[116.454,28.894],[116.426,28.899],[116.365,28.825],[116.424,28.929],[116.420,28.966],[116.406,28.935],[116.393,28.938],[116.393,28.900],[116.342,28.841],[116.333,28.863],[116.359,28.894],[116.331,28.911],[116.359,28.976],[116.267,28.980],[116.252,29.031],[116.206,29.033],[116.194,29.051],[116.174,29.038],[116.155,29.047],[116.145,29.085],[116.103,29.078],[116.093,29.114],[116.057,29.140],[116.035,29.181],[116.084,29.186],[116.077,29.202],[116.158,29.203],[116.005,29.239],[115.980,29.280],[115.967,29.264],[115.975,29.195],[115.907,29.216],[115.927,29.273],[116.024,29.327],[116.029,29.352],[116.004,29.410],[115.975,29.428],[116.060,29.463],[116.077,29.497],[116.063,29.509],[116.098,29.538],[116.090,29.562],[116.112,29.579],[116.126,29.668],[116.098,29.681],[116.105,29.695],[116.060,29.692],[116.102,29.730],[116.173,29.733],[116.187,29.750],[116.229,29.743],[116.188,29.702],[116.256,29.709],[116.269,29.695],[116.247,29.691],[116.232,29.651],[116.217,29.670],[116.204,29.664],[116.205,29.613],[116.187,29.598],[116.215,29.552],[116.167,29.585],[116.152,29.554],[116.145,29.533],[116.170,29.500],[116.145,29.469],[116.145,29.434],[116.115,29.443],[116.061,29.383],[116.081,29.366],[116.150,29.373],[116.208,29.415],[116.221,29.346],[116.214,29.358],[116.187,29.339],[116.132,29.339],[116.123,29.312],[116.166,29.273],[116.126,29.264],[116.124,29.247],[116.196,29.242],[116.229,29.264],[116.255,29.223],[116.296,29.209],[116.310,29.216],[116.303,29.236],[116.338,29.243],[116.359,29.216],[116.372,29.238],[116.369,29.196],[116.324,29.156],[116.324,29.140],[116.364,29.166],[116.365,29.147],[116.379,29.154],[116.393,29.140],[116.393,29.188],[116.422,29.176],[116.445,29.215],[116.427,29.277],[116.463,29.269],[116.488,29.202],[116.505,29.223],[116.495,29.250],[116.523,29.208],[116.541,29.229],[116.537,29.257],[116.555,29.252],[116.558,29.271],[116.570,29.248],[116.618,29.236],[116.605,29.236],[116.618,29.202],[116.626,29.264],[116.688,29.216],[116.651,29.207],[116.618,29.168],[116.623,29.150],[116.688,29.168]]]}},{"type":"Feature","properties":{"rank":4},"geometry":{"type":"Polygon","coordinates":[[[116.459,30.080],[116.436,30.050],[116.494,30.038],[116.530,29.983],[116.509,29.962],[116.442,29.948],[116.365,29.989],[116.331,29.948],[116.309,29.963],[116.303,29.989],[116.269,30.004],[116.289,30.017],[116.257,30.010],[116.255,30.066],[116.240,30.059],[116.234,30.072],[116.243,30.107],[116.255,30.093],[116.246,30.139],[116.269,30.120],[116.286,30.059],[116.303,30.058],[116.289,30.099],[116.310,30.126],[116.320,30.081],[116.331,30.072],[116.339,30.085],[116.386,30.058],[116.387,30.039],[116.420,30.058],[116.410,30.076],[116.444,30.101],[116.459,30.080]]]}},{"type":"Feature","properties":{"rank":4},"geometry":{"type":"Polygon","coordinates":[[[116.247,30.036],[116.248,29.983],[116.269,29.983],[116.263,29.927],[116.200,29.893],[116.091,29.901],[116.040,29.866],[116.001,29.893],[115.992,29.953],[115.936,29.993],[115.933,30.044],[115.995,29.983],[116.016,29.989],[115.995,30.021],[116.012,30.044],[116.061,29.973],[116.081,29.973],[116.091,29.983],[116.071,29.989],[116.085,29.996],[116.108,29.976],[116.148,29.979],[116.160,29.983],[116.152,29.996],[116.107,29.996],[116.132,30.011],[116.141,30.085],[116.185,30.062],[116.193,30.016],[116.218,29.990],[116.236,30.000],[116.215,30.044],[116.247,30.036]]]}},{"type":"Feature","properties":{"rank":4},"geometry":{"type":"Polygon","coordinates":[[[114.382,30.182],[114.330,30.188],[114.357,30.223],[114.383,30.205],[114.399,30.229],[114.412,30.223],[114.371,30.291],[114.428,30.264],[114.467,30.264],[114.433,30.305],[114.501,30.278],[114.515,30.299],[114.556,30.305],[114.421,30.342],[114.427,30.366],[114.453,30.346],[114.460,30.374],[114.522,30.374],[114.543,30.332],[114.631,30.298],[114.604,30.268],[114.652,30.195],[114.597,30.209],[114.617,30.200],[114.622,30.158],[114.643,30.140],[114.652,30.079],[114.631,30.064],[114.577,30.175],[114.537,30.133],[114.529,30.161],[114.550,30.229],[114.504,30.213],[114.472,30.232],[114.476,30.119],[114.440,30.068],[114.422,30.082],[114.440,30.114],[114.426,30.126],[114.439,30.158],[114.412,30.175],[114.364,30.107],[114.362,30.147],[114.382,30.182]]]}},{"type":"Feature","properties":{"rank":4},"geometry":{"type":"Polygon","coordinates":[[[89.342,31.816],[89.331,31.783],[89.296,31.777],[89.269,31.792],[89.276,31.827],[89.248,31.802],[89.235,31.676],[89.126,31.559],[89.064,31.611],[88.975,31.600],[88.941,31.622],[88.924,31.652],[88.980,31.709],[88.937,31.735],[88.840,31.735],[88.780,31.696],[88.653,31.717],[88.650,31.786],[88.612,31.779],[88.601,31.809],[88.558,31.818],[88.557,31.840],[88.571,31.869],[88.604,31.881],[88.730,31.882],[88.749,31.870],[88.737,31.835],[88.749,31.819],[88.806,31.813],[88.824,31.819],[88.798,31.849],[88.824,31.881],[88.845,31.874],[89.009,31.936],[89.029,31.916],[89.155,31.924],[89.191,31.895],[89.285,31.873],[89.342,31.816]]]}},{"type":"Feature","properties":{"rank":4},"geometry":{"type":"Polygon","coordinates":[[[92.820,48.266],[92.816,48.187],[92.695,48.088],[92.532,48.095],[92.442,48.020],[92.351,47.985],[92.268,47.865],[92.272,47.787],[92.227,47.763],[92.157,47.776],[92.073,47.759],[91.962,47.979],[91.965,48.012],[92.011,48.033],[92.191,48.062],[92.251,48.109],[92.281,48.158],[92.278,48.208],[92.299,48.239],[92.265,48.288],[92.196,48.335],[92.252,48.368],[92.349,48.335],[92.350,48.368],[92.402,48.369],[92.545,48.331],[92.527,48.319],[92.439,48.322],[92.393,48.243],[92.381,48.139],[92.463,48.101],[92.524,48.109],[92.541,48.136],[92.637,48.189],[92.662,48.232],[92.724,48.198],[92.594,48.311],[92.600,48.341],[92.756,48.325],[92.820,48.266]]]}},{"type":"Feature","properties":{"rank":5},"geometry":{"type":"Polygon","coordinates":[[[89.670,37.499],[89.598,37.498],[89.612,37.484],[89.579,37.491],[89.550,37.474],[89.440,37.476],[89.281,37.531],[89.164,37.525],[89.076,37.563],[89.071,37.587],[89.108,37.606],[89.194,37.587],[89.341,37.641],[89.544,37.625],[89.654,37.582],[89.649,37.550],[89.619,37.560],[89.611,37.542],[89.674,37.512],[89.670,37.499]]]}},{"type":"Feature","properties":{"rank":5},"geometry":{"type":"Polygon","coordinates":[[[97.855,34.887],[97.901,34.821],[97.850,34.828],[97.857,34.808],[97.845,34.806],[97.760,34.849],[97.754,34.817],[97.734,34.808],[97.698,34.842],[97.678,34.815],[97.697,34.799],[97.688,34.786],[97.604,34.784],[97.565,34.814],[97.545,34.889],[97.591,34.946],[97.671,34.965],[97.632,34.970],[97.623,34.986],[97.650,35.042],[97.729,35.085],[97.768,35.087],[97.771,35.051],[97.808,35.010],[97.788,34.978],[97.800,34.914],[97.855,34.887]]]}},{"type":"Feature","properties":{"rank":5},"geometry":{"type":"Polygon","coordinates":[[[119.388,33.002],[119.408,32.766],[119.380,32.732],[119.351,32.740],[119.319,32.779],[119.281,32.717],[119.227,32.759],[119.207,32.690],[119.177,32.667],[119.154,32.703],[119.174,32.717],[119.141,32.738],[119.120,32.785],[119.129,32.818],[119.082,32.832],[119.044,32.875],[119.066,32.883],[119.113,32.847],[119.144,32.910],[119.160,32.881],[119.226,32.851],[119.284,32.875],[119.239,32.877],[119.237,32.936],[119.264,32.930],[119.276,32.951],[119.223,32.998],[119.264,33.019],[119.277,33.053],[119.315,33.019],[119.328,33.034],[119.298,33.111],[119.229,33.142],[119.236,33.176],[119.195,33.170],[119.158,33.134],[119.154,33.073],[119.195,33.087],[119.075,33.019],[118.970,33.046],[118.921,33.039],[118.839,33.101],[118.888,33.096],[118.900,33.069],[118.945,33.073],[119.052,33.046],[119.122,33.069],[119.156,33.165],[119.237,33.204],[119.244,33.227],[119.257,33.221],[119.268,33.169],[119.315,33.139],[119.346,33.060],[119.341,33.019],[119.305,32.991],[119.379,33.020],[119.388,33.002]]]}},{"type":"Feature","properties":{"rank":5},"geometry":{"type":"Polygon","coordinates":[[[97.317,35.034],[97.486,34.983],[97.486,34.967],[97.472,34.956],[97.452,34.965],[97.445,34.936],[97.396,34.909],[97.378,34.872],[97.304,34.829],[97.248,34.836],[97.069,34.935],[97.055,34.997],[97.085,35.009],[97.095,34.986],[97.122,35.027],[97.162,35.012],[97.250,35.013],[97.317,35.034]]]}},{"type":"Feature","properties":{"rank":5},"geometry":{"type":"Polygon","coordinates":[[[81.240,30.745],[81.327,30.641],[81.299,30.608],[81.235,30.599],[81.218,30.621],[81.143,30.628],[81.108,30.676],[81.135,30.689],[81.159,30.676],[81.183,30.692],[81.176,30.709],[81.203,30.782],[81.189,30.846],[81.224,30.857],[81.296,30.821],[81.291,30.787],[81.259,30.784],[81.240,30.745]]]}},{"type":"Feature","properties":{"rank":5},"geometry":{"type":"Polygon","coordinates":[[[81.602,30.722],[81.603,30.690],[81.574,30.655],[81.451,30.566],[81.445,30.565],[81.424,30.566],[81.362,30.614],[81.378,30.641],[81.375,30.764],[81.406,30.788],[81.534,30.764],[81.602,30.722]]]}},{"type":"Feature","properties":{"rank":5},"geometry":{"type":"Polygon","coordinates":[[[116.454,30.117],[116.393,30.093],[116.398,30.108],[116.384,30.112],[116.406,30.134],[116.365,30.154],[116.393,30.154],[116.384,30.168],[116.319,30.177],[116.321,30.214],[116.296,30.223],[116.325,30.240],[116.344,30.223],[116.344,30.250],[116.359,30.244],[116.372,30.271],[116.369,30.223],[116.397,30.210],[116.406,30.223],[116.418,30.181],[116.434,30.175],[116.427,30.209],[116.475,30.209],[116.485,30.188],[116.543,30.236],[116.530,30.168],[116.543,30.154],[116.503,30.137],[116.549,30.111],[116.551,30.095],[116.482,30.066],[116.503,30.099],[116.461,30.093],[116.444,30.101],[116.454,30.117]]]}},{"type":"Feature","properties":{"rank":5},"geometry":{"type":"Polygon","coordinates":[[[117.571,47.656],[117.592,47.697],[117.540,47.709],[117.503,47.759],[117.512,47.785],[117.685,47.954],[117.739,47.977],[117.798,47.970],[117.831,47.910],[117.872,47.889],[117.882,47.833],[117.868,47.809],[117.802,47.747],[117.673,47.677],[117.571,47.656]]]}},{"type":"Feature","properties":{"rank":5},"geometry":{"type":"Polygon","coordinates":[[[83.316,31.443],[83.260,31.471],[83.253,31.459],[83.178,31.463],[83.144,31.449],[83.080,31.518],[83.042,31.536],[83.027,31.518],[82.979,31.525],[82.939,31.499],[82.832,31.545],[82.823,31.573],[82.972,31.573],[82.941,31.617],[82.917,31.621],[82.928,31.634],[82.979,31.641],[83.034,31.619],[83.072,31.654],[83.115,31.655],[83.120,31.631],[83.089,31.605],[83.130,31.615],[83.140,31.586],[83.201,31.573],[83.376,31.436],[83.316,31.443]]]}},{"type":"Feature","properties":{"rank":5},"geometry":{"type":"Polygon","coordinates":[[[86.761,31.313],[86.796,31.141],[86.773,31.122],[86.686,31.121],[86.614,31.078],[86.597,31.052],[86.606,31.001],[86.521,30.881],[86.524,30.824],[86.451,30.769],[86.412,30.784],[86.376,30.871],[86.426,30.893],[86.454,30.999],[86.570,31.089],[86.615,31.211],[86.625,31.339],[86.647,31.368],[86.734,31.346],[86.761,31.313]]]}},{"type":"Feature","properties":{"rank":5},"geometry":{"type":"Polygon","coordinates":[[[79.767,53.025],[79.820,53.001],[79.808,52.972],[79.745,52.975],[79.710,52.960],[79.712,52.860],[79.743,52.864],[79.738,52.884],[79.763,52.878],[79.764,52.857],[79.734,52.823],[79.594,52.830],[79.489,52.864],[79.401,52.930],[79.377,52.987],[79.400,53.060],[79.487,53.123],[79.542,53.131],[79.662,53.104],[79.651,53.125],[79.573,53.138],[79.596,53.146],[79.665,53.138],[79.713,53.092],[79.772,53.074],[79.767,53.025]]]}},{"type":"Feature","properties":{"rank":5},"geometry":{"type":"Polygon","coordinates":[[[73.432,53.068],[73.376,53.055],[73.297,53.128],[73.296,53.151],[73.090,53.261],[73.059,53.336],[73.039,53.336],[72.984,53.292],[72.974,53.242],[72.952,53.258],[72.922,53.254],[72.912,53.289],[72.931,53.286],[72.988,53.337],[73.008,53.330],[72.988,53.351],[72.953,53.346],[72.953,53.358],[72.994,53.364],[73.014,53.388],[73.044,53.396],[73.264,53.402],[73.405,53.366],[73.435,53.340],[73.440,53.296],[73.412,53.238],[73.407,53.174],[73.433,53.111],[73.412,53.118],[73.379,53.099],[73.432,53.068]]]}},{"type":"Feature","properties":{"rank":5},"geometry":{"type":"Polygon","coordinates":[[[80.313,55.564],[80.340,55.529],[80.317,55.502],[80.173,55.420],[79.906,55.372],[79.820,55.400],[79.810,55.475],[79.858,55.489],[79.941,55.485],[79.967,55.526],[80.008,55.541],[80.261,55.579],[80.313,55.564]]]}},{"type":"Feature","properties":{"rank":5},"geometry":{"type":"Polygon","coordinates":[[[91.002,28.876],[90.915,28.939],[90.899,28.935],[90.893,28.952],[90.852,28.911],[90.859,28.939],[90.811,28.926],[90.805,28.952],[90.757,28.922],[90.763,28.956],[90.729,28.974],[90.722,28.952],[90.764,28.896],[90.766,28.872],[90.729,28.857],[90.733,28.874],[90.702,28.905],[90.656,28.905],[90.647,28.891],[90.680,28.878],[90.604,28.821],[90.593,28.785],[90.507,28.782],[90.503,28.823],[90.456,28.846],[90.437,28.893],[90.490,28.884],[90.496,28.851],[90.529,28.867],[90.524,28.813],[90.551,28.809],[90.544,28.823],[90.565,28.836],[90.551,28.891],[90.641,28.919],[90.599,28.939],[90.600,28.959],[90.694,28.982],[90.690,29.022],[90.647,29.076],[90.665,29.086],[90.656,29.139],[90.628,29.169],[90.572,29.186],[90.435,29.130],[90.394,29.097],[90.396,29.078],[90.361,29.111],[90.548,29.199],[90.661,29.179],[90.741,29.142],[90.722,29.130],[90.737,29.110],[90.715,29.110],[90.719,29.056],[90.753,29.028],[90.791,29.035],[90.773,29.016],[90.743,29.015],[90.759,28.999],[90.832,28.967],[90.818,28.980],[90.846,29.028],[90.932,29.028],[91.013,28.967],[91.017,28.946],[90.969,28.960],[90.951,28.944],[91.041,28.874],[91.002,28.876]]]}},{"type":"Feature","properties":{"rank":5},"geometry":{"type":"Polygon","coordinates":[[[67.645,55.826],[67.698,55.790],[67.580,55.790],[67.622,55.776],[67.591,55.761],[67.588,55.736],[67.516,55.739],[67.480,55.697],[67.376,55.719],[67.270,55.766],[67.303,55.814],[67.368,55.838],[67.333,55.865],[67.355,55.873],[67.409,55.872],[67.425,55.828],[67.500,55.779],[67.543,55.793],[67.569,55.825],[67.645,55.826]]]}},{"type":"Feature","properties":{"rank":5},"geometry":{"type":"Polygon","coordinates":[[[118.822,31.401],[118.764,31.484],[118.791,31.429],[118.784,31.389],[118.732,31.488],[118.736,31.504],[118.757,31.504],[118.688,31.538],[118.722,31.559],[118.801,31.532],[118.939,31.565],[118.976,31.484],[118.956,31.448],[118.907,31.439],[118.894,31.402],[118.857,31.381],[118.822,31.401]]]}},{"type":"Feature","properties":{"rank":5},"geometry":{"type":"Polygon","coordinates":[[[113.453,29.956],[113.461,29.899],[113.445,29.872],[113.390,29.851],[113.392,29.803],[113.320,29.736],[113.279,29.760],[113.269,29.799],[113.246,29.810],[113.221,29.861],[113.227,29.907],[113.295,29.906],[113.305,29.874],[113.351,29.846],[113.357,29.866],[113.337,29.880],[113.353,29.943],[113.381,29.963],[113.453,29.956]]]}},{"type":"Feature","properties":{"rank":5},"geometry":{"type":"Polygon","coordinates":[[[117.952,31.526],[117.955,31.497],[117.925,31.524],[117.928,31.538],[117.846,31.583],[117.768,31.591],[117.647,31.462],[117.612,31.443],[117.547,31.438],[117.442,31.484],[117.383,31.542],[117.304,31.573],[117.288,31.661],[117.306,31.704],[117.360,31.720],[117.438,31.690],[117.427,31.635],[117.452,31.596],[117.545,31.580],[117.645,31.657],[117.706,31.659],[117.846,31.607],[117.952,31.526]]]}},{"type":"Feature","properties":{"rank":5},"geometry":{"type":"Polygon","coordinates":[[[117.338,34.612],[117.340,34.579],[117.260,34.499],[117.201,34.472],[117.195,34.527],[117.169,34.536],[117.129,34.637],[117.134,34.723],[117.117,34.738],[117.134,34.755],[117.147,34.734],[117.256,34.684],[117.338,34.612]]]}},{"type":"Feature","properties":{"rank":5},"geometry":{"type":"Polygon","coordinates":[[[114.305,30.036],[114.288,29.989],[114.241,29.983],[114.244,29.968],[114.201,29.951],[114.275,29.921],[114.256,29.893],[114.199,29.900],[114.162,29.921],[114.151,29.935],[114.137,30.008],[114.151,30.113],[114.158,30.099],[114.229,30.154],[114.261,30.140],[114.224,30.102],[114.227,30.079],[114.243,30.075],[114.261,30.024],[114.289,30.058],[114.289,30.032],[114.305,30.036]]]}},{"type":"Feature","properties":{"rank":5},"geometry":{"type":"Polygon","coordinates":[[[91.223,35.662],[91.338,35.579],[91.270,35.565],[91.300,35.528],[91.233,35.526],[91.160,35.551],[91.072,35.557],[91.003,35.599],[90.941,35.614],[90.932,35.631],[90.956,35.654],[91.011,35.628],[91.028,35.648],[91.149,35.626],[91.223,35.634],[91.223,35.662]]]}},{"type":"Feature","properties":{"rank":5},"geometry":{"type":"Polygon","coordinates":[[[85.900,30.944],[85.885,30.913],[85.878,30.936],[85.841,30.931],[85.861,30.855],[85.843,30.777],[85.815,30.747],[85.761,30.758],[85.788,30.771],[85.772,30.795],[85.809,30.819],[85.761,30.830],[85.733,30.874],[85.675,30.881],[85.610,30.860],[85.598,30.871],[85.574,30.819],[85.377,30.888],[85.331,30.957],[85.353,31.008],[85.405,31.045],[85.399,31.070],[85.411,31.081],[85.629,30.999],[85.627,31.027],[85.651,31.038],[85.674,31.019],[85.685,31.037],[85.747,31.027],[85.802,30.996],[85.880,30.984],[85.900,30.944]]]}},{"type":"Feature","properties":{"rank":6},"geometry":{"type":"Polygon","coordinates":[[[139.788,53.388],[139.843,53.330],[139.769,53.332],[139.671,53.373],[139.624,53.453],[139.727,53.532],[139.819,53.567],[139.911,53.577],[139.973,53.536],[139.959,53.514],[139.904,53.501],[139.828,53.457],[139.788,53.388]]]}},{"type":"Feature","properties":{"rank":6},"geometry":{"type":"Polygon","coordinates":[[[136.205,35.406],[136.278,35.364],[136.252,35.284],[136.077,35.190],[136.060,35.164],[136.073,35.149],[135.964,35.123],[135.945,35.056],[135.919,35.038],[135.909,34.978],[135.884,34.990],[135.868,35.023],[135.928,35.119],[135.936,35.186],[136.074,35.321],[136.042,35.386],[136.070,35.454],[136.094,35.444],[136.122,35.486],[136.134,35.443],[136.152,35.438],[136.163,35.499],[136.177,35.495],[136.196,35.474],[136.205,35.406]]]}},{"type":"Feature","properties":{"rank":6},"geometry":{"type":"Polygon","coordinates":[[[90.966,50.082],[90.868,50.122],[90.939,50.220],[91.089,50.209],[91.120,50.192],[91.141,50.142],[91.130,50.103],[91.090,50.089],[90.966,50.082]]]}},{"type":"Feature","properties":{"rank":6},"geometry":{"type":"Polygon","coordinates":[[[90.290,33.313],[90.160,33.389],[90.124,33.357],[89.996,33.403],[90.016,33.433],[89.994,33.475],[90.137,33.403],[90.181,33.396],[90.294,33.457],[90.302,33.479],[90.270,33.602],[90.293,33.612],[90.298,33.725],[90.341,33.663],[90.325,33.656],[90.344,33.608],[90.402,33.530],[90.407,33.419],[90.352,33.409],[90.339,33.375],[90.311,33.361],[90.310,33.319],[90.290,33.313]]]}},{"type":"Feature","properties":{"rank":6},"geometry":{"type":"Polygon","coordinates":[[[89.973,33.492],[89.972,33.471],[89.948,33.457],[89.946,33.386],[89.902,33.358],[89.870,33.292],[89.832,33.272],[89.843,33.247],[89.825,33.242],[89.793,33.266],[89.811,33.280],[89.777,33.347],[89.788,33.411],[89.818,33.423],[89.728,33.436],[89.661,33.492],[89.788,33.453],[89.838,33.470],[89.863,33.519],[89.929,33.525],[89.973,33.492]]]}},{"type":"Feature","properties":{"rank":6},"geometry":{"type":"Polygon","coordinates":[[[75.936,32.089],[75.918,32.126],[75.945,32.135],[75.937,32.177],[75.974,32.168],[76.006,32.132],[76.042,32.167],[76.045,32.099],[76.110,32.081],[76.104,32.047],[76.122,32.017],[76.172,32.013],[76.157,31.980],[76.196,31.906],[76.197,31.873],[76.155,31.887],[76.123,31.873],[76.071,31.923],[75.934,31.964],[75.958,32.036],[75.931,32.055],[75.936,32.089]]]}},{"type":"Feature","properties":{"rank":6},"geometry":{"type":"Polygon","coordinates":[[[78.980,33.735],[78.970,33.711],[78.861,33.689],[78.823,33.698],[78.758,33.669],[78.727,33.678],[78.656,33.738],[78.590,33.826],[78.456,33.920],[78.435,33.978],[78.447,33.967],[78.497,33.977],[78.545,33.896],[78.559,33.905],[78.610,33.869],[78.679,33.783],[78.759,33.728],[78.785,33.725],[78.813,33.746],[78.855,33.730],[78.895,33.746],[78.980,33.735]]]}},{"type":"Feature","properties":{"rank":7},"geometry":{"type":"Polygon","coordinates":[[[140.747,51.658],[140.768,51.623],[140.644,51.651],[140.611,51.630],[140.608,51.600],[140.413,51.557],[140.356,51.576],[140.332,51.566],[140.291,51.603],[140.267,51.602],[140.186,51.569],[140.178,51.535],[140.161,51.528],[140.121,51.539],[140.097,51.569],[140.187,51.617],[140.199,51.637],[140.156,51.655],[140.052,51.653],[139.941,51.590],[139.889,51.571],[139.855,51.580],[140.079,51.763],[140.113,51.763],[140.035,51.672],[140.155,51.669],[140.193,51.676],[140.179,51.706],[140.185,51.746],[140.308,51.765],[140.348,51.792],[140.373,51.836],[140.387,51.925],[140.338,51.995],[140.356,52.021],[140.427,51.955],[140.402,51.894],[140.427,51.864],[140.509,51.893],[140.608,51.877],[140.652,51.850],[140.480,51.823],[140.414,51.839],[140.385,51.788],[140.350,51.761],[140.207,51.738],[140.230,51.686],[140.250,51.675],[140.317,51.685],[140.360,51.624],[140.423,51.620],[140.665,51.678],[140.747,51.658]]]}},{"type":"Feature","properties":{"rank":7},"geometry":{"type":"Polygon","coordinates":[[[137.444,50.370],[137.472,50.359],[137.410,50.339],[137.377,50.301],[137.403,50.287],[137.393,50.256],[137.436,50.205],[137.404,50.181],[137.393,50.178],[137.358,50.270],[137.225,50.281],[137.139,50.315],[137.114,50.308],[137.110,50.292],[137.142,50.223],[137.133,50.196],[137.112,50.207],[137.023,50.147],[136.903,50.110],[136.904,50.073],[136.853,50.044],[136.835,49.973],[136.765,49.856],[136.799,49.816],[136.786,49.801],[136.817,49.760],[136.790,49.759],[136.758,49.782],[136.746,49.842],[136.696,49.874],[136.629,49.856],[136.529,49.863],[136.364,49.777],[136.295,49.712],[136.273,49.664],[136.214,49.626],[136.146,49.598],[136.104,49.594],[136.080,49.609],[136.142,49.630],[136.171,49.618],[136.197,49.636],[136.187,49.668],[136.273,49.705],[136.222,49.703],[136.190,49.777],[136.252,49.822],[136.177,49.842],[136.329,49.855],[136.409,49.897],[136.416,49.924],[136.404,49.942],[136.416,49.955],[136.518,49.958],[136.560,49.931],[136.592,49.882],[136.735,49.888],[136.769,49.941],[136.780,50.014],[136.862,50.172],[136.951,50.232],[137.012,50.253],[137.077,50.312],[137.057,50.350],[137.013,50.321],[137.058,50.381],[137.055,50.434],[137.069,50.452],[137.146,50.332],[137.176,50.348],[137.222,50.327],[137.444,50.370]],[[137.094,50.246],[137.072,50.282],[137.009,50.237],[136.935,50.209],[136.905,50.157],[137.006,50.173],[137.094,50.246]]]}},{"type":"Feature","properties":{"rank":7},"geometry":{"type":"Polygon","coordinates":[[[61.967,46.263],[61.944,46.210],[61.913,46.195],[61.905,46.168],[61.843,46.182],[61.808,46.140],[61.787,46.163],[61.645,46.147],[61.648,46.129],[61.704,46.126],[61.654,46.103],[61.742,46.119],[61.754,46.109],[61.740,46.074],[61.795,46.071],[61.776,46.021],[61.730,46.016],[61.682,45.952],[61.671,45.999],[61.600,46.034],[61.561,46.101],[61.640,46.171],[61.641,46.198],[61.718,46.213],[61.751,46.195],[61.778,46.230],[61.967,46.263]]]}},{"type":"Feature","properties":{"rank":7},"geometry":{"type":"Polygon","coordinates":[[[113.069,29.393],[113.055,29.284],[112.993,29.147],[112.987,29.254],[113.021,29.294],[112.997,29.339],[112.944,29.319],[112.816,29.202],[112.822,29.250],[112.886,29.365],[112.861,29.394],[112.845,29.367],[112.829,29.370],[112.827,29.409],[112.870,29.442],[112.826,29.475],[112.774,29.483],[112.811,29.495],[112.844,29.483],[113.015,29.357],[113.069,29.393]]]}},{"type":"Feature","properties":{"rank":7},"geometry":{"type":"Polygon","coordinates":[[[112.857,28.955],[112.904,29.031],[112.857,28.915],[112.864,28.880],[112.846,28.842],[112.781,28.817],[112.766,28.832],[112.781,28.853],[112.842,28.866],[112.842,28.908],[112.823,28.909],[112.711,28.867],[112.696,28.848],[112.659,28.848],[112.658,28.811],[112.610,28.776],[112.575,28.838],[112.536,28.793],[112.456,28.787],[112.360,28.881],[112.336,28.886],[112.343,28.811],[112.319,28.839],[112.302,28.811],[112.329,28.770],[112.302,28.798],[112.302,28.763],[112.280,28.773],[112.261,28.756],[112.287,28.824],[112.267,28.811],[112.261,28.825],[112.233,28.790],[112.240,28.832],[112.214,28.835],[112.192,28.811],[112.192,28.866],[112.159,28.890],[111.962,28.950],[111.978,28.987],[112.029,28.954],[112.151,28.938],[112.157,28.956],[112.199,28.976],[112.194,29.072],[112.220,29.085],[112.252,29.076],[112.281,29.004],[112.267,28.951],[112.282,28.865],[112.316,28.873],[112.307,28.908],[112.333,28.924],[112.411,28.880],[112.428,28.834],[112.476,28.845],[112.483,28.896],[112.525,28.912],[112.586,28.914],[112.624,28.886],[112.745,28.889],[112.857,28.955]]]}},{"type":"Feature","properties":{"rank":7},"geometry":{"type":"Polygon","coordinates":[[[87.838,51.366],[87.836,51.346],[87.820,51.344],[87.742,51.377],[87.728,51.428],[87.681,51.492],[87.684,51.534],[87.652,51.581],[87.639,51.718],[87.391,51.761],[87.545,51.755],[87.647,51.769],[87.725,51.801],[87.728,51.788],[87.683,51.763],[87.697,51.581],[87.804,51.398],[87.838,51.366]]]}},{"type":"Feature","properties":{"rank":7},"geometry":{"type":"Polygon","coordinates":[[[81.002,46.486],[80.933,46.506],[80.847,46.492],[80.741,46.592],[80.639,46.625],[80.610,46.666],[80.615,46.700],[80.802,46.686],[80.871,46.649],[80.902,46.670],[80.975,46.649],[81.072,46.649],[81.156,46.676],[81.202,46.655],[81.237,46.612],[81.240,46.572],[81.199,46.516],[81.175,46.503],[81.152,46.509],[81.138,46.539],[81.122,46.527],[81.128,46.506],[81.170,46.491],[81.157,46.457],[81.067,46.498],[81.002,46.486]]]}},{"type":"Feature","properties":{"rank":7},"geometry":{"type":"Polygon","coordinates":[[[136.396,51.979],[136.462,52.054],[136.533,52.057],[136.492,51.994],[136.513,51.996],[136.581,52.028],[136.578,52.049],[136.598,52.069],[136.679,52.107],[136.746,52.069],[136.697,52.021],[136.753,52.021],[136.779,51.994],[136.723,51.948],[136.616,51.957],[136.615,51.925],[136.534,51.887],[136.487,51.882],[136.444,51.902],[136.450,51.933],[136.406,51.957],[136.396,51.979]]]}},{"type":"Feature","properties":{"rank":8},"geometry":{"type":"Polygon","coordinates":[[[121.466,14.385],[121.475,14.321],[121.435,14.344],[121.426,14.299],[121.364,14.263],[121.306,14.194],[121.190,14.188],[121.167,14.269],[121.066,14.377],[121.066,14.483],[121.091,14.518],[121.125,14.524],[121.161,14.508],[121.224,14.421],[121.222,14.457],[121.248,14.504],[121.281,14.513],[121.341,14.442],[121.347,14.408],[121.319,14.305],[121.388,14.341],[121.429,14.398],[121.466,14.385]]]}},{"type":"Feature","properties":{"rank":8},"geometry":{"type":"Polygon","coordinates":[[[92.081,35.217],[91.935,35.216],[91.944,35.233],[92.038,35.271],[92.120,35.278],[92.190,35.253],[92.233,35.264],[92.298,35.222],[92.234,35.183],[92.162,35.189],[92.162,35.161],[92.081,35.217]]]}},{"type":"Feature","properties":{"rank":8},"geometry":{"type":"Polygon","coordinates":[[[124.363,45.249],[124.433,45.232],[124.394,45.185],[124.283,45.178],[124.232,45.202],[124.246,45.216],[124.205,45.247],[124.174,45.313],[124.081,45.320],[124.134,45.341],[124.188,45.339],[124.321,45.285],[124.363,45.249]]]}},{"type":"Feature","properties":{"rank":9},"geometry":{"type":"Polygon","coordinates":[[[83.153,44.878],[83.164,44.840],[83.148,44.802],[83.072,44.754],[83.027,44.751],[82.932,44.785],[82.869,44.833],[82.766,44.843],[82.684,44.887],[82.803,44.985],[82.834,44.992],[82.972,44.973],[83.121,44.907],[83.153,44.878]]]}},{"type":"Feature","properties":{"rank":9},"geometry":{"type":"Polygon","coordinates":[[[86.001,48.827],[86.022,48.811],[86.002,48.768],[85.953,48.753],[85.855,48.677],[85.805,48.662],[85.570,48.688],[85.535,48.710],[85.544,48.752],[85.580,48.796],[85.606,48.804],[85.758,48.833],[85.850,48.806],[85.878,48.833],[85.925,48.807],[86.001,48.827]]]}},{"type":"Feature","properties":{"rank":9},"geometry":{"type":"Polygon","coordinates":[[[90.623,49.522],[90.619,49.483],[90.653,49.461],[90.672,49.425],[90.667,49.387],[90.645,49.369],[90.633,49.384],[90.647,49.417],[90.592,49.396],[90.515,49.430],[90.445,49.434],[90.414,49.506],[90.558,49.589],[90.658,49.594],[90.700,49.576],[90.695,49.540],[90.623,49.522]]]}},{"type":"Feature","properties":{"rank":9},"geometry":{"type":"Polygon","coordinates":[[[140.120,52.212],[140.115,52.168],[140.078,52.140],[139.963,52.128],[139.915,52.092],[139.895,52.114],[139.828,52.100],[139.856,52.073],[139.835,52.038],[139.747,52.014],[139.788,51.973],[139.760,51.959],[139.757,51.921],[139.719,51.914],[139.719,51.933],[139.685,51.939],[139.699,51.946],[139.672,51.959],[139.705,51.971],[139.712,52.011],[139.630,52.042],[139.647,52.061],[139.725,52.076],[139.772,52.124],[139.815,52.130],[139.801,52.172],[139.843,52.179],[139.894,52.165],[140.026,52.219],[140.120,52.212]]]}},{"type":"Feature","properties":{"rank":9},"geometry":{"type":"Polygon","coordinates":[[[136.608,51.473],[136.601,51.435],[136.550,51.391],[136.485,51.387],[136.465,51.403],[136.464,51.440],[136.437,51.453],[136.443,51.508],[136.423,51.535],[136.471,51.571],[136.517,51.581],[136.540,51.563],[136.510,51.545],[136.585,51.507],[136.608,51.473]]]}},{"type":"Feature","properties":{"rank":9},"geometry":{"type":"Polygon","coordinates":[[[116.573,43.223],[116.468,43.228],[116.510,43.268],[116.582,43.301],[116.591,43.319],[116.570,43.319],[116.616,43.373],[116.667,43.387],[116.736,43.373],[116.701,43.353],[116.756,43.315],[116.756,43.278],[116.740,43.258],[116.573,43.223]]]}},{"type":"Feature","properties":{"rank":9},"geometry":{"type":"Polygon","coordinates":[[[97.493,48.835],[97.510,48.805],[97.447,48.825],[97.321,48.781],[97.291,48.794],[97.223,48.777],[97.180,48.792],[97.157,48.852],[97.215,48.841],[97.226,48.862],[97.270,48.862],[97.344,48.894],[97.493,48.835]]]}},{"type":"Feature","properties":{"rank":9},"geometry":{"type":"Polygon","coordinates":[[[99.141,49.253],[99.254,49.238],[99.228,49.223],[99.157,49.231],[99.137,49.212],[99.151,49.163],[99.129,49.144],[99.001,49.180],[99.004,49.201],[99.054,49.214],[99.054,49.231],[99.007,49.253],[98.913,49.247],[98.885,49.274],[98.809,49.301],[99.023,49.299],[99.082,49.260],[99.081,49.232],[99.141,49.253]]]}},{"type":"Feature","properties":{"rank":9},"geometry":{"type":"Polygon","coordinates":[[[117.635,45.563],[117.647,45.539],[117.621,45.528],[117.627,45.504],[117.609,45.470],[117.568,45.437],[117.522,45.426],[117.509,45.401],[117.435,45.401],[117.380,45.439],[117.319,45.456],[117.464,45.526],[117.598,45.532],[117.573,45.572],[117.585,45.587],[117.596,45.570],[117.635,45.563]]]}},{"type":"Feature","properties":{"rank":9},"geometry":{"type":"Polygon","coordinates":[[[88.359,36.996],[88.276,37.060],[88.342,37.143],[88.415,37.173],[88.550,37.148],[88.557,37.089],[88.540,37.039],[88.517,37.062],[88.470,37.067],[88.440,36.991],[88.359,36.996]]]}},{"type":"Feature","properties":{"rank":9},"geometry":{"type":"Polygon","coordinates":[[[90.801,38.170],[90.985,38.100],[91.007,38.081],[91.003,38.056],[91.020,38.050],[90.976,38.049],[90.969,38.021],[90.914,37.996],[90.850,38.061],[90.709,38.094],[90.709,38.131],[90.728,38.153],[90.801,38.170]]]}},{"type":"Feature","properties":{"rank":9},"geometry":{"type":"Polygon","coordinates":[[[92.954,35.758],[93.038,35.700],[93.025,35.681],[92.914,35.665],[92.826,35.737],[92.806,35.771],[92.607,35.843],[92.621,35.858],[92.785,35.857],[92.822,35.818],[92.954,35.758]]]}},{"type":"Feature","properties":{"rank":9},"geometry":{"type":"Polygon","coordinates":[[[91.966,35.631],[92.099,35.556],[92.052,35.528],[92.031,35.549],[91.907,35.507],[91.839,35.521],[91.784,35.569],[91.812,35.610],[91.904,35.645],[91.966,35.631]]]}},{"type":"Feature","properties":{"rank":9},"geometry":{"type":"Polygon","coordinates":[[[90.354,35.151],[90.240,35.161],[90.201,35.143],[90.174,35.150],[90.092,35.219],[90.110,35.219],[90.141,35.257],[90.213,35.234],[90.154,35.205],[90.261,35.178],[90.270,35.191],[90.250,35.197],[90.264,35.231],[90.290,35.239],[90.303,35.276],[90.339,35.287],[90.400,35.205],[90.373,35.266],[90.389,35.280],[90.394,35.259],[90.418,35.263],[90.483,35.219],[90.529,35.216],[90.551,35.197],[90.560,35.216],[90.585,35.206],[90.619,35.219],[90.648,35.204],[90.517,35.170],[90.481,35.183],[90.455,35.219],[90.422,35.147],[90.400,35.164],[90.354,35.151]]]}},{"type":"Feature","properties":{"rank":9},"geometry":{"type":"Polygon","coordinates":[[[90.733,34.835],[90.653,34.855],[90.555,34.835],[90.460,34.846],[90.442,34.815],[90.366,34.794],[90.499,34.757],[90.483,34.714],[90.435,34.705],[90.460,34.694],[90.442,34.683],[90.339,34.753],[90.306,34.747],[90.297,34.791],[90.352,34.800],[90.256,34.835],[90.268,34.880],[90.388,34.909],[90.499,34.864],[90.510,34.890],[90.531,34.896],[90.715,34.869],[90.733,34.835]]]}},{"type":"Feature","properties":{"rank":9},"geometry":{"type":"Polygon","coordinates":[[[89.235,34.568],[89.229,34.539],[89.204,34.533],[89.184,34.561],[89.086,34.580],[89.070,34.503],[88.989,34.494],[88.945,34.512],[88.941,34.533],[88.914,34.513],[88.920,34.581],[88.888,34.574],[88.838,34.629],[88.876,34.645],[88.900,34.615],[89.021,34.599],[89.139,34.615],[89.170,34.595],[89.216,34.599],[89.235,34.568]]]}},{"type":"Feature","properties":{"rank":9},"geometry":{"type":"Polygon","coordinates":[[[89.602,36.274],[89.611,36.253],[89.554,36.230],[89.519,36.265],[89.454,36.276],[89.356,36.336],[89.297,36.347],[89.282,36.457],[89.482,36.372],[89.551,36.293],[89.602,36.274]]]}},{"type":"Feature","properties":{"rank":9},"geometry":{"type":"Polygon","coordinates":[[[88.162,31.711],[87.898,31.630],[87.821,31.620],[87.851,31.663],[87.851,31.723],[87.939,31.769],[88.010,31.766],[88.088,31.794],[88.108,31.781],[88.110,31.760],[88.084,31.751],[88.098,31.738],[88.163,31.748],[88.162,31.711]]]}},{"type":"Feature","properties":{"rank":9},"geometry":{"type":"Polygon","coordinates":[[[81.811,34.025],[81.797,33.978],[81.768,33.984],[81.740,34.024],[81.717,34.026],[81.682,33.924],[81.657,33.909],[81.663,33.978],[81.639,33.972],[81.560,34.026],[81.416,33.950],[81.409,33.968],[81.451,33.985],[81.508,34.067],[81.539,34.082],[81.522,34.096],[81.492,34.088],[81.486,34.101],[81.532,34.119],[81.573,34.121],[81.595,34.088],[81.632,34.095],[81.811,34.025]]]}},{"type":"Feature","properties":{"rank":9},"geometry":{"type":"Polygon","coordinates":[[[81.176,35.102],[81.244,35.051],[81.224,35.014],[81.146,35.007],[81.101,35.020],[80.984,34.982],[80.945,34.988],[80.922,35.012],[80.952,35.071],[81.018,35.086],[81.074,35.080],[81.094,35.105],[81.112,35.094],[81.176,35.102]]]}},{"type":"Feature","properties":{"rank":9},"geometry":{"type":"Polygon","coordinates":[[[88.818,31.663],[88.830,31.597],[88.814,31.586],[88.799,31.517],[88.736,31.493],[88.726,31.475],[88.744,31.404],[88.714,31.339],[88.694,31.381],[88.720,31.410],[88.691,31.434],[88.677,31.509],[88.639,31.556],[88.598,31.559],[88.629,31.574],[88.660,31.559],[88.680,31.525],[88.729,31.527],[88.691,31.579],[88.604,31.594],[88.645,31.626],[88.701,31.635],[88.681,31.670],[88.691,31.676],[88.742,31.647],[88.818,31.663]]]}},{"type":"Feature","properties":{"rank":9},"geometry":{"type":"Polygon","coordinates":[[[88.576,31.052],[88.574,31.021],[88.547,30.994],[88.509,30.983],[88.473,30.994],[88.457,31.024],[88.377,31.047],[88.346,31.115],[88.256,31.168],[88.181,31.169],[88.031,31.311],[88.109,31.308],[88.536,31.095],[88.576,31.052]]]}},{"type":"Feature","properties":{"rank":9},"geometry":{"type":"Polygon","coordinates":[[[87.303,31.059],[87.308,31.010],[87.277,30.998],[87.154,31.004],[87.026,30.908],[86.988,30.902],[86.962,30.919],[86.981,30.963],[86.971,31.025],[87.060,31.069],[87.140,31.143],[87.242,31.107],[87.303,31.059]]]}},{"type":"Feature","properties":{"rank":9},"geometry":{"type":"Polygon","coordinates":[[[86.467,30.360],[86.433,30.188],[86.406,30.167],[86.353,30.204],[86.320,30.316],[86.349,30.361],[86.426,30.389],[86.467,30.360]]]}},{"type":"Feature","properties":{"rank":9},"geometry":{"type":"Polygon","coordinates":[[[83.962,31.254],[83.944,31.313],[83.983,31.308],[83.957,31.360],[83.976,31.375],[84.010,31.391],[84.067,31.379],[84.090,31.389],[84.033,31.403],[83.993,31.446],[84.014,31.497],[84.048,31.514],[84.099,31.449],[84.126,31.342],[84.099,31.321],[84.040,31.320],[84.024,31.264],[84.003,31.257],[83.962,31.254]]]}},{"type":"Feature","properties":{"rank":9},"geometry":{"type":"Polygon","coordinates":[[[84.329,31.183],[84.303,31.126],[84.175,31.065],[84.150,31.079],[84.054,31.066],[84.037,31.079],[83.965,31.059],[83.925,31.141],[83.948,31.196],[84.013,31.207],[84.044,31.205],[84.068,31.183],[84.128,31.209],[84.329,31.183]]]}},{"type":"Feature","properties":{"rank":9},"geometry":{"type":"Polygon","coordinates":[[[79.772,52.617],[79.689,52.717],[79.710,52.765],[79.792,52.782],[79.861,52.754],[79.882,52.690],[79.844,52.635],[79.772,52.617]]]}},{"type":"Feature","properties":{"rank":9},"geometry":{"type":"Polygon","coordinates":[[[72.963,53.930],[73.081,53.809],[73.046,53.767],[72.980,53.762],[72.851,53.810],[72.822,53.863],[72.864,53.876],[72.915,53.923],[72.963,53.930]]]}},{"type":"Feature","properties":{"rank":9},"geometry":{"type":"Polygon","coordinates":[[[73.853,53.486],[73.901,53.454],[73.889,53.390],[73.863,53.372],[73.763,53.369],[73.638,53.406],[73.664,53.442],[73.746,53.494],[73.853,53.486]]]}},{"type":"Feature","properties":{"rank":9},"geometry":{"type":"Polygon","coordinates":[[[78.559,54.907],[78.394,54.954],[78.449,54.981],[78.449,55.002],[78.483,55.030],[78.548,55.055],[78.663,55.044],[78.731,55.009],[78.732,54.981],[78.709,54.954],[78.559,54.907]]]}},{"type":"Feature","properties":{"rank":9},"geometry":{"type":"Polygon","coordinates":[[[78.134,54.652],[78.087,54.611],[78.113,54.605],[78.128,54.565],[78.090,54.525],[78.026,54.499],[77.945,54.512],[77.894,54.554],[77.798,54.564],[77.855,54.615],[78.031,54.613],[78.052,54.629],[78.045,54.646],[78.092,54.639],[78.134,54.652]]]}},{"type":"Feature","properties":{"rank":9},"geometry":{"type":"Polygon","coordinates":[[[64.244,50.363],[64.254,50.339],[64.212,50.313],[64.153,50.234],[64.127,50.216],[64.1,50.219],[64.147,50.260],[64.168,50.315],[64.079,50.243],[64.1,50.281],[64.097,50.324],[64.074,50.350],[64.093,50.370],[64.052,50.368],[64.065,50.411],[64.141,50.438],[64.151,50.412],[64.134,50.383],[64.155,50.382],[64.172,50.417],[64.161,50.438],[64.183,50.448],[64.212,50.426],[64.205,50.336],[64.244,50.363]]]}},{"type":"Feature","properties":{"rank":9},"geometry":{"type":"Polygon","coordinates":[[[70.069,54.101],[70.039,54.037],[70.019,54.041],[70.034,54.071],[69.981,54.104],[69.834,54.011],[69.767,54.008],[69.741,54.070],[69.777,54.141],[69.846,54.191],[69.936,54.188],[70.034,54.147],[70.069,54.101]]]}},{"type":"Feature","properties":{"rank":5},"geometry":{"type":"Polygon","coordinates":[[[90.248,28.625],[90.457,28.619],[90.527,28.572],[90.534,28.531],[90.472,28.519],[90.446,28.532],[90.414,28.513],[90.389,28.521],[90.396,28.535],[90.369,28.546],[90.354,28.536],[90.341,28.553],[90.311,28.532],[90.233,28.594],[90.248,28.625]]]}},{"type":"Feature","properties":{"rank":7},"geometry":{"type":"Polygon","coordinates":[[[114.662,23.902],[114.727,23.898],[114.668,23.874],[114.665,23.850],[114.645,23.870],[114.626,23.797],[114.583,23.782],[114.636,23.748],[114.628,23.731],[114.565,23.754],[114.522,23.733],[114.498,23.746],[114.433,23.727],[114.443,23.760],[114.433,23.761],[114.405,23.727],[114.385,23.754],[114.399,23.767],[114.391,23.782],[114.505,23.782],[114.533,23.805],[114.502,23.872],[114.481,23.884],[114.459,23.829],[114.357,23.836],[114.442,23.853],[114.460,23.870],[114.433,23.870],[114.455,23.918],[114.460,23.905],[114.527,23.929],[114.543,23.991],[114.522,24.089],[114.543,24.083],[114.567,24.011],[114.591,24.016],[114.597,24.035],[114.609,24.013],[114.556,23.956],[114.541,23.886],[114.501,23.898],[114.536,23.870],[114.550,23.836],[114.585,23.841],[114.645,23.918],[114.662,23.902]]]}},{"type":"Feature","properties":{"rank":8},"geometry":{"type":"Polygon","coordinates":[[[76.312,15.280],[76.334,15.236],[76.284,15.209],[76.299,15.193],[76.248,15.190],[76.215,15.160],[76.175,15.199],[76.119,15.174],[76.108,15.144],[76.070,15.140],[76.047,15.113],[76.020,15.127],[75.914,15.119],[75.893,15.092],[75.879,15.106],[75.884,15.143],[75.973,15.171],[75.975,15.201],[76.001,15.163],[76.065,15.185],[76.092,15.226],[76.092,15.284],[76.119,15.263],[76.218,15.255],[76.227,15.311],[76.312,15.280]]]}},{"type":"Feature","properties":{"rank":7},"geometry":{"type":"Polygon","coordinates":[[[82.862,54.673],[82.760,54.652],[82.620,54.557],[82.447,54.532],[82.430,54.509],[82.322,54.449],[82.239,54.433],[82.060,54.351],[81.778,54.287],[81.735,54.259],[81.697,54.187],[81.611,54.117],[81.459,54.067],[81.355,53.995],[81.341,54.002],[81.368,54.036],[81.348,54.030],[81.306,53.953],[81.334,53.885],[81.306,53.895],[81.295,53.929],[81.299,54.002],[81.275,53.976],[81.268,53.909],[81.236,53.887],[81.228,53.965],[81.279,54.035],[81.384,54.093],[81.494,54.103],[81.608,54.157],[81.741,54.314],[81.931,54.372],[82.043,54.376],[82.109,54.406],[82.169,54.448],[82.304,54.507],[82.331,54.553],[82.423,54.637],[82.555,54.655],[82.658,54.687],[82.781,54.796],[82.972,54.844],[83.044,54.844],[83.073,54.838],[83.109,54.790],[83.202,54.783],[83.243,54.759],[83.273,54.728],[83.278,54.698],[83.213,54.745],[83.074,54.779],[83.057,54.796],[83.038,54.783],[83.019,54.712],[82.931,54.690],[82.886,54.659],[82.862,54.673]]]}},{"type":"Feature","properties":{"rank":3},"geometry":{"type":"Polygon","coordinates":[[[84.481,47.956],[84.562,47.930],[84.464,47.906],[84.437,47.853],[84.384,47.834],[84.375,47.804],[84.390,47.773],[84.344,47.759],[84.269,47.778],[84.233,47.773],[84.278,47.732],[84.363,47.732],[84.256,47.718],[84.096,47.820],[83.836,47.882],[83.788,47.951],[83.698,47.979],[83.649,48.019],[83.530,48.026],[83.410,48.061],[83.352,48.046],[83.306,48.053],[83.211,48.099],[83.157,48.147],[83.085,48.155],[83.012,48.209],[82.999,48.239],[83.023,48.266],[83.107,48.225],[83.161,48.259],[83.256,48.273],[83.436,48.258],[83.479,48.273],[83.507,48.335],[83.595,48.368],[83.431,48.427],[83.384,48.505],[83.390,48.526],[83.369,48.560],[83.425,48.588],[83.449,48.651],[83.414,48.732],[83.448,48.865],[83.572,48.968],[83.626,48.975],[83.764,49.046],[83.968,49.073],[84.156,49.134],[84.181,49.161],[84.156,49.232],[84.109,49.256],[84.020,49.342],[83.921,49.379],[83.897,49.411],[83.835,49.436],[83.702,49.452],[83.657,49.417],[83.624,49.485],[83.539,49.535],[83.526,49.557],[83.479,49.527],[83.431,49.540],[83.431,49.581],[83.363,49.643],[83.445,49.623],[83.469,49.596],[83.613,49.616],[83.736,49.596],[83.753,49.630],[83.831,49.660],[83.872,49.715],[84.006,49.746],[84.014,49.732],[83.968,49.696],[83.882,49.680],[83.801,49.626],[83.788,49.599],[83.808,49.561],[83.705,49.568],[83.723,49.527],[83.672,49.510],[83.829,49.480],[83.815,49.465],[83.905,49.458],[83.928,49.410],[83.993,49.393],[84.088,49.314],[84.290,49.202],[84.341,49.190],[84.443,49.203],[84.480,49.184],[84.387,49.170],[84.316,49.123],[83.996,49.054],[83.931,49.000],[83.796,48.988],[83.582,48.924],[83.547,48.896],[83.547,48.876],[83.469,48.794],[83.451,48.734],[83.460,48.703],[83.528,48.639],[83.528,48.520],[83.561,48.465],[83.654,48.403],[83.712,48.390],[83.767,48.396],[83.815,48.424],[83.965,48.396],[83.930,48.370],[83.801,48.355],[83.691,48.376],[83.543,48.305],[83.503,48.276],[83.510,48.265],[83.969,48.130],[84.073,48.082],[84.089,48.039],[84.156,48.068],[84.218,48.043],[84.348,48.033],[84.481,47.956]]]}},{"type":"Feature","properties":{"rank":5},"geometry":{"type":"Polygon","coordinates":[[[102.795,18.552],[102.960,18.538],[102.722,18.526],[102.693,18.505],[102.658,18.432],[102.606,18.464],[102.579,18.505],[102.512,18.716],[102.484,18.765],[102.511,18.758],[102.523,18.771],[102.576,18.725],[102.577,18.679],[102.596,18.683],[102.583,18.671],[102.590,18.652],[102.605,18.658],[102.616,18.699],[102.636,18.696],[102.646,18.651],[102.618,18.640],[102.637,18.611],[102.780,18.713],[102.753,18.651],[102.717,18.631],[102.720,18.611],[102.782,18.576],[102.777,18.560],[102.795,18.552]]]}},{"type":"Feature","properties":{"rank":5},"geometry":{"type":"Polygon","coordinates":[[[73.304,41.773],[73.290,41.755],[73.174,41.735],[73.043,41.783],[72.900,41.730],[72.776,41.755],[72.707,41.694],[72.645,41.665],[72.590,41.701],[72.631,41.687],[72.673,41.701],[72.670,41.718],[72.741,41.784],[72.652,41.866],[72.625,41.872],[72.590,41.921],[72.849,41.885],[72.919,41.900],[72.953,41.858],[72.971,41.871],[73.071,41.852],[73.086,41.806],[73.304,41.773]]]}},{"type":"Feature","properties":{"rank":6},"geometry":{"type":"MultiPolygon","coordinates":[[[[101.809,55.633],[101.793,55.694],[101.769,55.694],[101.808,55.728],[101.801,55.788],[101.724,55.803],[101.704,55.841],[101.598,55.838],[101.625,55.859],[101.503,55.871],[101.481,55.892],[101.550,55.900],[101.469,55.953],[101.410,55.951],[101.413,55.896],[101.351,55.892],[101.372,55.901],[101.351,55.937],[101.303,55.969],[101.205,56.0],[101.284,56.0],[101.385,55.969],[101.433,55.976],[101.456,55.999],[101.635,55.904],[101.646,55.922],[101.591,55.970],[101.591,55.989],[101.652,55.990],[101.699,55.922],[101.756,55.961],[101.735,55.969],[101.749,55.982],[101.724,55.998],[102.016,55.989],[101.979,55.948],[102.014,55.936],[101.968,55.907],[101.977,55.880],[101.860,55.820],[101.844,55.756],[102.022,55.715],[102.070,55.736],[102.174,55.681],[101.954,55.681],[102.119,55.605],[102.159,55.601],[102.213,55.620],[102.358,55.591],[102.399,55.553],[102.379,55.528],[102.385,55.475],[102.293,55.433],[102.289,55.403],[102.338,55.338],[102.319,55.311],[102.283,55.297],[102.417,55.313],[102.441,55.284],[102.420,55.259],[102.276,55.242],[102.342,55.193],[102.319,55.149],[102.228,55.125],[102.249,55.103],[102.206,55.070],[102.064,55.036],[102.107,55.072],[102.167,55.077],[102.203,55.101],[102.178,55.112],[102.176,55.145],[102.297,55.181],[102.263,55.225],[102.269,55.256],[102.377,55.261],[102.416,55.286],[102.339,55.292],[102.301,55.270],[102.258,55.284],[102.256,55.303],[102.307,55.348],[102.262,55.398],[102.259,55.439],[102.318,55.475],[102.310,55.482],[102.352,55.495],[102.327,55.543],[102.218,55.548],[102.182,55.523],[102.218,55.487],[102.207,55.482],[102.139,55.493],[101.860,55.442],[101.844,55.427],[101.859,55.407],[101.756,55.406],[101.735,55.413],[101.824,55.421],[101.748,55.443],[101.727,55.474],[101.659,55.489],[101.705,55.496],[101.885,55.475],[102.066,55.498],[102.129,55.527],[102.128,55.541],[102.102,55.550],[101.896,55.574],[101.851,55.591],[101.858,55.605],[101.817,55.625],[101.809,55.633]],[[101.810,55.632],[101.810,55.633],[101.810,55.633],[101.810,55.632]]],[[[103.031,56.0],[103.016,55.924],[103.050,55.854],[103.222,55.763],[103.211,55.752],[103.263,55.708],[103.238,55.673],[103.256,55.632],[103.225,55.619],[103.208,55.580],[103.210,55.538],[103.236,55.516],[103.201,55.503],[103.332,55.333],[103.358,55.253],[103.357,55.130],[103.318,55.057],[103.267,54.998],[103.222,54.965],[103.160,54.948],[103.115,54.908],[103.081,54.819],[103.078,54.762],[103.098,54.743],[103.184,54.718],[103.248,54.664],[103.256,54.639],[103.304,54.639],[103.270,54.619],[103.277,54.597],[103.260,54.546],[103.273,54.508],[103.270,54.433],[103.332,54.440],[103.297,54.413],[103.332,54.385],[103.346,54.296],[103.417,54.196],[103.483,54.166],[103.516,54.132],[103.399,54.178],[103.326,54.269],[103.289,54.380],[103.255,54.383],[103.050,54.248],[103.043,54.200],[103.005,54.163],[103.008,54.139],[103.057,54.071],[103.127,54.040],[103.188,53.967],[103.291,53.906],[103.277,53.899],[103.284,53.885],[103.325,53.857],[103.291,53.846],[103.291,53.813],[103.412,53.698],[103.447,53.639],[103.554,53.625],[103.574,53.652],[103.592,53.618],[103.659,53.577],[103.704,53.598],[103.729,53.639],[103.766,53.644],[103.708,53.543],[103.716,53.519],[103.763,53.484],[103.754,53.466],[103.679,53.506],[103.663,53.553],[103.527,53.582],[103.437,53.587],[103.413,53.549],[103.421,53.522],[103.387,53.529],[103.441,53.364],[103.44,53.320],[103.383,53.171],[103.374,53.107],[103.338,53.159],[103.390,53.363],[103.376,53.446],[103.341,53.519],[103.336,53.690],[103.303,53.714],[103.103,53.731],[102.927,53.787],[102.818,53.776],[102.908,53.819],[103.151,53.757],[103.256,53.762],[103.168,53.943],[102.987,54.085],[102.968,54.139],[102.978,54.195],[103.021,54.257],[103.153,54.372],[103.136,54.406],[103.043,54.433],[103.092,54.447],[103.180,54.402],[103.222,54.413],[103.236,54.442],[103.230,54.620],[103.215,54.657],[103.073,54.747],[103.054,54.778],[103.060,54.873],[103.111,54.941],[103.250,55.038],[103.325,55.143],[103.315,55.272],[103.291,55.351],[103.172,55.474],[103.160,55.516],[103.189,55.637],[103.169,55.747],[103.084,55.804],[102.981,55.840],[102.970,55.861],[102.956,55.951],[102.971,56.0],[103.031,56.0]]]]}},{"type":"Feature","properties":{"rank":6},"geometry":{"type":"Polygon","coordinates":[[[68.383,41.138],[68.455,41.106],[68.369,41.050],[68.324,41.057],[68.273,41.016],[68.116,41.066],[68.095,41.065],[68.081,41.043],[68.058,41.055],[68.033,41.043],[68.002,41.116],[67.949,41.172],[67.930,41.215],[67.909,41.221],[67.912,41.242],[68.029,41.242],[68.091,41.174],[68.157,41.208],[68.239,41.207],[68.280,41.156],[68.335,41.133],[68.383,41.138]]]}},{"type":"Feature","properties":{"rank":7},"geometry":{"type":"Polygon","coordinates":[[[91.891,55.150],[91.860,55.133],[91.882,55.122],[91.874,55.105],[91.809,55.112],[91.722,55.096],[91.641,55.053],[91.620,55.050],[91.662,55.085],[91.360,55.050],[91.326,55.023],[91.294,55.050],[91.133,55.037],[91.031,54.968],[90.994,54.923],[90.998,54.892],[90.969,54.824],[90.983,54.697],[90.962,54.659],[90.986,54.637],[91.262,54.533],[91.301,54.482],[91.323,54.398],[91.374,54.372],[91.500,54.392],[91.603,54.365],[91.673,54.380],[91.743,54.365],[91.594,54.335],[91.442,54.374],[91.387,54.358],[91.497,54.262],[91.533,54.204],[91.588,54.027],[91.548,53.961],[91.605,53.962],[91.724,54.001],[91.781,53.999],[91.819,53.975],[91.812,53.941],[91.634,53.953],[91.517,53.930],[91.463,53.885],[91.464,53.844],[91.514,53.766],[91.510,53.735],[91.397,53.793],[91.408,53.844],[91.380,53.879],[91.411,53.899],[91.401,53.934],[91.524,54.002],[91.543,54.066],[91.531,54.088],[91.497,54.084],[91.492,54.105],[91.428,54.104],[91.452,54.133],[91.393,54.183],[91.353,54.262],[91.311,54.273],[91.295,54.305],[91.272,54.315],[91.215,54.324],[91.250,54.372],[91.209,54.437],[91.235,54.489],[91.229,54.509],[91.085,54.585],[90.929,54.639],[90.864,54.692],[90.868,54.721],[90.915,54.742],[90.915,54.899],[90.968,54.943],[91.017,55.030],[91.104,55.071],[91.353,55.081],[91.569,55.155],[91.624,55.145],[92.048,55.211],[92.081,55.251],[92.038,55.276],[92.148,55.284],[92.262,55.368],[92.331,55.463],[92.408,55.503],[92.408,55.440],[92.360,55.386],[92.459,55.331],[92.509,55.365],[92.517,55.355],[92.497,55.331],[92.520,55.317],[92.620,55.300],[92.615,55.274],[92.579,55.284],[92.559,55.256],[92.498,55.300],[92.333,55.353],[92.209,55.231],[92.200,55.204],[92.142,55.208],[92.011,55.167],[91.891,55.150]]]}},{"type":"Feature","properties":{"rank":7},"geometry":{"type":"Polygon","coordinates":[[[73.019,34.078],[73.020,34.062],[72.914,34.011],[72.879,34.031],[72.864,34.075],[72.834,34.096],[72.792,34.101],[72.731,34.067],[72.696,34.095],[72.689,34.114],[72.779,34.151],[72.812,34.190],[72.809,34.246],[72.834,34.292],[72.837,34.345],[72.809,34.445],[72.830,34.486],[72.768,34.505],[72.795,34.564],[72.775,34.602],[72.781,34.622],[72.820,34.573],[72.799,34.512],[72.850,34.495],[72.838,34.392],[72.859,34.373],[72.879,34.307],[72.857,34.242],[72.879,34.177],[72.868,34.156],[72.893,34.128],[72.965,34.147],[72.980,34.136],[72.946,34.088],[73.019,34.078]]]}},{"type":"Feature","properties":{"rank":7},"geometry":{"type":"Polygon","coordinates":[[[70.381,40.404],[70.370,40.365],[70.325,40.315],[70.183,40.265],[70.120,40.276],[69.911,40.232],[69.850,40.241],[69.822,40.265],[69.850,40.296],[69.925,40.303],[70.136,40.365],[70.217,40.409],[70.342,40.406],[70.288,40.372],[70.341,40.382],[70.354,40.435],[70.381,40.404]]]}},{"type":"Feature","properties":{"rank":7},"geometry":{"type":"Polygon","coordinates":[[[76.736,31.298],[76.784,31.216],[76.705,31.306],[76.684,31.259],[76.606,31.276],[76.538,31.350],[76.435,31.422],[76.407,31.497],[76.359,31.538],[76.370,31.567],[76.352,31.600],[76.636,31.282],[76.665,31.278],[76.681,31.294],[76.578,31.388],[76.640,31.356],[76.660,31.361],[76.674,31.320],[76.720,31.313],[76.735,31.315],[76.742,31.364],[76.714,31.377],[76.764,31.408],[76.743,31.381],[76.777,31.381],[76.736,31.298]]]}},{"type":"Feature","properties":{"rank":7},"geometry":{"type":"Polygon","coordinates":[[[83.980,21.664],[84.034,21.616],[83.976,21.565],[83.940,21.546],[83.889,21.546],[83.855,21.517],[83.842,21.481],[83.825,21.481],[83.788,21.499],[83.720,21.606],[83.685,21.602],[83.677,21.621],[83.705,21.640],[83.664,21.695],[83.575,21.725],[83.540,21.708],[83.520,21.660],[83.472,21.609],[83.390,21.681],[83.314,21.682],[83.295,21.698],[83.410,21.698],[83.476,21.657],[83.507,21.702],[83.505,21.733],[83.479,21.753],[83.527,21.746],[83.547,21.781],[83.558,21.768],[83.636,21.760],[83.644,21.780],[83.719,21.725],[83.767,21.722],[83.753,21.702],[83.784,21.648],[83.795,21.664],[83.829,21.636],[83.815,21.676],[83.849,21.691],[83.863,21.672],[83.870,21.698],[83.898,21.689],[83.897,21.636],[83.881,21.619],[83.905,21.602],[83.935,21.611],[83.941,21.598],[83.958,21.645],[83.905,21.774],[83.918,21.777],[83.946,21.768],[83.993,21.712],[84.012,21.717],[84.015,21.692],[83.987,21.706],[83.980,21.664]]]}},{"type":"Feature","properties":{"rank":7},"geometry":{"type":"Polygon","coordinates":[[[79.287,16.654],[79.318,16.560],[79.268,16.535],[79.265,16.497],[79.224,16.490],[79.245,16.477],[79.217,16.394],[79.258,16.340],[79.232,16.315],[79.213,16.228],[79.165,16.209],[79.038,16.244],[78.997,16.230],[79.014,16.253],[79.187,16.226],[79.210,16.244],[79.225,16.297],[79.213,16.349],[79.106,16.422],[79.189,16.373],[79.210,16.456],[79.183,16.492],[79.199,16.521],[79.107,16.530],[79.114,16.559],[79.031,16.620],[79.104,16.593],[79.127,16.600],[79.169,16.572],[79.172,16.617],[79.200,16.561],[79.220,16.590],[79.265,16.606],[79.224,16.634],[79.251,16.641],[79.245,16.662],[79.287,16.654]]]}},{"type":"Feature","properties":{"rank":7},"geometry":{"type":"Polygon","coordinates":[[[111.689,32.658],[111.683,32.642],[111.520,32.636],[111.465,32.557],[111.351,32.539],[111.316,32.564],[111.254,32.507],[111.284,32.590],[111.248,32.602],[111.193,32.650],[111.139,32.534],[111.091,32.542],[111.089,32.576],[111.133,32.571],[111.119,32.620],[111.134,32.670],[111.116,32.663],[111.028,32.701],[110.999,32.740],[111.052,32.709],[111.091,32.731],[111.153,32.718],[111.180,32.681],[111.393,32.591],[111.421,32.595],[111.419,32.618],[111.457,32.597],[111.478,32.604],[111.479,32.646],[111.445,32.711],[111.454,32.730],[111.493,32.717],[111.484,32.753],[111.517,32.864],[111.445,32.920],[111.256,33.004],[111.225,33.057],[111.324,32.991],[111.421,32.961],[111.454,32.960],[111.458,32.991],[111.471,32.992],[111.511,32.953],[111.505,32.920],[111.541,32.875],[111.549,32.836],[111.610,32.810],[111.644,32.775],[111.623,32.702],[111.648,32.709],[111.657,32.679],[111.689,32.658]]]}},{"type":"Feature","properties":{"rank":7},"geometry":{"type":"Polygon","coordinates":[[[78.004,43.778],[78.007,43.754],[77.990,43.743],[77.894,43.740],[77.865,43.768],[77.507,43.779],[77.322,43.822],[77.250,43.811],[77.192,43.825],[77.141,43.805],[77.150,43.827],[77.113,43.870],[77.137,43.908],[77.235,43.905],[77.353,43.949],[77.387,43.929],[77.669,43.874],[77.896,43.856],[78.037,43.890],[78.175,43.867],[78.107,43.832],[78.082,43.837],[78.004,43.778]]]}},{"type":"Feature","properties":{"rank":7},"geometry":{"type":"Polygon","coordinates":[[[129.180,54.683],[129.241,54.632],[129.207,54.605],[129.125,54.607],[129.040,54.662],[128.960,54.638],[128.865,54.633],[128.803,54.604],[128.748,54.639],[128.710,54.570],[128.672,54.569],[128.659,54.598],[128.614,54.621],[128.567,54.609],[128.560,54.599],[128.583,54.575],[128.787,54.473],[128.830,54.429],[128.843,54.388],[128.834,54.379],[128.714,54.399],[128.706,54.420],[128.633,54.442],[128.583,54.495],[128.495,54.516],[128.481,54.542],[128.364,54.509],[128.433,54.468],[128.432,54.446],[128.415,54.440],[128.374,54.457],[128.275,54.564],[128.211,54.572],[128.225,54.537],[128.405,54.406],[128.309,54.439],[128.221,54.494],[128.138,54.493],[128.104,54.539],[127.960,54.542],[128.064,54.481],[128.138,54.406],[128.096,54.409],[128.004,54.478],[127.964,54.485],[127.933,54.461],[127.940,54.433],[127.929,54.426],[127.893,54.446],[127.864,54.392],[127.994,54.348],[128.001,54.330],[127.990,54.318],[127.864,54.365],[127.837,54.360],[127.840,54.347],[127.878,54.317],[127.830,54.303],[127.923,54.269],[127.998,54.303],[128.030,54.268],[128.145,54.242],[128.117,54.230],[127.970,54.241],[127.969,54.202],[128.022,54.194],[127.934,54.186],[127.919,54.166],[127.931,54.143],[127.963,54.128],[128.029,54.118],[127.882,54.090],[127.826,54.116],[127.740,54.076],[127.703,54.074],[127.632,54.022],[127.607,53.978],[127.507,53.940],[127.480,53.876],[127.449,53.849],[127.450,53.827],[127.487,53.810],[127.624,53.796],[127.576,53.784],[127.468,53.807],[127.418,53.803],[127.385,53.749],[127.274,53.762],[127.309,53.786],[127.268,53.803],[127.213,53.865],[127.325,53.834],[127.350,53.879],[127.366,53.861],[127.403,53.864],[127.422,53.901],[127.411,53.977],[127.340,54.033],[127.239,54.082],[127.186,54.142],[126.987,54.188],[126.959,54.221],[127.078,54.214],[127.216,54.171],[127.321,54.085],[127.381,54.070],[127.412,54.034],[127.473,54.008],[127.568,54.036],[127.633,54.080],[127.636,54.114],[127.667,54.138],[127.825,54.158],[127.844,54.173],[127.780,54.204],[127.713,54.197],[127.600,54.276],[127.547,54.317],[127.542,54.372],[127.486,54.358],[127.442,54.375],[127.507,54.426],[127.501,54.449],[127.460,54.480],[127.379,54.467],[127.267,54.503],[127.170,54.473],[127.107,54.491],[127.078,54.529],[127.095,54.540],[127.167,54.497],[127.242,54.518],[127.296,54.512],[127.281,54.554],[127.175,54.627],[127.158,54.667],[127.185,54.685],[127.220,54.667],[127.237,54.629],[127.299,54.596],[127.330,54.542],[127.362,54.530],[127.391,54.543],[127.337,54.622],[127.367,54.687],[127.425,54.557],[127.504,54.530],[127.571,54.533],[127.573,54.554],[127.542,54.577],[127.600,54.630],[127.576,54.673],[127.642,54.694],[127.666,54.693],[127.645,54.603],[127.648,54.554],[127.672,54.536],[127.714,54.580],[127.778,54.558],[127.816,54.605],[127.858,54.589],[127.926,54.597],[127.992,54.685],[128.004,54.768],[127.977,54.859],[127.998,54.866],[128.035,54.858],[128.018,54.809],[128.062,54.751],[128.076,54.701],[128.045,54.648],[128.072,54.624],[128.162,54.636],[128.187,54.668],[128.200,54.733],[128.220,54.742],[128.248,54.707],[128.221,54.656],[128.227,54.640],[128.329,54.647],[128.392,54.701],[128.410,54.673],[128.392,54.639],[128.421,54.620],[128.457,54.619],[128.476,54.651],[128.495,54.639],[128.558,54.682],[128.636,54.676],[128.703,54.707],[128.725,54.684],[128.790,54.674],[128.828,54.711],[128.899,54.693],[129.003,54.718],[129.082,54.691],[129.180,54.683]]]}},{"type":"Feature","properties":{"rank":7},"geometry":{"type":"Polygon","coordinates":[[[99.202,14.583],[99.176,14.549],[99.119,14.525],[99.117,14.497],[99.169,14.436],[99.132,14.390],[99.036,14.484],[98.993,14.551],[99.010,14.603],[98.990,14.632],[99.017,14.677],[99.017,14.724],[98.977,14.778],[99.024,14.790],[99.040,14.878],[99.090,14.924],[99.039,15.043],[99.091,15.007],[99.119,14.951],[99.156,14.945],[99.129,14.907],[99.076,14.881],[99.049,14.821],[99.070,14.784],[99.055,14.738],[99.070,14.630],[99.093,14.602],[99.092,14.570],[99.202,14.583]]]}},{"type":"Feature","properties":{"rank":7},"geometry":{"type":"Polygon","coordinates":[[[119.188,29.558],[119.195,29.497],[119.110,29.497],[119.083,29.482],[119.073,29.503],[119.038,29.497],[119.017,29.525],[118.989,29.531],[118.921,29.490],[118.826,29.490],[118.830,29.450],[118.811,29.449],[118.788,29.477],[118.761,29.468],[118.682,29.403],[118.626,29.421],[118.701,29.428],[118.699,29.461],[118.661,29.483],[118.709,29.469],[118.731,29.500],[118.788,29.531],[118.925,29.582],[118.921,29.634],[118.884,29.644],[118.840,29.630],[118.833,29.656],[118.771,29.681],[118.716,29.730],[118.757,29.715],[118.791,29.730],[118.779,29.710],[118.806,29.687],[118.880,29.661],[118.918,29.668],[118.938,29.630],[118.960,29.621],[119.018,29.661],[119.000,29.670],[119.011,29.686],[119.065,29.674],[119.038,29.723],[119.085,29.702],[119.078,29.779],[119.103,29.807],[119.135,29.810],[119.099,29.778],[119.095,29.746],[119.181,29.730],[119.123,29.707],[119.038,29.620],[119.078,29.580],[119.134,29.606],[119.108,29.539],[119.188,29.558]]]}},{"type":"Feature","properties":{"rank":7},"geometry":{"type":"Polygon","coordinates":[[[92.333,22.705],[92.387,22.664],[92.346,22.651],[92.327,22.692],[92.264,22.703],[92.243,22.692],[92.298,22.623],[92.237,22.657],[92.258,22.616],[92.218,22.611],[92.240,22.595],[92.217,22.555],[92.242,22.550],[92.258,22.575],[92.274,22.529],[92.258,22.521],[92.275,22.518],[92.312,22.548],[92.305,22.528],[92.360,22.506],[92.339,22.475],[92.298,22.506],[92.291,22.493],[92.258,22.506],[92.252,22.473],[92.224,22.472],[92.196,22.506],[92.238,22.526],[92.189,22.548],[92.142,22.643],[92.175,22.602],[92.172,22.646],[92.175,22.657],[92.189,22.643],[92.187,22.655],[92.155,22.664],[92.155,22.684],[92.175,22.671],[92.181,22.693],[92.127,22.720],[92.155,22.726],[92.148,22.746],[92.093,22.767],[92.114,22.788],[92.086,22.808],[92.093,22.830],[92.065,22.836],[92.078,22.856],[92.057,22.911],[92.038,22.920],[92.031,23.027],[92.050,22.944],[92.071,22.902],[92.099,22.883],[92.087,22.868],[92.155,22.788],[92.134,22.781],[92.169,22.746],[92.162,22.733],[92.198,22.709],[92.217,22.664],[92.237,22.664],[92.237,22.678],[92.203,22.733],[92.237,22.698],[92.265,22.729],[92.243,22.761],[92.265,22.753],[92.252,22.781],[92.237,22.774],[92.230,22.815],[92.209,22.802],[92.224,22.830],[92.182,22.822],[92.209,22.843],[92.182,22.843],[92.199,22.862],[92.175,22.883],[92.187,22.913],[92.162,22.953],[92.201,22.932],[92.189,22.959],[92.203,22.970],[92.162,23.000],[92.175,23.000],[92.169,23.027],[92.197,23.014],[92.217,23.041],[92.233,23.020],[92.252,23.027],[92.240,22.997],[92.219,22.992],[92.220,22.966],[92.252,22.959],[92.237,22.953],[92.252,22.931],[92.229,22.935],[92.237,22.911],[92.258,22.918],[92.272,22.774],[92.284,22.794],[92.298,22.761],[92.305,22.802],[92.333,22.761],[92.306,22.740],[92.298,22.705],[92.333,22.705]]]}},{"type":"Feature","properties":{"rank":8},"geometry":{"type":"Polygon","coordinates":[[[75.634,24.637],[75.646,24.617],[75.619,24.622],[75.609,24.607],[75.626,24.590],[75.626,24.525],[75.588,24.477],[75.611,24.405],[75.564,24.460],[75.554,24.455],[75.427,24.309],[75.365,24.299],[75.400,24.241],[75.345,24.213],[75.352,24.251],[75.332,24.275],[75.337,24.305],[75.297,24.316],[75.407,24.363],[75.427,24.394],[75.420,24.412],[75.463,24.435],[75.448,24.447],[75.560,24.534],[75.546,24.590],[75.557,24.638],[75.634,24.637]]]}},{"type":"Feature","properties":{"rank":8},"geometry":{"type":"Polygon","coordinates":[[[100.501,17.923],[100.505,17.882],[100.524,17.865],[100.565,17.883],[100.576,17.781],[100.473,17.769],[100.463,17.799],[100.489,17.826],[100.457,17.842],[100.358,17.820],[100.427,17.877],[100.410,17.931],[100.463,17.928],[100.463,17.963],[100.514,17.997],[100.522,18.029],[100.576,18.051],[100.619,18.038],[100.537,17.984],[100.501,17.923]]]}},{"type":"Feature","properties":{"rank":2},"geometry":{"type":"Polygon","coordinates":[[[78.110,42.599],[78.327,42.595],[78.300,42.563],[78.150,42.573],[78.028,42.475],[77.829,42.434],[77.812,42.420],[77.822,42.402],[77.892,42.391],[77.914,42.373],[77.851,42.361],[77.792,42.293],[77.687,42.214],[77.481,42.161],[77.462,42.181],[77.389,42.169],[77.289,42.181],[77.136,42.153],[76.960,42.186],[76.935,42.167],[76.907,42.197],[76.819,42.220],[76.755,42.261],[76.706,42.251],[76.561,42.280],[76.396,42.345],[76.371,42.347],[76.314,42.315],[76.270,42.318],[76.239,42.337],[76.196,42.439],[76.225,42.469],[76.304,42.482],[76.456,42.468],[76.497,42.510],[76.599,42.513],[76.674,42.565],[76.981,42.614],[77.014,42.606],[77.083,42.639],[77.219,42.648],[77.349,42.681],[77.435,42.653],[77.528,42.647],[77.579,42.676],[77.784,42.722],[77.917,42.726],[77.983,42.713],[78.137,42.740],[78.306,42.742],[78.249,42.719],[78.201,42.721],[78.169,42.674],[78.120,42.667],[78.081,42.622],[78.110,42.599]]]}},{"type":"Feature","properties":{"rank":3},"geometry":{"type":"Polygon","coordinates":[[[92.329,50.236],[92.353,50.267],[92.348,50.301],[92.243,50.377],[92.226,50.414],[92.244,50.445],[92.283,50.467],[92.409,50.491],[92.511,50.548],[92.641,50.548],[92.750,50.573],[92.806,50.610],[92.848,50.666],[92.900,50.692],[92.994,50.653],[93.006,50.625],[92.952,50.527],[92.998,50.477],[93.090,50.428],[93.155,50.356],[93.196,50.349],[93.278,50.387],[93.291,50.381],[93.278,50.363],[93.230,50.356],[93.248,50.325],[93.289,50.301],[93.360,50.320],[93.403,50.285],[93.380,50.263],[93.280,50.234],[93.238,50.266],[93.105,50.236],[92.930,50.053],[92.689,49.993],[92.576,50.000],[92.562,50.027],[92.504,50.034],[92.434,50.071],[92.419,50.113],[92.337,50.171],[92.329,50.236]]]}},{"type":"Feature","properties":{"rank":3},"geometry":{"type":"Polygon","coordinates":[[[100.751,36.825],[100.761,36.781],[100.701,36.776],[100.693,36.757],[100.741,36.684],[100.712,36.566],[100.649,36.541],[100.498,36.578],[100.445,36.622],[100.481,36.644],[100.410,36.631],[100.385,36.665],[100.133,36.623],[99.980,36.657],[99.926,36.689],[99.907,36.719],[99.810,36.713],[99.781,36.760],[99.791,36.774],[99.780,36.811],[99.701,36.841],[99.623,36.898],[99.617,36.918],[99.662,36.966],[99.781,36.937],[99.820,36.951],[99.842,36.981],[99.832,37.037],[99.780,37.082],[99.754,37.142],[99.761,37.164],[99.984,37.227],[100.079,37.191],[100.215,37.180],[100.274,37.196],[100.469,37.017],[100.577,36.870],[100.679,36.849],[100.704,36.862],[100.751,36.825]]]}},{"type":"Feature","properties":{"rank":4},"geometry":{"type":"Polygon","coordinates":[[[82.050,45.953],[82.143,45.759],[82.116,45.750],[82.005,45.834],[81.957,45.846],[81.749,45.820],[81.729,45.844],[81.670,45.868],[81.641,45.916],[81.537,46.000],[81.393,46.037],[81.376,46.056],[81.381,46.145],[81.424,46.169],[81.411,46.187],[81.416,46.251],[81.382,46.265],[81.416,46.279],[81.388,46.295],[81.387,46.315],[81.411,46.385],[81.562,46.482],[81.582,46.456],[81.639,46.470],[81.629,46.443],[81.720,46.452],[81.734,46.430],[81.773,46.429],[81.823,46.403],[81.855,46.409],[81.854,46.387],[81.914,46.361],[81.917,46.333],[81.958,46.326],[81.979,46.249],[82.047,46.204],[82.026,46.080],[82.050,45.953]]]}},{"type":"Feature","properties":{"rank":5},"geometry":{"type":"MultiPolygon","coordinates":[[[[92.915,49.329],[92.916,49.329],[92.916,49.329],[92.915,49.329]]],[[[92.879,49.327],[92.990,49.308],[93.135,49.339],[93.192,49.301],[93.368,49.272],[93.423,49.237],[93.443,49.184],[93.458,49.211],[93.485,49.219],[93.588,49.206],[93.656,49.143],[93.635,49.205],[93.658,49.218],[93.787,49.170],[93.806,49.157],[93.811,49.121],[93.580,49.033],[93.478,49.036],[93.429,49.006],[93.429,48.979],[93.368,48.951],[93.334,48.983],[93.315,49.062],[93.281,49.109],[93.136,49.106],[93.080,49.163],[92.869,49.210],[92.826,49.233],[92.806,49.266],[92.815,49.294],[92.879,49.327]]]]}},{"type":"Feature","properties":{"rank":6},"geometry":{"type":"Polygon","coordinates":[[[69.643,50.631],[69.633,50.614],[69.539,50.578],[69.441,50.592],[69.403,50.574],[69.274,50.583],[69.472,50.651],[69.452,50.668],[69.346,50.672],[69.318,50.620],[69.213,50.591],[69.205,50.541],[69.143,50.493],[69.130,50.459],[69.075,50.452],[69.057,50.419],[69.040,50.419],[69.049,50.444],[69.011,50.423],[69.033,50.367],[69.078,50.355],[69.102,50.309],[69.144,50.367],[69.264,50.353],[69.261,50.319],[69.286,50.271],[69.274,50.253],[69.178,50.246],[69.185,50.260],[69.171,50.267],[69.126,50.270],[69.115,50.256],[69.143,50.225],[68.968,50.178],[68.814,50.205],[68.821,50.219],[68.759,50.219],[68.766,50.232],[68.734,50.264],[68.661,50.241],[68.650,50.250],[68.725,50.298],[68.747,50.417],[68.774,50.472],[68.762,50.507],[68.816,50.564],[68.930,50.575],[69.037,50.555],[69.048,50.575],[69.135,50.560],[69.141,50.550],[69.120,50.538],[69.088,50.473],[69.161,50.531],[69.178,50.596],[69.293,50.637],[69.274,50.699],[69.308,50.716],[69.571,50.692],[69.613,50.675],[69.617,50.663],[69.589,50.664],[69.497,50.589],[69.643,50.631]]]}},{"type":"Feature","properties":{"rank":6},"geometry":{"type":"Polygon","coordinates":[[[64.977,52.933],[64.997,52.915],[64.936,52.837],[64.963,52.741],[64.908,52.674],[64.820,52.639],[64.778,52.597],[64.732,52.631],[64.710,52.625],[64.737,52.603],[64.702,52.584],[64.737,52.562],[64.651,52.566],[64.600,52.522],[64.554,52.543],[64.524,52.516],[64.475,52.516],[64.463,52.529],[64.555,52.565],[64.600,52.652],[64.676,52.672],[64.701,52.703],[64.789,52.751],[64.824,52.822],[64.882,52.837],[64.874,52.850],[64.918,52.877],[64.945,52.929],[64.977,52.933]]]}},{"type":"Feature","properties":{"rank":7},"geometry":{"type":"Polygon","coordinates":[[[93.422,47.766],[93.613,47.675],[93.607,47.655],[93.541,47.594],[93.437,47.576],[93.388,47.601],[93.397,47.622],[93.329,47.702],[93.346,47.749],[93.322,47.804],[93.230,47.872],[93.258,47.889],[93.244,47.906],[93.265,47.938],[93.189,47.938],[93.252,47.964],[93.207,47.981],[93.102,47.981],[93.038,48.012],[93.011,48.064],[93.027,48.136],[93.046,48.149],[93.096,48.122],[93.137,48.139],[93.128,48.173],[93.144,48.214],[93.183,48.222],[93.399,48.211],[93.422,48.199],[93.396,48.122],[93.250,48.015],[93.286,48.012],[93.260,47.992],[93.265,47.979],[93.317,47.982],[93.282,47.858],[93.314,47.831],[93.374,47.813],[93.422,47.766]]]}},{"type":"Feature","properties":{"rank":7},"geometry":{"type":"Polygon","coordinates":[[[68.033,41.043],[68.058,41.055],[67.975,40.861],[67.904,40.814],[67.846,40.818],[67.803,40.783],[67.708,40.809],[67.617,40.758],[67.501,40.747],[67.485,40.728],[67.591,40.632],[67.604,40.550],[67.630,40.512],[67.606,40.497],[67.421,40.595],[67.326,40.668],[67.309,40.688],[67.329,40.746],[67.322,40.766],[67.251,40.769],[67.156,40.801],[67.074,40.776],[66.852,40.893],[66.114,41.003],[66.128,41.017],[66.275,41.026],[66.443,41.002],[66.493,41.019],[66.769,40.993],[66.984,41.001],[67.084,40.977],[67.116,40.953],[67.197,40.961],[67.267,40.946],[67.289,40.891],[67.408,40.873],[67.353,40.831],[67.372,40.820],[67.539,40.820],[67.764,40.881],[67.905,40.952],[68.020,41.060],[68.033,41.043]]]}}]}