{"type":"FeatureCollection","features":[{"type":"Feature","properties":{"id":"yr-yu","kind":"river","name_zh":"黄河（禹河故道）","name":"Yellow River (Yu course)","from":-2070,"to":-602,"label":[115.3,37.6],"note_zh":"《禹贡》所记河道：出浚县宿胥口后北流，经河北平原，在今天津附近入海。","note":"The course described in the Yu Gong: north across the Hebei plain to the sea near Tianjin."},"geometry":{"type":"LineString","coordinates":[[113.6,34.95],[113.9,35.3],[114.55,35.68],[114.9,35.97],[115.0,36.3],[114.95,36.78],[115.0,37.2],[115.55,38.0],[116.1,38.45],[116.6,38.85],[117.2,39.1],[117.6,38.95]]}},{"type":"Feature","properties":{"id":"yr-han","kind":"river","name_zh":"黄河（西汉故道）","name":"Yellow River (Western Han course)","from":-602,"to":11,"label":[116.2,37.3],"note_zh":"前602年宿胥口改道后的河道，经濮阳、馆陶、德州、沧州，在今黄骅一带入海。","note":"After the 602 BC shift: past Puyang, Guantao, Dezhou and Cangzhou to the sea near Huanghua."},"geometry":{"type":"LineString","coordinates":[[113.6,34.95],[113.95,35.15],[114.5,35.55],[114.6,35.65],[115.03,35.75],[115.1,36.0],[115.3,36.55],[115.7,36.85],[116.0,37.05],[116.3,37.45],[116.5,37.9],[116.85,38.3],[117.35,38.37],[117.8,38.4]]}},{"type":"Feature","properties":{"id":"yr-donghan","kind":"river","name_zh":"黄河（东汉故道）","name":"Yellow River (Eastern Han course)","from":11,"to":1048,"label":[116.9,37.1],"note_zh":"公元11年改道，69年王景治河后稳定近千年，经濮阳、东阿、滨州，在利津一带入海，与今河道下游相近。","note":"Shifted in AD 11 and fixed by Wang Jing in 69; stable for nearly a thousand years, reaching the sea near Lijin, close to today's lower course."},"geometry":{"type":"LineString","coordinates":[[113.6,34.95],[113.95,35.1],[114.5,35.55],[115.03,35.7],[115.5,35.85],[116.0,36.2],[116.25,36.55],[116.6,36.95],[117.1,37.25],[117.5,37.45],[118.0,37.4],[118.6,37.55],[119.0,37.75]]}},{"type":"Feature","properties":{"id":"yr-song","kind":"river","name_zh":"黄河（北宋北流）","name":"Yellow River (Northern Song north course)","from":1048,"to":1128,"label":[115.6,37.3],"note_zh":"1048年商胡决口后北流，经大名、冀州，在今天津一带入海；其间曾一度东流。","note":"After the 1048 break at Shanghu it ran north past Daming and Jizhou to the sea near Tianjin, with spells of an eastern branch."},"geometry":{"type":"LineString","coordinates":[[113.6,34.95],[113.95,35.1],[114.5,35.55],[115.03,35.75],[115.15,36.28],[115.3,36.55],[115.57,37.55],[115.95,38.05],[116.8,38.58],[117.2,39.1],[117.6,38.95]]}},{"type":"Feature","properties":{"id":"yr-huai","kind":"river","name_zh":"黄河（夺淮入海）","name":"Yellow River (through the Huai)","from":1128,"to":1855,"label":[117.6,34.15],"note_zh":"1128年宋军为阻金兵决河，此后黄河南流夺淮，明清时经开封、商丘、徐州、淮安，在今滨海一带入海；1855年铜瓦厢决口才北归。","note":"Breached in 1128 to stop the Jin; for over seven centuries it flowed southeast through the Huai, past Kaifeng, Xuzhou and Huai'an, until the 1855 break at Tongwaxiang."},"geometry":{"type":"LineString","coordinates":[[113.6,34.95],[113.75,34.93],[114.35,34.9],[114.8,34.85],[115.65,34.5],[116.35,34.45],[117.2,34.28],[117.95,34.33],[118.3,33.95],[118.7,33.72],[119.0,33.58],[119.25,33.78],[119.9,34.05],[120.3,34.25]]}},{"type":"Feature","properties":{"id":"coast-gangshen","kind":"coast","name_zh":"古海岸线（冈身）","name":"Old shoreline (Gangshen ridges)","from":-2070,"to":700,"label":[121.15,31.3],"note_zh":"长江三角洲的贝壳沙堤“冈身”标出数千年前的海岸，今上海市区一带大约在唐代前后才成陆。","note":"Shell ridges (gangshen) mark the coast of several thousand years ago; most of downtown Shanghai only became land around Tang times."},"geometry":{"type":"LineString","coordinates":[[120.95,31.82],[121.05,31.62],[121.12,31.48],[121.22,31.35],[121.3,31.15],[121.38,31.0],[121.4,30.82]]}},{"type":"Feature","properties":{"id":"coast-fangong","kind":"coast","name_zh":"古海岸线（范公堤）","name":"Old shoreline (Fan Zhongyan's sea wall)","from":-2070,"to":1500,"label":[120.25,33.05],"note_zh":"苏北海岸在宋代大致在范公堤一线（1027年修成），此后黄河带来的泥沙使海岸向东推进数十公里。","note":"The north Jiangsu coast ran roughly along Fan Zhongyan's sea wall (1027); silt from the Yellow River later pushed it tens of kilometres east."},"geometry":{"type":"LineString","coordinates":[[119.75,34.0],[119.95,33.7],[120.1,33.45],[120.2,33.1],[120.3,32.85],[120.45,32.55],[120.9,32.3],[121.3,32.15],[121.6,32.05]]}}]}