{"type":"FeatureCollection","features":[{"type":"Feature","properties":{"focus":false,"kind":"state","approx":true,"color":"#b0805f","name":"Dingnan Circuit (Tangut)","name_zh":"定难军 (党项)","label":[108.73,39.47],"area":14.2},"geometry":{"type":"Polygon","coordinates":[[[106.167,40.099],[106.337,40.411],[106.585,40.714],[106.808,40.906],[107.144,41.107],[107.419,41.213],[107.803,41.290],[108.098,41.297],[108.486,41.239],[108.855,41.107],[109.191,40.906],[109.482,40.642],[109.738,40.295],[110.193,40.278],[110.600,40.172],[111.131,38.846],[110.132,37.348],[109.651,37.458],[107.994,36.693],[107.476,37.006],[107.549,38.024],[106.167,40.099]]]}},{"type":"Feature","properties":{"focus":false,"kind":"state","approx":true,"color":"#6f9460","name":"Tibetan tribes","name_zh":"吐蕃诸部","label":[89.94,32.77],"area":406.9},"geometry":{"type":"MultiPolygon","coordinates":[[[[97.540,37.945],[97.995,37.885],[99.078,38.311],[100.818,37.588],[101.249,37.839],[102.218,39.863],[102.600,39.899],[102.989,39.861],[103.365,39.747],[103.628,39.615],[103.943,39.381],[104.206,39.091],[104.351,38.863],[104.414,37.770],[105.574,36.403],[104.021,34.381],[103.506,34.081],[103.219,34.146],[102.944,34.252],[102.688,34.397],[102.377,34.639],[102.247,34.234],[102.063,33.889],[101.814,33.585],[101.511,33.337],[101.165,33.152],[100.790,33.038],[100.400,33.000],[100.010,33.038],[99.545,33.191],[99.208,33.393],[98.854,33.731],[98.612,34.092],[98.196,34.009],[97.804,34.009],[97.419,34.086],[97.056,34.236],[96.731,34.453],[96.518,34.656],[96.337,34.888],[96.192,35.144],[96.059,35.514],[96.000,35.999],[96.059,36.485],[96.192,36.855],[96.453,37.268],[96.731,37.546],[97.144,37.807],[97.540,37.945]]],[[[75.148,39.273],[75.378,40.194],[77.909,40.424],[79.982,40.770],[82.052,41.461],[85.621,43.416],[87.577,43.761],[89.999,43.762],[92.065,43.301],[93.657,41.927],[93.282,41.658],[92.956,41.280],[92.765,40.923],[92.632,40.439],[92.619,39.940],[92.729,39.450],[92.902,39.084],[93.211,38.689],[93.521,38.434],[93.876,38.245],[94.261,38.129],[94.659,38.090],[94.959,38.112],[95.253,38.177],[95.537,38.287],[95.820,38.450],[96.297,38.511],[96.726,38.672],[97.049,38.251],[97.411,37.963],[96.944,37.757],[96.698,37.584],[96.481,37.377],[96.191,36.965],[96.069,36.689],[95.989,36.400],[95.952,35.897],[95.989,35.599],[96.069,35.310],[96.296,34.859],[96.481,34.622],[96.698,34.415],[97.122,34.147],[97.599,33.989],[98.099,33.952],[98.590,34.036],[98.880,33.624],[99.262,33.294],[99.524,33.146],[99.803,33.038],[100.300,32.952],[100.699,32.971],[100.996,33.038],[101.365,33.191],[101.622,33.354],[101.917,33.622],[102.105,33.862],[102.293,34.214],[102.401,34.561],[102.745,34.302],[103.117,34.127],[102.773,33.405],[103.252,32.921],[102.996,32.609],[102.825,32.298],[102.500,31.988],[102.214,31.893],[101.944,31.757],[101.624,31.519],[101.416,31.301],[101.242,31.054],[101.106,30.785],[101.011,30.499],[100.959,30.201],[100.959,29.800],[101.038,29.405],[101.191,29.034],[101.414,28.700],[101.624,28.480],[101.862,28.294],[102.214,28.106],[102.505,28.010],[102.807,27.807],[103.082,27.422],[103.493,27.075],[102.999,26.383],[102.424,24.889],[101.963,22.586],[101.428,21.975],[99.431,21.895],[98.281,22.586],[98.395,24.421],[97.932,24.886],[94.484,24.656],[93.413,24.246],[93.116,24.869],[91.572,27.168],[87.872,27.015],[87.186,25.105],[85.932,25.244],[85.099,25.795],[84.040,24.832],[82.744,24.773],[81.593,25.233],[79.867,27.303],[79.280,27.630],[79.246,27.810],[79.817,27.980],[79.148,28.336],[79.060,28.802],[78.484,30.525],[77.564,31.102],[77.104,31.333],[76.759,31.908],[76.758,33.184],[76.529,35.131],[76.528,36.966],[75.952,37.433],[75.148,37.778],[75.148,39.273]]]]}},{"type":"Feature","properties":{"focus":false,"kind":"state","approx":true,"color":"#6f9460","name":"Ganzhou Uyghurs","name_zh":"甘州回鹘","label":[99.43,39.3],"area":15.4},"geometry":{"type":"Polygon","coordinates":[[[96.746,38.738],[97.553,41.461],[97.825,41.582],[98.109,41.661],[98.597,41.697],[99.080,41.613],[99.354,41.508],[99.611,41.362],[99.843,41.181],[100.101,40.902],[100.646,40.920],[100.936,40.869],[101.215,40.777],[101.560,40.593],[101.793,40.411],[102.056,40.121],[102.218,39.863],[101.247,37.836],[100.813,37.584],[99.080,38.309],[97.992,37.884],[97.539,37.945],[97.308,38.093],[97.085,38.285],[96.893,38.508],[96.746,38.738]]]}},{"type":"Feature","properties":{"focus":false,"kind":"state","approx":true,"color":"#a3727a","name":"Guiyi Circuit","name_zh":"归义军","label":[94.95,40.33],"area":16.0},"geometry":{"type":"Polygon","coordinates":[[[94.650,42.139],[95.034,42.347],[95.410,42.461],[95.800,42.499],[96.285,42.440],[96.654,42.308],[96.991,42.106],[97.282,41.842],[97.553,41.461],[96.746,38.738],[96.286,38.560],[95.804,38.499],[95.515,38.332],[95.240,38.226],[94.953,38.161],[94.660,38.140],[94.270,38.178],[93.894,38.292],[93.549,38.476],[93.245,38.725],[92.997,39.028],[92.812,39.374],[92.698,39.749],[92.660,40.139],[92.698,40.529],[92.812,40.905],[92.996,41.250],[93.245,41.554],[93.548,41.802],[93.894,41.987],[94.269,42.101],[94.650,42.139]]]}},{"type":"Feature","properties":{"focus":false,"kind":"state","approx":true,"color":"#7272a8","name":"Jinghai Circuit (Khuc clan)","name_zh":"静海军 (曲氏)","label":[105.24,20.44],"area":11.9},"geometry":{"type":"MultiPolygon","coordinates":[[[[107.399,20.903],[107.417,20.914],[107.421,20.902],[107.421,20.902],[107.399,20.903]]],[[[103.921,20.486],[103.850,21.029],[103.910,21.516],[104.002,21.795],[104.134,22.057],[104.435,22.444],[104.822,22.745],[105.269,22.943],[105.752,23.027],[106.308,22.976],[107.089,21.894],[107.361,21.082],[107.164,20.948],[107.068,20.997],[106.886,20.950],[106.684,20.992],[106.753,20.735],[106.554,20.529],[106.572,20.392],[106.518,20.289],[106.165,19.992],[106.063,19.986],[105.983,19.937],[105.815,19.589],[105.791,19.294],[105.716,19.127],[105.638,19.052],[105.624,18.961],[105.888,18.502],[106.065,18.316],[106.239,18.220],[106.411,18.053],[106.498,17.946],[106.485,17.921],[105.995,17.809],[105.701,17.802],[105.409,17.838],[105.125,17.917],[104.856,18.036],[104.608,18.193],[104.385,18.385],[104.193,18.608],[104.036,18.857],[103.917,19.125],[103.838,19.409],[103.802,19.701],[103.809,19.995],[103.921,20.486]]],[[[106.795,20.927],[106.855,20.858],[106.854,20.796],[106.769,20.864],[106.795,20.927]]],[[[106.910,20.824],[106.953,20.867],[107.043,20.836],[107.063,20.799],[107.031,20.747],[106.990,20.743],[106.910,20.824]]]]}},{"type":"Feature","properties":{"focus":false,"kind":"state","approx":true,"color":"#b0805f","name":"Southwestern tribes","name_zh":"西南诸蛮","label":[106.7,26.65],"area":11.3},"geometry":{"type":"Polygon","coordinates":[[[104.710,26.803],[105.349,27.413],[105.853,28.465],[107.264,28.731],[108.771,27.507],[108.836,27.202],[108.689,26.807],[108.697,26.499],[106.653,24.601],[106.214,24.659],[105.845,24.791],[105.508,24.993],[105.217,25.257],[104.984,25.572],[104.786,26.019],[104.709,26.404],[104.710,26.803]]]}},{"type":"Feature","properties":{"name":"Champa","name_zh":"占城","focus":false,"color":"#9a8a4a","label":[108.56,13.29],"area":8.9},"geometry":{"type":"Polygon","coordinates":[[[106.451,16.186],[107.374,16.690],[107.807,16.284],[108.095,16.250],[108.235,16.079],[108.363,15.623],[108.496,15.365],[108.785,15.089],[108.916,14.791],[109.306,12.906],[109.068,12.486],[109.072,11.635],[108.896,11.342],[108.694,11.145],[108.161,10.964],[107.938,10.805],[107.671,10.526],[107.411,10.366],[107.265,10.347],[107.035,10.435],[106.773,10.639],[106.928,11.841],[107.894,12.568],[107.896,13.682],[107.461,14.987],[106.451,16.186]]]}},{"type":"Feature","properties":{"name":"Mon States","name_zh":"孟人诸国","focus":false,"color":"#b0805f","label":[96.03,17.74],"area":8.4},"geometry":{"type":"Polygon","coordinates":[[[94.143,16.214],[94.391,16.906],[94.463,17.264],[94.419,18.138],[94.244,18.585],[97.008,19.197],[97.442,19.101],[97.733,18.375],[97.417,16.482],[97.351,16.527],[97.212,16.940],[96.870,17.343],[96.769,17.319],[96.733,16.887],[96.661,16.697],[96.468,16.512],[95.715,16.155],[95.551,15.875],[95.329,15.677],[95.222,15.804],[95.206,15.998],[95.121,15.991],[94.971,15.835],[94.828,15.842],[94.753,15.937],[94.799,16.197],[94.418,16.076],[94.303,15.948],[94.144,16.005],[94.143,16.214]]]}},{"type":"Feature","properties":{"name":"Pagan","name_zh":"蒲甘","focus":false,"color":"#7272a8","label":[95.34,20.48],"area":8.9},"geometry":{"type":"Polygon","coordinates":[[[93.965,19.194],[94.298,22.295],[94.878,22.682],[95.458,22.730],[95.894,22.634],[96.474,21.762],[96.698,19.124],[94.244,18.586],[93.965,19.194]]]}},{"type":"Feature","properties":{"name":"Sindh","name_zh":"","focus":false,"color":"#a07d5a","label":[71.01,24.77],"area":11.8},"geometry":{"type":"Polygon","coordinates":[[[68.072,23.674],[68.864,24.481],[69.738,26.382],[70.207,27.154],[73.425,25.061],[70.309,22.828],[70.044,22.777],[69.664,22.788],[69.106,22.898],[68.790,23.028],[68.372,23.325],[68.072,23.674]]]}},{"type":"Feature","properties":{"name":"Vallabhi","name_zh":"","focus":false,"color":"#6f9460","label":[71.57,22.42],"area":8.3},"geometry":{"type":"Polygon","coordinates":[[[68.894,22.284],[69.491,22.248],[69.970,22.352],[70.176,22.478],[70.403,22.743],[70.380,22.859],[72.265,24.222],[73.914,23.110],[72.692,22.104],[72.315,22.108],[72.127,21.826],[72.133,21.742],[72.287,21.548],[72.255,21.352],[72.119,21.155],[71.893,20.989],[71.023,20.657],[70.855,20.650],[70.467,20.776],[70.209,20.947],[69.126,21.967],[68.894,22.284]]]}},{"type":"Feature","properties":{"name":"Cholas","name_zh":"","focus":false,"color":"#a07d5a","label":[79.57,14.53],"area":3.1},"geometry":{"type":"Polygon","coordinates":[[[78.961,16.027],[80.220,15.498],[80.089,15.174],[80.168,13.891],[80.077,13.671],[80.318,13.332],[80.312,13.104],[79.061,13.033],[78.961,16.027]]]}},{"type":"Feature","properties":{"name":"Nan-Zhao","name_zh":"南诏","focus":false,"color":"#a07d5a","label":[103.62,22.97],"area":20.5},"geometry":{"type":"Polygon","coordinates":[[[100.122,20.169],[100.352,20.743],[101.963,22.587],[102.424,24.887],[104.035,26.383],[104.713,26.093],[104.846,25.724],[104.996,25.460],[105.249,25.151],[105.480,24.952],[105.734,24.791],[106.010,24.669],[106.301,24.589],[106.601,24.552],[106.656,24.024],[106.405,23.583],[106.264,23.037],[105.951,23.077],[105.650,23.070],[105.350,23.018],[105.064,22.923],[104.712,22.735],[104.474,22.549],[104.264,22.329],[104.090,22.082],[103.919,21.719],[103.821,21.329],[103.802,20.928],[103.871,20.494],[103.760,20.002],[103.763,19.572],[102.079,19.823],[100.698,19.478],[100.122,20.169]]]}},{"type":"Feature","properties":{"name":"Pallava","name_zh":"","focus":false,"color":"#4f8f86","label":[77.78,11.35],"area":10.5},"geometry":{"type":"Polygon","coordinates":[[[75.734,11.252],[77.680,12.917],[80.312,13.103],[79.769,11.731],[79.710,11.447],[79.825,10.358],[79.789,10.250],[79.310,10.254],[79.225,10.194],[79.071,9.759],[78.925,9.492],[77.449,9.581],[76.645,10.612],[76.046,10.612],[75.734,11.252]]]}},{"type":"Feature","properties":{"name":"Pandya state","name_zh":"","focus":false,"color":"#a07d5a","label":[77.77,9.35],"area":3.2},"geometry":{"type":"Polygon","coordinates":[[[76.046,10.611],[76.643,10.615],[77.450,9.582],[78.925,9.491],[78.942,9.431],[79.158,9.277],[78.313,8.994],[78.181,8.811],[78.134,8.499],[78.063,8.385],[77.483,8.028],[77.341,8.053],[76.703,8.706],[76.536,9.118],[76.384,9.748],[76.046,10.611]]]}},{"type":"Feature","properties":{"name":"Lambakannas","name_zh":"","focus":false,"color":"#6f9460","label":[80.73,7.62],"area":5.0},"geometry":{"type":"Polygon","coordinates":[[[79.674,8.804],[79.705,8.929],[79.896,8.923],[80.050,9.112],[80.076,9.278],[80.176,9.445],[80.109,9.685],[80.347,9.470],[80.661,9.298],[81.092,8.625],[81.064,8.410],[81.325,8.257],[81.445,7.928],[81.803,7.312],[81.865,7.083],[81.778,6.753],[81.598,6.448],[81.201,6.079],[80.850,5.951],[80.341,5.969],[80.222,6.058],[80.127,6.215],[79.854,7.061],[79.831,8.101],[79.724,8.415],[79.805,8.645],[79.674,8.804]]]}},{"type":"Feature","properties":{"name":"Yamato","name_zh":"倭","focus":false,"color":"#7d6b5a","label":[139.25,36.9],"area":27.0},"geometry":{"type":"MultiPolygon","coordinates":[[[[130.779,33.966],[130.892,34.245],[131.332,34.291],[131.670,34.500],[132.662,35.379],[132.979,35.443],[133.025,35.258],[133.804,35.427],[134.754,35.531],[135.155,35.645],[135.189,35.443],[135.353,35.325],[135.727,35.450],[135.927,35.605],[135.977,35.971],[136.665,36.665],[136.640,37.169],[136.721,37.264],[137.308,37.431],[137.333,37.273],[137.011,37.028],[136.983,36.834],[137.041,36.678],[137.177,36.645],[137.464,36.853],[138.493,37.302],[138.698,37.449],[138.856,37.734],[139.196,37.919],[139.352,38.067],[139.438,38.188],[139.503,38.416],[139.745,38.680],[139.967,39.209],[140.029,39.481],[140.011,39.686],[139.862,39.782],[139.804,39.889],[141.466,40.513],[141.674,40.315],[141.997,39.670],[141.997,39.448],[141.886,39.129],[141.568,38.785],[141.470,38.592],[141.495,38.421],[141.025,38.209],[140.874,37.921],[140.981,37.267],[140.962,36.956],[140.655,36.617],[140.546,36.285],[140.556,35.968],[140.833,35.677],[140.396,35.409],[140.315,35.033],[139.830,34.835],[139.788,34.961],[139.997,35.487],[139.910,35.551],[139.682,35.444],[139.421,35.165],[139.209,35.164],[139.057,35.029],[139.021,34.688],[138.862,34.567],[138.778,34.579],[138.749,34.649],[138.750,34.919],[138.680,34.988],[138.447,34.899],[138.294,34.762],[138.148,34.527],[137.759,34.551],[137.248,34.481],[137.040,34.727],[136.729,34.868],[136.615,34.757],[136.513,34.519],[136.897,34.257],[136.765,34.169],[136.394,34.111],[136.200,34.003],[135.754,33.342],[135.062,33.690],[134.969,34.133],[135.235,34.349],[135.313,34.465],[135.285,34.593],[135.208,34.616],[134.934,34.540],[134.425,34.626],[133.824,34.385],[133.585,34.441],[132.481,34.129],[132.384,34.266],[132.186,34.285],[131.998,34.089],[131.993,33.804],[131.652,33.910],[130.899,33.903],[130.779,33.966]]],[[[132.121,33.346],[132.448,33.519],[132.784,33.906],[132.968,33.793],[133.246,33.800],[133.462,33.883],[133.805,34.175],[134.009,34.188],[134.539,34.012],[134.608,33.897],[134.518,33.650],[133.997,33.148],[133.721,33.376],[133.516,33.393],[133.238,33.297],[133.153,33.213],[132.969,32.765],[132.900,32.669],[132.698,32.548],[132.467,32.757],[132.341,33.105],[132.121,33.346]]],[[[129.343,33.150],[129.528,33.296],[129.857,33.260],[130.172,33.336],[130.426,33.674],[130.644,33.699],[130.858,33.674],[130.974,33.500],[131.092,33.427],[131.280,33.390],[131.568,33.485],[131.668,33.308],[131.426,33.104],[131.794,32.806],[131.829,32.693],[131.562,32.432],[131.453,32.248],[131.318,31.511],[131.209,31.352],[130.957,31.191],[130.743,30.887],[130.579,30.906],[130.554,30.968],[130.674,31.211],[130.716,31.482],[130.581,31.525],[130.477,31.441],[130.403,31.229],[130.231,31.026],[130.086,31.121],[130.060,31.215],[130.204,31.425],[130.218,31.556],[130.058,31.971],[130.441,32.282],[130.491,32.563],[130.259,32.907],[130.118,32.928],[129.844,32.587],[129.733,32.637],[129.630,32.864],[129.460,32.986],[129.343,33.150]]]]}},{"type":"Feature","properties":{"name":"Ainu","name_zh":"","focus":false,"color":"#7272a8","label":[143.26,43.52],"area":19.2},"geometry":{"type":"MultiPolygon","coordinates":[[[[149.437,45.583],[149.667,45.849],[149.854,45.922],[149.999,46.044],[149.999,45.831],[149.683,45.633],[149.437,45.583]]],[[[146.840,44.415],[146.846,44.475],[147.145,44.669],[147.111,44.792],[147.473,44.971],[147.504,45.042],[147.655,45.075],[147.763,45.188],[147.882,45.222],[147.856,45.355],[147.931,45.420],[147.999,45.275],[148.073,45.248],[148.321,45.270],[148.700,45.519],[148.855,45.473],[148.824,45.334],[148.582,45.315],[148.267,45.213],[147.867,44.971],[147.762,44.938],[147.619,44.961],[147.594,44.923],[147.621,44.896],[147.547,44.812],[147.293,44.667],[147.208,44.550],[147.022,44.506],[146.947,44.408],[146.840,44.415]]],[[[146.598,43.732],[146.599,43.793],[146.841,43.873],[146.903,43.839],[146.654,43.704],[146.598,43.732]]],[[[145.409,43.834],[145.744,44.051],[146.127,44.506],[146.343,44.421],[146.567,44.437],[146.507,44.358],[146.103,44.243],[145.932,44.120],[145.778,43.928],[145.597,43.856],[145.553,43.650],[145.437,43.716],[145.409,43.834]]],[[[146.080,43.517],[146.225,43.524],[146.225,43.524],[146.204,43.481],[146.124,43.459],[146.080,43.517]]],[[[139.711,42.476],[139.973,42.650],[140.495,42.896],[140.513,43.056],[140.373,43.185],[140.498,43.319],[140.597,43.325],[140.894,43.135],[141.060,43.096],[141.299,43.189],[141.301,43.719],[141.709,43.923],[141.744,44.626],[141.566,44.969],[141.522,45.181],[141.597,45.278],[141.874,45.434],[143.020,44.463],[143.791,44.026],[144.615,43.842],[144.751,43.882],[145.139,44.177],[145.346,44.242],[145.062,43.783],[145.447,43.169],[144.993,42.937],[144.753,42.866],[144.590,42.859],[144.365,42.948],[144.167,42.941],[144.003,42.877],[143.507,42.418],[143.329,42.195],[143.212,41.926],[143.032,41.958],[141.925,42.501],[141.720,42.538],[141.397,42.518],[140.929,42.255],[140.859,42.390],[140.698,42.544],[140.542,42.537],[140.230,42.366],[140.247,42.229],[140.766,42.004],[141.154,41.749],[140.978,41.652],[140.587,41.674],[140.267,41.324],[140.112,41.273],[140.012,41.381],[139.977,41.502],[140.122,41.790],[140.099,41.937],[139.852,42.035],[139.777,42.112],[139.711,42.476]]],[[[141.598,52.215],[141.811,52.630],[141.838,52.958],[141.689,53.165],[141.767,53.271],[142.213,53.299],[142.673,53.539],[142.862,53.339],[143.055,53.061],[143.137,52.855],[143.142,52.511],[143.032,52.311],[142.943,51.958],[142.943,51.617],[143.073,51.269],[143.339,50.884],[143.633,50.233],[144.037,49.508],[144.538,48.753],[143.597,49.232],[143.153,49.257],[142.849,49.119],[142.646,48.656],[142.489,47.898],[142.616,47.456],[142.990,46.956],[143.235,46.862],[143.443,46.570],[143.302,46.011],[143.004,46.574],[142.613,46.711],[142.512,46.697],[142.327,46.562],[141.897,45.914],[141.708,46.139],[141.622,46.557],[141.906,47.074],[141.731,47.471],[141.810,47.674],[142.034,47.964],[141.976,48.284],[141.739,48.806],[141.921,48.945],[142.048,49.354],[142.151,50.889],[142.112,51.217],[142.016,51.428],[141.643,51.813],[141.598,52.215]]],[[[139.804,39.890],[139.983,40.116],[139.915,40.573],[140.159,40.729],[140.386,40.984],[140.471,40.984],[140.669,40.726],[141.146,40.874],[141.074,41.097],[140.936,41.114],[140.774,41.254],[141.087,41.440],[141.435,41.268],[141.466,40.514],[139.804,39.890]]]]}},{"type":"Feature","properties":{"name":"Malay","name_zh":"","focus":false,"color":"#8a6f9e","label":[120.59,15.69],"area":22.8},"geometry":{"type":"MultiPolygon","coordinates":[[[[121.824,7.055],[122.093,7.774],[122.211,7.901],[122.383,7.984],[122.634,8.003],[122.730,8.058],[122.796,8.271],[122.888,8.341],[123.135,8.449],[123.484,8.495],[123.615,8.336],[123.658,8.038],[123.683,8.023],[123.805,8.082],[124.026,8.111],[124.117,8.193],[124.210,8.445],[124.371,8.560],[124.667,8.442],[124.741,8.917],[124.871,8.923],[124.995,8.730],[125.224,8.994],[125.403,8.958],[125.459,9.059],[125.438,9.369],[125.362,9.623],[125.428,9.782],[125.932,9.174],[126.036,8.957],[126.073,8.812],[125.929,8.476],[126.031,8.381],[126.270,8.424],[126.305,8.235],[126.254,8.043],[126.278,7.736],[126.371,7.535],[126.320,7.148],[126.044,6.608],[125.954,6.652],[125.909,6.848],[125.748,7.181],[125.606,7.221],[125.282,6.596],[125.464,6.243],[125.531,5.939],[125.460,5.717],[125.288,5.488],[125.072,5.722],[125.161,5.906],[125.123,6.052],[124.962,6.077],[124.802,5.785],[124.224,6.089],[123.973,6.336],[123.880,6.565],[123.864,6.850],[124.071,7.263],[124.023,7.473],[123.813,7.658],[123.466,7.788],[123.343,7.772],[123.246,7.592],[123.021,7.478],[122.725,7.452],[122.712,7.673],[122.623,7.775],[122.453,7.689],[121.990,6.872],[121.839,6.967],[121.824,7.055]]],[[[124.264,12.416],[124.951,12.526],[125.118,12.475],[125.245,12.291],[125.333,11.562],[125.447,11.206],[125.397,11.149],[125.323,11.123],[125.069,11.244],[124.883,11.433],[124.854,11.491],[124.915,11.645],[124.873,11.833],[124.330,12.208],[124.264,12.416]]],[[[119.681,16.187],[119.762,16.358],[120.195,16.052],[120.291,16.230],[120.246,16.873],[120.311,17.073],[120.393,18.042],[120.564,18.430],[120.800,18.551],[121.035,18.526],[121.583,18.293],[121.838,18.276],[122.049,18.446],[122.138,18.384],[122.146,18.206],[122.027,18.009],[122.007,17.795],[122.068,17.444],[122.312,17.259],[122.394,17.113],[122.202,16.542],[122.062,16.332],[121.404,15.872],[121.367,15.498],[121.245,15.300],[121.456,14.881],[121.730,14.106],[121.971,13.950],[122.102,13.921],[122.397,14.305],[122.485,14.318],[122.673,14.268],[122.775,14.173],[122.856,13.888],[122.987,13.728],[123.134,13.697],[123.359,13.951],[123.700,13.819],[123.735,13.763],[123.405,13.519],[123.817,12.975],[123.675,12.892],[123.238,13.025],[123.195,13.239],[123.092,13.379],[122.483,13.880],[122.371,13.876],[122.327,13.781],[122.490,13.430],[122.393,13.302],[122.066,13.651],[121.625,13.896],[121.482,13.889],[121.331,13.826],[121.186,13.681],[121.009,13.655],[120.598,13.921],[120.510,14.111],[120.798,14.384],[121.102,14.255],[121.271,14.355],[121.214,14.418],[120.896,14.551],[120.705,14.727],[120.486,14.798],[120.362,14.530],[119.971,14.904],[119.771,15.469],[119.811,15.976],[119.681,16.187]]],[[[122.303,9.649],[122.347,9.814],[122.600,9.909],[122.699,10.031],[122.920,10.850],[123.117,10.933],[123.238,10.921],[123.311,10.738],[123.104,10.228],[122.963,9.598],[123.131,9.251],[123.036,9.066],[122.941,9.047],[122.395,9.477],[122.303,9.649]]],[[[121.873,10.468],[121.993,11.757],[122.210,11.580],[122.470,11.454],[122.636,11.442],[122.918,11.524],[122.895,11.150],[122.706,10.940],[122.296,10.647],[121.873,10.468]]],[[[120.340,13.386],[121.038,13.406],[121.180,13.331],[121.303,13.128],[121.315,12.741],[121.272,12.525],[121.093,12.201],[120.733,12.549],[120.546,13.149],[120.340,13.386]]],[[[118.699,10.035],[118.756,10.168],[118.848,10.215],[118.988,10.392],[119.106,10.624],[119.207,11.128],[119.352,11.211],[119.415,11.129],[119.347,10.994],[119.563,10.501],[118.863,10.023],[118.699,10.035]]],[[[115.203,5.275],[115.291,5.452],[115.716,5.472],[115.787,5.739],[115.969,5.881],[116.098,6.096],[116.336,6.357],[116.595,6.898],[116.738,6.691],[116.877,6.648],[117.030,6.835],[117.168,6.614],[117.506,6.391],[117.539,6.240],[117.355,5.881],[117.374,5.795],[117.865,5.903],[117.917,5.802],[117.787,5.617],[117.795,5.590],[118.255,5.662],[118.376,5.637],[118.996,5.276],[119.041,5.169],[118.907,5.0],[115.432,5.0],[115.413,5.113],[115.203,5.275]]],[[[117.127,8.469],[117.378,8.894],[118.087,9.431],[118.507,9.920],[118.556,9.673],[118.503,9.482],[118.384,9.349],[117.969,9.114],[117.856,8.833],[117.709,8.712],[117.445,8.634],[117.269,8.450],[117.127,8.469]]],[[[114.799,5.000],[114.852,5.014],[114.852,5.014],[114.848,5.000],[114.799,5.000]]]]}},{"type":"Feature","properties":{"name":"Tatar tribes","name_zh":"鞑靼诸部","focus":false,"color":"#7d6b5a","label":[103.81,44.73],"area":292.6},"geometry":{"type":"Polygon","coordinates":[[[80.718,46.436],[82.208,51.328],[93.940,51.095],[105.301,51.211],[117.510,50.692],[116.071,42.315],[116.0,42.287],[115.598,42.410],[115.097,42.447],[114.799,42.410],[114.508,42.329],[114.232,42.207],[113.967,42.037],[113.698,42.110],[113.399,42.147],[113.098,42.140],[112.800,42.088],[112.424,41.953],[112.159,41.803],[111.849,41.548],[111.548,41.164],[111.174,40.942],[110.711,40.885],[109.150,40.996],[108.689,41.230],[108.398,41.310],[108.101,41.347],[107.599,41.310],[107.082,41.132],[104.845,41.229],[104.150,40.309],[104.099,39.297],[103.738,39.605],[103.289,39.830],[102.799,39.940],[102.245,39.918],[102.095,40.151],[101.898,40.380],[101.671,40.575],[101.417,40.737],[101.139,40.860],[100.752,40.957],[100.449,40.979],[100.121,40.953],[99.720,41.347],[99.465,41.508],[99.189,41.630],[98.799,41.727],[98.397,41.747],[98.000,41.688],[97.573,41.527],[97.319,41.875],[97.021,42.145],[96.677,42.352],[96.299,42.488],[95.801,42.549],[95.398,42.510],[95.014,42.393],[94.639,42.189],[94.160,42.128],[93.657,41.927],[92.066,43.300],[90.959,43.549],[91.316,45.919],[80.718,46.436]]]}},{"type":"Feature","properties":{"name":"Jurchens","name_zh":"女真","focus":false,"color":"#9a8a4a","label":[126.37,52.16],"area":219.9},"geometry":{"type":"Polygon","coordinates":[[[110.701,50.982],[115.637,58.0],[140.346,57.999],[140.027,57.644],[138.864,57.123],[138.344,56.803],[137.228,55.981],[136.521,55.589],[135.270,55.028],[134.988,54.855],[134.894,54.719],[134.901,54.566],[135.099,54.431],[135.724,54.407],[136.196,54.473],[136.490,54.454],[136.343,53.887],[136.352,53.705],[136.488,53.654],[136.767,53.694],[137.040,53.861],[137.381,53.808],[137.122,53.590],[137.083,53.513],[137.100,53.488],[137.976,53.464],[138.228,53.568],[138.408,53.805],[138.416,54.090],[139.377,54.079],[139.804,53.960],[140.101,53.800],[140.322,53.534],[141.120,53.050],[141.088,52.985],[140.849,52.824],[141.030,52.725],[141.089,52.586],[140.950,52.264],[141.159,52.208],[141.256,52.102],[141.125,51.871],[140.729,51.440],[140.404,50.826],[140.323,50.517],[140.455,50.102],[140.327,49.356],[140.080,48.502],[139.213,47.809],[139.046,47.614],[138.948,47.322],[138.352,46.874],[138.122,46.505],[136.142,46.334],[130.251,50.150],[110.701,50.982]]]}},{"type":"Feature","properties":{"name":"Paleo-Siberian hunter-gatherers","name_zh":"","focus":false,"color":"#7d6b5a","nolabel":true,"label":[80.62,56.52],"area":79.0},"geometry":{"type":"MultiPolygon","coordinates":[[[[115.205,57.386],[114.867,58.0],[115.636,57.999],[115.205,57.386]]],[[[60.000,56.558],[62.804,56.955],[65.855,58.0],[104.255,57.999],[99.496,55.663],[99.536,55.281],[93.699,56.483],[78.362,56.410],[65.311,55.046],[60.000,56.229],[60.000,56.558]]]]}},{"type":"Feature","properties":{"name":"Finno-Ugric taiga hunter-gatherers","name_zh":"","focus":false,"color":"#5f87a3","nolabel":true,"label":[62.17,57.48],"area":5.1},"geometry":{"type":"Polygon","coordinates":[[[60.000,56.559],[60.000,58.0],[65.854,57.999],[62.804,56.955],[60.000,56.559]]]}},{"type":"Feature","properties":{"name":"Silla","name_zh":"新罗","focus":false,"color":"#5f87a3","label":[128.09,37.13],"area":15.6},"geometry":{"type":"MultiPolygon","coordinates":[[[[130.805,37.512],[130.918,37.544],[130.921,37.481],[130.868,37.450],[130.805,37.512]]],[[[124.149,39.820],[126.707,39.964],[127.670,39.865],[127.440,39.622],[127.281,39.214],[127.406,39.075],[127.729,39.066],[128.297,38.697],[128.634,38.125],[129.048,37.684],[129.341,37.256],[129.432,37.057],[129.416,36.941],[129.473,36.774],[129.416,36.615],[129.437,36.400],[129.381,36.311],[129.387,36.036],[129.463,35.997],[129.556,36.077],[129.587,36.018],[129.438,35.475],[129.135,35.112],[128.978,35.084],[128.953,35.127],[128.810,35.084],[128.566,35.165],[128.437,35.072],[128.500,35.007],[128.433,34.834],[128.335,34.871],[128.317,34.944],[128.222,34.930],[128.202,34.888],[128.066,34.924],[128.012,34.984],[127.768,34.960],[127.643,34.900],[127.597,34.925],[127.579,34.884],[127.636,34.818],[127.772,34.842],[127.746,34.727],[127.639,34.616],[127.556,34.651],[127.564,34.767],[127.483,34.842],[127.373,34.745],[127.513,34.591],[127.388,34.471],[127.315,34.443],[127.253,34.468],[127.160,34.414],[127.114,34.462],[127.182,34.485],[127.124,34.537],[127.200,34.632],[127.197,34.580],[127.235,34.569],[127.324,34.649],[127.327,34.718],[127.301,34.731],[127.011,34.602],[126.888,34.412],[126.811,34.445],[126.786,34.544],[126.755,34.548],[126.671,34.408],[126.773,34.286],[126.700,34.284],[126.633,34.330],[126.599,34.300],[126.523,34.316],[126.478,34.345],[126.461,34.481],[126.402,34.518],[126.341,34.401],[126.186,34.351],[126.106,34.387],[126.243,34.572],[126.288,34.570],[126.266,34.682],[126.303,34.750],[126.435,34.612],[126.451,34.647],[126.552,34.639],[126.476,34.723],[126.631,34.803],[126.549,34.864],[126.510,34.770],[126.375,34.785],[126.421,34.941],[126.318,34.932],[126.249,35.115],[126.344,35.151],[126.361,35.068],[126.437,35.040],[126.451,35.094],[126.360,35.180],[126.421,35.405],[126.523,35.523],[126.678,35.551],[126.653,35.589],[126.498,35.578],[126.474,35.634],[126.747,35.776],[126.798,35.862],[126.778,35.893],[126.615,35.890],[126.631,35.966],[126.681,35.996],[126.544,36.136],[126.464,36.573],[126.522,36.602],[126.497,36.716],[126.350,36.734],[126.293,36.581],[126.271,36.701],[126.172,36.672],[126.128,36.750],[126.184,36.877],[126.290,36.961],[126.309,36.815],[126.394,36.847],[126.410,36.923],[126.348,36.952],[126.355,36.995],[126.441,36.998],[126.480,36.939],[126.502,37.051],[126.619,36.972],[126.780,36.962],[126.841,36.774],[126.968,36.909],[126.908,36.919],[126.756,37.044],[126.771,37.134],[126.687,37.124],[126.656,37.248],[126.442,37.474],[126.395,37.598],[126.216,37.746],[125.909,37.511],[125.741,37.781],[125.562,37.831],[125.269,37.484],[125.073,37.771],[124.754,37.952],[124.651,37.914],[124.615,37.967],[124.742,37.998],[124.693,38.139],[124.736,38.278],[124.929,38.463],[125.269,38.574],[125.284,38.690],[125.027,38.815],[125.292,39.366],[125.204,39.485],[124.922,39.617],[124.688,39.604],[124.547,39.541],[124.442,39.573],[124.149,39.820]]],[[[126.324,36.565],[126.375,36.589],[126.430,36.403],[126.335,36.438],[126.324,36.565]]],[[[128.490,34.867],[128.710,34.975],[128.740,34.781],[128.585,34.703],[128.591,34.812],[128.526,34.805],[128.490,34.867]]],[[[127.822,34.842],[127.897,34.932],[127.951,34.810],[127.987,34.804],[128.024,34.912],[128.084,34.830],[128.055,34.813],[128.059,34.701],[127.860,34.719],[127.822,34.842]]],[[[127.739,34.604],[127.768,34.663],[127.811,34.640],[127.798,34.572],[127.739,34.604]]],[[[127.711,34.525],[127.769,34.537],[127.797,34.484],[127.780,34.474],[127.711,34.525]]],[[[126.158,33.313],[126.317,33.451],[126.632,33.530],[126.820,33.549],[126.940,33.452],[126.842,33.308],[126.266,33.190],[126.158,33.313]]],[[[126.059,35.089],[126.137,35.141],[126.161,35.142],[126.105,35.046],[126.059,35.089]]],[[[125.986,34.860],[126.062,34.927],[126.093,34.908],[126.062,34.854],[125.986,34.860]]],[[[125.888,34.732],[125.908,34.771],[126.004,34.767],[125.970,34.733],[126.007,34.690],[125.970,34.647],[125.888,34.732]]]]}},{"type":"Feature","properties":{"name":"Palas","name_zh":"波罗王朝","focus":false,"color":"#7272a8","label":[88.62,23.3],"area":39.6},"geometry":{"type":"Polygon","coordinates":[[[83.984,24.780],[85.097,25.800],[85.933,25.244],[87.184,25.109],[87.867,27.016],[91.579,27.168],[93.116,24.868],[93.412,24.246],[92.984,24.078],[91.651,22.356],[91.570,22.543],[91.396,22.713],[91.086,22.557],[91.198,22.216],[90.570,21.881],[90.226,21.815],[90.083,21.838],[89.873,22.105],[89.795,21.832],[89.669,21.719],[89.578,21.700],[89.448,21.923],[89.232,21.655],[89.071,21.762],[88.996,21.631],[89.024,21.546],[88.879,21.514],[88.723,21.539],[88.656,21.850],[88.575,21.889],[88.376,21.577],[88.299,21.551],[88.048,21.922],[87.866,21.696],[87.154,21.534],[86.977,21.404],[86.800,21.144],[86.993,20.806],[86.639,20.322],[86.631,20.203],[86.106,19.868],[85.916,19.831],[85.713,19.697],[85.379,19.605],[84.726,20.885],[84.726,21.904],[84.911,22.741],[84.818,23.849],[83.984,24.780]]]}},{"type":"Feature","properties":{"name":"Chauhans","name_zh":"","focus":false,"color":"#5f87a3","label":[76.13,28.17],"area":11.1},"geometry":{"type":"Polygon","coordinates":[[[72.627,28.365],[77.059,29.419],[79.852,27.970],[76.309,27.045],[74.117,26.544],[72.627,28.365]]]}},{"type":"Feature","properties":{"name":"Srivijaya Empire","name_zh":"","focus":false,"color":"#b0805f","label":[100.14,6.96],"area":7.2},"geometry":{"type":"MultiPolygon","coordinates":[[[[98.192,8.372],[98.802,8.738],[99.442,8.881],[99.879,8.793],[99.867,8.707],[100.003,8.499],[100.130,8.531],[100.300,7.885],[100.344,7.440],[100.540,7.046],[100.616,6.977],[100.973,6.852],[101.215,6.802],[101.426,6.827],[101.558,6.738],[101.682,6.460],[102.088,6.143],[102.325,6.098],[102.801,5.560],[103.211,5.000],[100.393,5.000],[100.139,6.177],[100.216,6.526],[100.148,6.597],[99.968,6.507],[99.833,6.538],[99.662,6.710],[99.610,6.938],[99.638,7.066],[99.568,7.262],[99.465,7.336],[99.293,7.319],[99.024,7.870],[98.888,8.016],[98.545,8.260],[98.292,8.155],[98.192,8.372]]],[[[95.190,5.409],[95.283,5.549],[95.463,5.568],[95.739,5.467],[96.023,5.215],[96.187,5.144],[96.753,5.064],[97.383,5.179],[97.560,5.000],[95.293,5.000],[95.190,5.409]]]]}},{"type":"Feature","properties":{"name":"Arakan","name_zh":"","focus":false,"color":"#8a6f9e","label":[92.92,21.63],"area":6.0},"geometry":{"type":"Polygon","coordinates":[[[91.651,22.355],[92.756,23.784],[94.179,21.197],[93.965,19.194],[93.838,18.952],[93.457,19.173],[93.806,19.261],[93.719,19.597],[93.336,20.020],[93.065,19.992],[92.894,20.113],[92.913,20.375],[92.824,20.423],[92.662,20.404],[92.403,20.613],[92.176,20.886],[91.946,21.362],[91.844,21.907],[91.651,22.355]]]}},{"type":"Feature","properties":{"name":"Khmer Empire","name_zh":"真腊 (吴哥)","focus":false,"color":"#4f8f86","label":[102.87,14.15],"area":72.8},"geometry":{"type":"Polygon","coordinates":[[[97.418,16.482],[97.733,18.372],[97.604,18.699],[100.379,19.859],[100.704,19.480],[102.079,19.823],[103.763,19.572],[103.811,19.300],[103.906,19.014],[104.041,18.746],[104.214,18.500],[104.422,18.281],[105.416,17.406],[107.461,14.987],[107.896,13.681],[107.896,12.568],[106.928,11.837],[106.773,10.639],[106.704,10.447],[106.747,10.067],[106.655,9.743],[106.481,9.552],[106.335,9.520],[106.227,9.543],[106.117,9.335],[105.925,9.188],[105.503,9.028],[105.207,8.653],[105.024,8.519],[104.906,8.474],[104.742,8.493],[104.822,9.471],[104.890,9.693],[104.986,9.823],[104.973,9.984],[104.763,10.176],[104.427,10.284],[104.157,10.518],[104.003,10.536],[103.829,10.473],[103.606,10.473],[103.524,10.524],[103.667,10.762],[103.650,10.882],[103.515,11.055],[103.398,11.036],[103.191,10.904],[103.039,10.897],[102.961,11.367],[102.655,12.066],[102.528,12.147],[102.323,12.186],[101.919,12.583],[101.725,12.653],[101.583,12.660],[101.328,12.558],[101.023,12.671],[100.871,12.678],[100.955,13.359],[100.911,13.440],[100.472,13.508],[100.240,13.490],[100.040,13.393],[99.933,13.262],[100.022,12.994],[99.833,12.523],[99.894,12.079],[99.186,10.488],[99.071,9.898],[99.117,9.373],[99.194,9.238],[99.301,9.162],[99.723,9.256],[99.836,9.225],[99.897,9.066],[99.879,8.794],[99.442,8.881],[98.805,8.738],[98.192,8.373],[98.177,8.599],[98.249,8.936],[98.627,10.087],[98.431,10.201],[98.397,10.562],[98.604,10.862],[98.738,11.434],[98.854,11.633],[98.590,11.695],[98.588,11.821],[98.675,12.053],[98.595,12.736],[98.484,13.110],[98.197,13.644],[97.822,14.616],[97.595,16.350],[97.568,16.444],[97.418,16.482]]]}},{"type":"Feature","properties":{"name":"Balhae","name_zh":"渤海","focus":false,"color":"#6f9460","label":[128.99,42.71],"area":37.0},"geometry":{"type":"MultiPolygon","coordinates":[[[[121.213,39.483],[121.239,39.553],[122.037,40.265],[122.105,40.354],[122.082,40.487],[126.019,42.151],[128.549,43.646],[130.391,44.797],[131.500,45.076],[132.854,46.050],[138.122,46.504],[137.983,46.269],[137.720,45.996],[136.494,44.965],[136.032,44.398],[135.415,44.036],[134.961,43.515],[134.568,43.212],[134.138,42.992],[132.952,42.669],[132.824,42.859],[132.484,42.880],[132.333,42.963],[132.180,43.188],[131.674,43.026],[131.833,43.264],[131.583,43.211],[131.063,42.748],[129.825,41.862],[129.644,41.658],[129.590,41.469],[129.630,41.276],[129.476,40.682],[129.174,40.628],[128.446,40.065],[128.236,39.969],[127.931,39.955],[127.670,39.866],[126.707,39.964],[124.149,39.821],[124.093,39.879],[123.915,39.806],[123.036,39.671],[122.027,39.254],[121.603,38.958],[121.436,39.066],[121.315,39.031],[121.633,39.332],[121.447,39.381],[121.282,39.349],[121.213,39.483]]],[[[121.065,38.750],[121.081,38.781],[121.081,38.782],[121.097,38.751],[121.065,38.750]]]]}},{"type":"Feature","properties":{"name":"Khitans","name_zh":"契丹","focus":false,"color":"#a07d5a","label":[125.62,46.19],"area":117.1},"geometry":{"type":"Polygon","coordinates":[[[116.071,42.315],[117.511,50.692],[130.254,50.149],[136.141,46.334],[132.853,46.049],[131.498,45.075],[130.390,44.797],[128.549,43.646],[126.018,42.151],[125.089,42.957],[123.369,42.956],[118.131,41.957],[117.677,42.252],[117.198,42.410],[116.901,42.447],[116.600,42.440],[116.071,42.315]]]}},{"type":"Feature","properties":{"name":"Oghuz Turks","name_zh":"乌古斯","focus":false,"color":"#a3727a","label":[70.74,48.9],"area":405.4},"geometry":{"type":"MultiPolygon","coordinates":[[[[60.000,46.497],[60.214,46.286],[60.823,46.212],[60.784,46.151],[60.605,46.126],[60.477,46.202],[60.299,46.163],[60.000,46.210],[60.000,46.497]]],[[[60.000,46.513],[60.000,56.228],[65.312,55.046],[78.362,56.410],[93.699,56.483],[99.513,55.286],[99.533,55.307],[99.485,55.657],[104.256,57.999],[114.866,57.999],[115.204,57.386],[110.700,50.982],[105.300,51.211],[93.940,51.095],[82.219,51.328],[80.792,46.682],[79.244,46.672],[79.117,46.798],[79.050,46.804],[78.989,46.748],[78.868,46.795],[78.759,46.723],[78.627,46.743],[78.475,46.624],[78.373,46.636],[78.346,46.512],[78.296,46.468],[78.134,46.593],[77.859,46.646],[77.269,46.611],[77.174,46.555],[77.078,46.624],[76.670,46.672],[76.450,46.640],[76.202,46.779],[75.827,46.817],[75.338,46.729],[75.087,46.812],[74.627,46.751],[74.373,46.518],[74.021,46.367],[73.955,46.286],[74.019,46.204],[73.776,46.205],[73.652,46.150],[73.663,46.062],[73.736,46.011],[73.558,45.816],[73.476,45.802],[73.530,45.733],[73.446,45.616],[73.607,45.515],[70.646,43.566],[64.948,43.753],[63.520,45.027],[61.457,45.258],[61.250,45.175],[61.174,45.187],[61.020,45.487],[61.039,45.736],[60.998,45.920],[61.031,46.012],[60.998,46.076],[61.120,46.104],[61.366,46.353],[61.631,46.736],[61.624,46.765],[61.463,46.764],[61.248,46.611],[60.938,46.489],[60.799,46.568],[60.783,46.631],[60.855,46.700],[60.837,46.772],[60.656,46.820],[60.524,46.807],[60.526,46.728],[60.727,46.675],[60.724,46.625],[60.603,46.578],[60.502,46.607],[60.428,46.528],[60.261,46.694],[60.075,46.618],[60.000,46.513]],[[105.164,51.905],[103.775,51.682],[104.156,51.535],[104.654,51.482],[105.796,51.701],[105.967,51.774],[106.184,51.954],[106.313,52.322],[106.497,52.382],[106.805,52.330],[106.938,52.473],[107.097,52.540],[107.947,52.780],[108.286,52.989],[108.330,53.039],[108.302,53.108],[108.390,53.162],[108.661,53.300],[108.768,53.282],[108.927,53.343],[108.985,53.450],[108.915,53.565],[108.838,53.585],[108.532,53.513],[108.943,53.861],[109.059,53.829],[109.039,53.643],[109.171,53.640],[109.210,53.826],[109.546,54.145],[109.495,54.262],[109.523,54.557],[109.762,55.035],[109.750,55.184],[109.856,55.443],[109.860,55.573],[109.941,55.681],[109.843,55.753],[109.577,55.770],[109.200,55.539],[109.170,55.193],[109.051,55.027],[108.924,54.953],[108.931,54.897],[108.785,54.672],[108.592,54.491],[108.222,53.976],[107.628,53.612],[107.533,53.438],[106.850,53.101],[106.804,53.041],[106.872,53.028],[106.879,52.973],[106.536,52.705],[106.057,52.510],[105.859,52.385],[105.568,52.108],[105.164,51.905]]],[[[60.000,41.531],[60.875,40.654],[61.451,39.274],[61.105,38.699],[60.000,38.363],[60.000,41.531]]]]}},{"type":"Feature","properties":{"name":"Hindu Shahis","name_zh":"","focus":false,"color":"#a3727a","label":[75.07,30.81],"area":23.8},"geometry":{"type":"Polygon","coordinates":[[[71.699,29.618],[72.040,30.184],[72.270,32.368],[72.848,33.344],[76.758,33.182],[76.760,31.904],[77.106,31.332],[77.564,31.102],[78.484,30.526],[79.060,28.801],[79.147,28.336],[77.058,29.418],[73.485,28.570],[71.699,29.618]]]}},{"type":"Feature","properties":{"name":"Multan","name_zh":"","focus":false,"color":"#4f8f86","label":[71.85,27.75],"area":10.2},"geometry":{"type":"Polygon","coordinates":[[[70.207,27.155],[71.699,29.617],[73.484,28.570],[72.658,28.373],[72.643,28.348],[74.113,26.549],[76.104,26.997],[73.425,25.062],[70.207,27.155]]]}},{"type":"Feature","properties":{"name":"Vengi","name_zh":"","focus":false,"color":"#4f8f86","label":[81.0,16.4],"area":2.2},"geometry":{"type":"Polygon","coordinates":[[[79.487,15.807],[80.960,17.362],[82.231,16.644],[82.080,16.462],[81.787,16.328],[81.596,16.302],[81.364,16.340],[81.252,16.223],[81.086,15.826],[80.962,15.723],[80.733,15.835],[80.461,15.773],[80.300,15.644],[80.220,15.499],[79.487,15.807]]]}},{"type":"Feature","properties":{"name":"Banas","name_zh":"","focus":false,"color":"#4f8f86","label":[80.76,19.79],"area":17.1},"geometry":{"type":"Polygon","coordinates":[[[78.715,17.522],[78.945,19.018],[78.830,20.398],[84.902,22.848],[84.820,22.332],[82.450,20.268],[82.814,19.321],[79.486,15.807],[78.961,16.028],[78.945,16.485],[78.715,17.522]]]}},{"type":"Feature","properties":{"name":"Gurjara Pratihara","name_zh":"","focus":false,"color":"#a07d5a","label":[78.44,24.5],"area":48.7},"geometry":{"type":"Polygon","coordinates":[[[72.265,24.223],[76.105,26.997],[79.046,27.759],[79.865,27.304],[81.594,25.232],[82.744,24.773],[84.040,24.831],[83.996,24.767],[84.818,23.852],[84.889,23.001],[80.958,21.857],[74.612,21.891],[72.820,21.085],[72.765,21.150],[72.713,21.436],[72.665,21.848],[72.693,22.103],[73.901,23.113],[72.265,24.223]]]}},{"type":"Feature","properties":{"name":"Rashtrakuta","name_zh":"","focus":false,"color":"#a07d5a","label":[76.06,17.04],"area":53.9},"geometry":{"type":"Polygon","coordinates":[[[72.759,20.056],[72.864,20.310],[73.109,20.692],[73.107,20.830],[72.820,21.084],[74.612,21.891],[80.958,21.857],[84.889,23.000],[84.902,22.848],[78.835,20.398],[78.945,19.018],[78.715,17.522],[78.946,16.485],[79.060,13.033],[77.678,12.916],[75.734,11.253],[75.210,12.102],[74.732,13.684],[74.400,14.419],[73.841,15.390],[73.409,16.557],[73.063,18.031],[72.759,20.056]]]}},{"type":"Feature","properties":{"name":"Kalinga","name_zh":"","focus":false,"color":"#4f8f86","label":[82.5,17.9],"area":3.7},"geometry":{"type":"Polygon","coordinates":[[[80.960,17.363],[82.736,19.237],[84.245,18.439],[83.986,18.207],[83.683,18.081],[83.380,17.710],[82.356,17.086],[82.231,16.645],[80.960,17.363]]]}},{"type":"Feature","properties":{"name":"Somvamsis","name_zh":"","focus":false,"color":"#a07d5a","label":[83.84,20.58],"area":5.9},"geometry":{"type":"Polygon","coordinates":[[[82.810,19.331],[82.444,20.264],[84.820,22.331],[84.726,21.904],[84.726,20.886],[85.378,19.605],[85.112,19.441],[84.245,18.440],[82.736,19.238],[82.810,19.331]]]}},{"type":"Feature","properties":{"name":"Karluks","name_zh":"葛逻禄","focus":false,"color":"#6f9460","label":[75.15,42.55],"area":100.4},"geometry":{"type":"Polygon","coordinates":[[[64.948,43.752],[70.646,43.566],[73.607,45.515],[73.837,45.264],[73.998,45.187],[74.017,45.020],[74.090,45.007],[74.135,45.075],[74.154,45.263],[74.082,45.352],[74.089,45.508],[74.301,45.666],[74.242,45.750],[74.298,45.794],[74.253,45.940],[74.278,46.003],[74.548,46.005],[74.766,46.104],[74.911,46.403],[75.093,46.459],[75.212,46.429],[75.304,46.518],[75.412,46.475],[75.445,46.507],[75.417,46.640],[75.508,46.677],[75.561,46.644],[75.508,46.585],[75.614,46.507],[76.238,46.553],[76.740,46.530],[77.103,46.454],[77.428,46.498],[77.652,46.415],[77.864,46.427],[78.074,46.328],[78.316,46.348],[78.430,46.304],[78.465,46.391],[78.886,46.369],[78.966,46.403],[79.094,46.580],[79.212,46.608],[79.244,46.671],[80.792,46.681],[80.739,46.435],[91.332,45.919],[90.958,43.549],[89.999,43.761],[87.578,43.762],[85.622,43.417],[82.052,41.460],[79.980,40.769],[77.909,40.424],[75.388,40.195],[75.249,39.683],[73.191,39.965],[71.690,40.885],[70.889,40.999],[69.967,40.540],[68.587,40.655],[67.205,41.691],[64.948,43.752]]]}},{"type":"Feature","properties":{"name":"Samanid Empire","name_zh":"萨曼王朝","focus":false,"color":"#6f9460","label":[68.26,36.34],"area":156.0},"geometry":{"type":"Polygon","coordinates":[[[60.000,43.620],[60.081,43.613],[60.941,44.439],[61.109,44.715],[61.725,44.932],[61.833,45.025],[61.821,45.056],[61.251,45.175],[61.451,45.258],[63.522,45.027],[67.205,41.691],[68.585,40.656],[69.966,40.540],[70.889,40.999],[71.694,40.885],[73.191,39.965],[75.249,39.682],[75.148,39.271],[75.150,37.781],[75.952,37.432],[76.528,36.971],[76.529,35.129],[76.758,33.183],[72.847,33.340],[72.269,32.366],[72.039,30.182],[71.019,28.498],[60.000,35.709],[60.000,38.362],[61.104,38.699],[61.449,39.276],[60.875,40.654],[60.000,41.532],[60.000,43.620]]]}},{"type":"Feature","properties":{"name":"Saffarids","name_zh":"","focus":false,"color":"#4f8f86","label":[62.76,32.1],"area":75.1},"geometry":{"type":"Polygon","coordinates":[[[60.000,35.708],[71.019,28.497],[69.739,26.383],[68.863,24.480],[68.072,23.675],[68.040,23.763],[67.692,23.814],[67.486,23.928],[67.315,24.092],[67.204,24.585],[67.154,24.648],[66.654,24.783],[66.698,25.116],[66.619,25.317],[66.428,25.487],[66.298,25.493],[65.767,25.309],[64.850,25.204],[64.424,25.173],[64.238,25.209],[64.050,25.399],[63.651,25.335],[63.402,25.164],[62.449,25.161],[61.813,25.053],[61.343,25.026],[60.858,25.095],[60.478,25.297],[60.000,25.322],[60.000,35.708]]]}},{"type":"Feature","properties":{"focus":true,"kind":"state","approx":true,"color":"#3f6e8c","name":"Later Liang","name_zh":"后梁","label":[114.2,34.23],"area":51.1},"geometry":{"type":"MultiPolygon","coordinates":[[[[107.994,36.693],[109.655,37.460],[110.131,37.348],[110.561,36.593],[111.253,36.786],[112.276,36.524],[112.338,35.592],[113.325,35.185],[113.671,35.475],[114.806,35.938],[115.281,35.617],[115.870,36.771],[116.087,36.813],[116.505,37.427],[117.718,37.575],[118.255,38.143],[118.541,38.095],[118.799,38.126],[118.940,38.042],[119.027,37.903],[119.038,37.780],[119.089,37.700],[118.989,37.633],[118.954,37.330],[119.111,37.201],[119.288,37.138],[119.761,37.156],[119.883,37.251],[119.882,37.350],[120.155,37.495],[120.298,37.612],[120.257,37.678],[120.749,37.833],[121.049,37.725],[121.218,37.601],[121.388,37.578],[121.638,37.461],[121.959,37.446],[122.057,37.528],[122.109,37.522],[122.172,37.455],[122.397,37.397],[122.390,37.104],[122.344,36.834],[122.242,36.849],[122.160,36.958],[121.936,36.959],[121.053,36.611],[120.812,36.630],[120.807,36.599],[120.882,36.538],[120.895,36.444],[120.847,36.426],[120.774,36.453],[120.712,36.412],[120.682,36.338],[120.680,36.168],[120.393,36.053],[120.330,36.110],[120.321,36.226],[120.185,36.202],[120.119,36.152],[120.101,36.111],[120.177,36.021],[120.284,35.984],[120.058,35.862],[119.978,35.740],[119.866,35.643],[119.717,35.586],[119.526,35.358],[119.429,35.299],[119.352,35.113],[119.215,35.009],[119.166,34.849],[119.201,34.753],[119.351,34.749],[119.585,34.581],[119.963,34.447],[120.201,34.325],[120.322,34.169],[120.401,33.936],[118.344,34.122],[118.223,34.066],[118.094,33.748],[117.880,33.700],[117.009,33.078],[115.941,33.290],[115.760,32.995],[114.818,32.875],[114.180,32.094],[114.578,31.387],[113.300,30.365],[113.226,30.389],[112.718,31.187],[112.000,31.169],[110.605,32.082],[110.528,32.259],[108.782,32.572],[108.681,32.555],[108.036,33.550],[108.134,34.284],[109.212,35.446],[108.173,36.391],[107.994,36.693]]],[[[121.106,38.920],[121.424,39.017],[121.645,38.864],[121.321,38.808],[121.163,38.731],[121.106,38.920]]]]}},{"type":"Feature","properties":{"focus":true,"kind":"state","approx":true,"color":"#7a5195","name":"Jin (Shatuo Li)","name_zh":"晋","label":[112.45,38.77],"area":42.1},"geometry":{"type":"Polygon","coordinates":[[[110.132,37.348],[111.128,38.845],[110.601,40.172],[110.636,40.243],[110.793,40.491],[110.985,40.714],[111.288,40.962],[111.581,41.125],[111.817,41.442],[112.031,41.645],[112.356,41.863],[112.719,42.013],[113.006,42.078],[113.300,42.099],[113.593,42.078],[113.976,41.984],[114.434,42.247],[114.714,42.340],[115.004,42.390],[115.493,42.378],[115.999,42.234],[116.313,42.339],[116.603,42.390],[116.897,42.397],[117.189,42.361],[117.473,42.283],[117.742,42.163],[118.269,41.801],[118.606,41.878],[118.998,41.897],[119.386,41.839],[119.755,41.707],[120.091,41.506],[120.381,41.243],[120.615,40.928],[120.775,40.593],[120.479,40.230],[119.592,39.902],[119.393,39.754],[119.261,39.561],[119.224,39.408],[118.976,39.182],[118.625,39.176],[118.297,39.067],[118.149,39.193],[118.041,39.226],[117.867,39.191],[117.785,39.134],[117.616,38.852],[117.554,38.693],[117.559,38.621],[117.655,38.425],[117.767,38.311],[118.014,38.183],[118.255,38.143],[117.720,37.574],[116.505,37.427],[116.219,37.914],[115.578,38.235],[115.511,38.961],[115.201,39.268],[114.214,38.969],[113.940,38.979],[113.638,38.482],[113.538,37.877],[113.575,37.587],[114.927,37.579],[115.215,36.995],[115.870,36.771],[115.279,35.604],[114.800,35.935],[113.669,35.473],[113.329,35.182],[112.334,35.591],[112.269,36.524],[111.254,36.785],[110.559,36.588],[110.132,37.348]]]}},{"type":"Feature","properties":{"focus":true,"kind":"state","approx":true,"color":"#8a8a5a","minor":true,"name":"Zhao (Chengde)","name_zh":"赵","label":[114.89,37.89],"area":3.0},"geometry":{"type":"Polygon","coordinates":[[[113.537,37.876],[113.639,38.484],[113.942,38.985],[114.214,38.969],[115.064,37.908],[115.578,38.235],[116.220,37.914],[116.504,37.427],[116.085,36.809],[115.870,36.771],[115.214,36.994],[114.922,37.578],[113.572,37.580],[113.537,37.876]]]}},{"type":"Feature","properties":{"focus":true,"kind":"state","approx":true,"color":"#6a8aa0","minor":true,"name":"Yiwu","name_zh":"义武","label":[115.03,38.6],"area":1.1},"geometry":{"type":"Polygon","coordinates":[[[114.214,38.969],[115.199,39.272],[115.512,38.962],[115.578,38.235],[115.071,37.897],[114.214,38.969]]]}},{"type":"Feature","properties":{"focus":true,"kind":"state","approx":true,"color":"#7d6b4a","name":"Qi","name_zh":"岐","label":[106.47,36.85],"area":14.9},"geometry":{"type":"Polygon","coordinates":[[[104.351,38.864],[104.484,39.127],[104.653,39.368],[104.856,39.581],[105.088,39.762],[105.344,39.907],[105.619,40.013],[106.167,40.098],[107.551,38.022],[107.481,37.005],[107.994,36.693],[108.174,36.390],[109.221,35.444],[108.136,34.286],[108.036,33.550],[106.516,33.976],[106.567,34.867],[105.914,36.345],[105.574,36.403],[104.412,37.770],[104.351,38.864]]]}},{"type":"Feature","properties":{"focus":true,"kind":"state","approx":true,"color":"#6f9460","name":"Former Shu","name_zh":"前蜀","label":[106.06,31.44],"area":50.2},"geometry":{"type":"Polygon","coordinates":[[[102.521,31.941],[102.865,32.266],[103.093,32.661],[103.432,33.019],[103.409,33.595],[103.519,34.079],[104.022,34.383],[105.574,36.403],[105.909,36.355],[106.568,34.866],[106.523,33.976],[108.036,33.550],[108.682,32.559],[108.779,32.573],[110.531,32.260],[110.605,32.082],[110.228,29.823],[109.576,29.588],[108.771,27.507],[107.255,28.729],[105.854,28.464],[105.349,27.413],[104.710,26.803],[104.600,26.800],[104.306,26.821],[104.019,26.886],[103.657,27.036],[103.408,27.193],[103.117,27.457],[102.840,27.845],[102.528,28.055],[102.234,28.152],[101.972,28.284],[101.657,28.517],[101.337,28.888],[101.152,29.234],[101.021,29.706],[101.002,30.098],[101.086,30.580],[101.236,30.942],[101.454,31.268],[101.808,31.606],[102.145,31.808],[102.521,31.941]]]}},{"type":"Feature","properties":{"focus":true,"kind":"state","approx":true,"color":"#b5523b","name":"Wu","name_zh":"吴","label":[116.45,29.42],"area":38.5},"geometry":{"type":"Polygon","coordinates":[[[113.301,30.365],[114.569,31.381],[114.175,32.092],[114.817,32.877],[115.754,32.994],[115.933,33.293],[117.010,33.080],[117.882,33.701],[118.092,33.750],[118.225,34.070],[118.345,34.123],[120.401,33.936],[120.499,33.716],[120.506,33.636],[120.615,33.490],[120.871,33.016],[120.897,32.843],[120.853,32.762],[120.854,32.664],[121.042,32.547],[120.678,32.074],[120.518,32.104],[120.184,31.966],[120.072,31.957],[120.081,31.927],[120.192,31.906],[120.497,32.019],[120.620,31.999],[120.121,31.350],[119.446,31.234],[119.401,30.509],[119.248,30.191],[119.308,29.923],[119.143,29.661],[118.168,29.164],[118.835,27.896],[117.365,27.540],[117.037,26.878],[116.065,26.867],[115.656,26.427],[115.594,24.634],[115.248,24.366],[114.985,24.413],[113.953,25.692],[113.930,26.539],[113.483,27.382],[113.866,28.681],[114.458,29.182],[113.301,30.365]]]}},{"type":"Feature","properties":{"focus":true,"kind":"state","approx":true,"color":"#2f8a7a","name":"Wuyue","name_zh":"吴越","label":[120.26,29.37],"area":10.9},"geometry":{"type":"MultiPolygon","coordinates":[[[[122.331,29.934],[122.401,29.950],[122.394,29.846],[122.367,29.852],[122.331,29.934]]],[[[121.969,30.143],[122.110,30.139],[122.284,30.067],[122.322,30.031],[122.295,29.963],[122.281,29.943],[122.157,30.000],[122.024,30.013],[121.977,30.063],[121.969,30.143]]],[[[122.042,29.735],[122.062,29.772],[122.119,29.782],[122.169,29.660],[122.042,29.735]]],[[[118.159,29.164],[119.144,29.664],[119.306,29.923],[119.247,30.192],[119.401,30.511],[119.444,31.241],[120.120,31.351],[120.620,31.999],[120.715,31.983],[120.793,31.817],[121.055,31.719],[121.204,31.628],[121.351,31.484],[121.660,31.319],[121.786,31.162],[121.877,30.917],[121.769,30.870],[121.528,30.841],[121.419,30.790],[121.309,30.699],[120.999,30.558],[120.897,30.392],[120.821,30.354],[120.452,30.387],[120.263,30.287],[120.352,30.248],[120.494,30.303],[120.642,30.134],[120.904,30.161],[121.159,30.301],[121.258,30.303],[121.432,30.226],[121.678,29.979],[122.082,29.870],[121.905,29.779],[121.560,29.521],[121.578,29.495],[121.689,29.511],[121.887,29.627],[121.941,29.605],[121.968,29.490],[121.917,29.135],[121.853,29.128],[121.790,29.224],[121.716,29.255],[121.534,29.235],[121.461,29.151],[121.664,29.010],[121.679,28.953],[121.609,28.903],[121.662,28.851],[121.630,28.767],[121.519,28.711],[121.478,28.643],[121.609,28.292],[121.509,28.322],[121.354,28.229],[121.272,28.222],[121.219,28.337],[121.147,28.327],[121.097,28.287],[120.958,28.037],[120.892,28.003],[120.765,28.006],[120.764,27.977],[120.832,27.937],[120.832,27.891],[120.686,27.745],[120.664,27.639],[120.593,27.582],[120.629,27.482],[120.607,27.412],[120.384,27.155],[120.278,27.095],[120.162,26.921],[119.741,27.228],[119.492,27.292],[118.986,27.849],[118.835,27.896],[118.159,29.164]]],[[[120.678,32.074],[121.043,32.547],[121.293,32.457],[121.400,32.371],[121.407,32.202],[121.489,32.121],[121.751,31.992],[121.832,31.899],[121.866,31.703],[121.680,31.712],[121.350,31.858],[121.145,31.842],[120.973,31.869],[120.793,32.030],[120.678,32.074]]],[[[121.211,31.805],[121.464,31.756],[121.492,31.694],[121.576,31.638],[121.808,31.552],[121.862,31.492],[121.780,31.463],[121.519,31.549],[121.336,31.643],[121.211,31.805]]],[[[121.131,28.062],[121.134,28.135],[121.205,28.204],[121.250,28.145],[121.251,28.086],[121.131,28.062]]]]}},{"type":"Feature","properties":{"focus":true,"kind":"state","approx":true,"color":"#9e4a6e","name":"Min","name_zh":"闽","label":[117.62,25.81],"area":11.2},"geometry":{"type":"MultiPolygon","coordinates":[[[[120.130,23.612],[120.159,23.709],[120.492,24.253],[120.363,23.956],[120.130,23.612]]],[[[115.594,24.634],[115.655,26.429],[116.071,26.873],[117.036,26.881],[117.362,27.540],[118.835,27.896],[118.984,27.852],[119.490,27.294],[119.740,27.229],[120.162,26.921],[120.097,26.781],[120.086,26.671],[119.967,26.586],[119.882,26.610],[119.802,26.812],[119.710,26.728],[119.591,26.757],[119.639,26.625],[119.725,26.609],[119.784,26.546],[119.881,26.334],[119.692,26.236],[119.463,26.054],[119.172,26.099],[119.261,25.977],[119.329,25.949],[119.418,25.955],[119.500,26.009],[119.618,26.003],[119.648,25.918],[119.553,25.698],[119.540,25.595],[119.622,25.391],[119.592,25.368],[119.419,25.458],[119.180,25.449],[119.149,25.411],[119.167,25.359],[119.285,25.232],[119.235,25.205],[118.974,25.205],[118.917,25.128],[118.955,25.004],[118.909,24.928],[118.644,24.829],[118.719,24.746],[118.657,24.621],[118.560,24.580],[118.412,24.600],[118.295,24.572],[118.195,24.625],[118.091,24.626],[118.015,24.560],[118.005,24.482],[117.852,24.471],[117.879,24.397],[118.024,24.379],[118.056,24.246],[117.839,24.012],[117.735,24.008],[117.668,23.939],[117.628,23.836],[117.464,23.836],[117.441,23.684],[116.596,24.738],[115.594,24.634]]],[[[119.696,25.590],[119.722,25.638],[119.777,25.653],[119.838,25.591],[119.813,25.510],[119.832,25.479],[119.746,25.410],[119.700,25.432],[119.720,25.548],[119.696,25.590]]],[[[118.287,24.476],[118.340,24.471],[118.407,24.522],[118.451,24.455],[118.432,24.414],[118.295,24.436],[118.287,24.476]]],[[[118.076,24.501],[118.103,24.552],[118.182,24.496],[118.149,24.436],[118.090,24.446],[118.076,24.501]]]]}},{"type":"Feature","properties":{"focus":true,"kind":"state","approx":true,"color":"#b8862b","name":"Chu","name_zh":"楚","label":[111.4,26.8],"area":31.7},"geometry":{"type":"Polygon","coordinates":[[[106.652,24.600],[109.118,26.892],[108.836,27.203],[108.771,27.507],[109.577,29.593],[110.228,29.823],[110.659,29.652],[111.486,29.846],[112.305,29.547],[113.226,30.389],[113.301,30.365],[114.467,29.179],[113.865,28.679],[113.485,27.388],[113.815,26.715],[113.931,26.539],[113.953,25.692],[112.536,24.840],[112.668,24.120],[112.348,23.689],[110.488,24.192],[110.254,23.691],[109.275,23.259],[108.832,23.576],[106.710,24.013],[106.659,24.304],[106.652,24.600]]]}},{"type":"Feature","properties":{"focus":true,"kind":"state","approx":true,"color":"#4a7aa8","name":"Southern Han","name_zh":"南汉","label":[109.88,22.99],"area":26.9},"geometry":{"type":"MultiPolygon","coordinates":[[[[106.308,22.976],[106.359,23.285],[106.452,23.565],[106.710,24.013],[108.834,23.575],[109.276,23.262],[110.251,23.690],[110.480,24.196],[112.347,23.693],[112.667,24.122],[112.528,24.837],[113.953,25.692],[114.987,24.414],[115.247,24.367],[115.594,24.634],[116.595,24.741],[117.441,23.684],[117.367,23.588],[117.331,23.700],[117.300,23.712],[117.082,23.578],[117.030,23.623],[116.913,23.639],[116.860,23.453],[116.683,23.352],[116.698,23.277],[116.669,23.228],[116.540,23.180],[116.519,23.006],[116.470,22.945],[116.345,22.941],[116.252,22.977],[116.157,22.887],[115.852,22.801],[115.636,22.851],[115.562,22.823],[115.498,22.718],[115.382,22.718],[115.190,22.815],[114.919,22.684],[114.853,22.616],[114.750,22.626],[114.710,22.735],[114.649,22.751],[114.546,22.621],[114.554,22.528],[114.346,22.592],[114.276,22.547],[114.287,22.462],[114.335,22.396],[114.292,22.371],[114.207,22.195],[114.138,22.268],[114.178,22.331],[114.034,22.375],[113.937,22.365],[113.902,22.396],[113.896,22.428],[114.006,22.506],[113.828,22.607],[113.754,22.733],[113.661,22.801],[113.586,23.020],[113.598,23.105],[113.518,23.101],[113.450,23.054],[113.433,22.921],[113.520,22.851],[113.563,22.757],[113.426,22.858],[113.394,22.922],[113.336,22.896],[113.553,22.594],[113.551,22.406],[113.588,22.350],[113.548,22.222],[113.365,22.164],[113.266,22.088],[113.149,22.075],[113.074,22.190],[113.009,22.118],[112.983,21.938],[112.953,21.907],[112.903,21.881],[112.799,21.940],[112.662,21.860],[112.586,21.776],[112.421,21.880],[112.430,21.953],[112.381,21.979],[112.389,21.801],[112.304,21.741],[111.955,21.847],[111.873,21.717],[111.773,21.715],[111.602,21.559],[111.395,21.535],[111.319,21.486],[111.025,21.510],[110.996,21.430],[110.770,21.385],[110.567,21.214],[110.458,21.230],[110.413,21.304],[110.374,21.172],[110.296,21.092],[110.385,21.093],[110.426,21.060],[110.521,21.083],[110.538,21.018],[110.504,20.968],[110.421,21.006],[110.280,21.001],[110.264,21.025],[110.301,21.074],[110.279,21.093],[110.194,21.037],[110.155,20.941],[110.186,20.859],[110.365,20.837],[110.388,20.790],[110.317,20.671],[110.511,20.518],[110.517,20.460],[110.449,20.355],[110.344,20.294],[110.123,20.263],[109.938,20.295],[109.882,20.364],[109.885,20.413],[109.963,20.402],[109.969,20.444],[109.860,20.514],[109.792,20.621],[109.802,20.717],[109.662,20.916],[109.703,21.050],[109.681,21.131],[109.759,21.227],[109.779,21.337],[109.916,21.377],[109.927,21.468],[109.829,21.483],[109.769,21.544],[109.686,21.524],[109.565,21.690],[109.525,21.674],[109.544,21.537],[109.347,21.454],[109.148,21.425],[109.081,21.440],[109.129,21.541],[109.100,21.590],[109.027,21.626],[108.771,21.630],[108.615,21.770],[108.597,21.895],[108.494,21.903],[108.492,21.742],[108.525,21.671],[108.502,21.633],[108.444,21.607],[108.335,21.694],[108.246,21.558],[108.146,21.564],[108.066,21.525],[107.808,21.495],[107.637,21.368],[107.412,21.285],[107.361,21.082],[107.088,21.895],[106.308,22.976]]],[[[107.397,21.104],[107.476,21.268],[107.602,21.216],[107.458,21.091],[107.397,21.104]]],[[[114.043,22.333],[113.997,22.210],[113.877,22.210],[113.838,22.241],[114.043,22.333]]],[[[112.712,21.697],[112.782,21.772],[112.862,21.752],[112.802,21.697],[112.771,21.581],[112.712,21.697]]],[[[112.525,21.623],[112.559,21.674],[112.647,21.710],[112.643,21.639],[112.525,21.623]]],[[[108.650,19.265],[108.790,19.417],[109.233,19.722],[109.232,19.753],[109.177,19.768],[109.219,19.843],[109.314,19.904],[109.509,19.903],[109.584,19.970],[109.651,19.984],[109.905,19.962],[110.078,19.992],[110.172,20.053],[110.371,20.017],[110.394,20.059],[110.571,19.987],[110.598,20.097],[110.652,20.137],[110.808,20.015],[110.888,19.991],[110.970,19.882],[111.013,19.655],[110.820,19.555],[110.641,19.292],[110.571,19.169],[110.451,18.747],[110.399,18.698],[110.251,18.655],[110.064,18.514],[110.067,18.447],[110.020,18.416],[109.814,18.395],[109.680,18.247],[109.519,18.218],[109.342,18.299],[109.029,18.367],[108.701,18.535],[108.638,18.866],[108.650,19.265]]],[[[107.417,20.914],[107.478,20.952],[107.551,21.033],[107.521,20.926],[107.417,20.914]]]]}},{"type":"Feature","properties":{"focus":true,"kind":"state","approx":true,"color":"#a07d5a","minor":true,"name":"Jingnan","name_zh":"荆南","label":[111.68,30.78],"area":4.5},"geometry":{"type":"Polygon","coordinates":[[[110.228,29.823],[110.605,32.082],[111.999,31.171],[112.717,31.191],[113.226,30.389],[112.305,29.543],[111.488,29.845],[110.657,29.651],[110.228,29.823]]]}}]}