{"type":"FeatureCollection","features":[{"type":"Feature","properties":{"name":"Japan","name_zh":"日本","focus":false,"label":[139.78,37.37],"area":36.9,"color":"#8a6f9e"},"geometry":{"type":"MultiPolygon","coordinates":[[[[130.581,31.528],[130.474,31.439],[130.404,31.229],[130.232,31.026],[130.086,31.121],[130.060,31.216],[130.205,31.426],[130.219,31.559],[130.058,31.972],[130.443,32.283],[130.496,32.557],[130.257,32.912],[130.107,32.930],[129.845,32.587],[129.733,32.637],[129.630,32.866],[129.460,32.986],[129.343,33.151],[129.528,33.297],[129.858,33.260],[130.176,33.337],[130.426,33.674],[130.859,33.675],[130.971,33.503],[131.092,33.427],[131.286,33.390],[131.568,33.486],[131.669,33.308],[131.413,33.111],[131.795,32.807],[131.830,32.693],[131.562,32.432],[131.453,32.247],[131.319,31.511],[131.210,31.352],[130.959,31.193],[130.744,30.887],[130.579,30.906],[130.554,30.969],[130.674,31.211],[130.732,31.478],[130.581,31.528]]],[[[132.121,33.347],[132.449,33.519],[132.784,33.907],[132.968,33.793],[133.245,33.800],[133.462,33.883],[133.805,34.176],[134.010,34.189],[134.540,34.012],[134.609,33.898],[134.519,33.650],[133.998,33.148],[133.726,33.376],[133.516,33.394],[133.240,33.299],[133.154,33.216],[132.969,32.765],[132.900,32.669],[132.698,32.548],[132.467,32.757],[132.342,33.106],[132.121,33.347]]],[[[137.013,37.037],[136.983,36.833],[137.045,36.668],[137.176,36.643],[137.464,36.853],[138.492,37.301],[138.698,37.448],[138.856,37.735],[139.197,37.920],[139.353,38.067],[139.439,38.188],[139.503,38.417],[139.745,38.679],[139.741,38.743],[139.896,38.998],[140.030,39.483],[140.011,39.693],[139.862,39.782],[139.804,39.890],[139.985,40.114],[139.915,40.574],[140.159,40.729],[140.386,40.985],[140.472,40.985],[140.656,40.723],[141.152,40.865],[141.076,41.102],[140.936,41.114],[140.774,41.255],[141.087,41.441],[141.436,41.269],[141.467,40.514],[141.675,40.316],[141.998,39.671],[141.998,39.448],[141.887,39.129],[141.568,38.785],[141.467,38.587],[141.496,38.421],[141.024,38.210],[140.872,37.917],[140.982,37.268],[140.963,36.956],[140.655,36.618],[140.546,36.287],[140.555,35.969],[140.834,35.677],[140.394,35.409],[140.316,35.033],[139.830,34.835],[139.788,34.962],[140.002,35.497],[139.913,35.554],[139.682,35.445],[139.422,35.165],[139.208,35.165],[139.052,35.024],[139.022,34.688],[138.863,34.567],[138.779,34.579],[138.749,34.649],[138.751,34.922],[138.683,34.992],[138.450,34.902],[138.295,34.763],[138.149,34.527],[137.759,34.552],[137.248,34.481],[137.041,34.728],[136.733,34.874],[136.616,34.759],[136.507,34.518],[136.898,34.258],[136.766,34.169],[136.393,34.111],[136.199,34.003],[135.755,33.342],[135.062,33.690],[134.969,34.134],[135.236,34.350],[135.317,34.471],[135.286,34.598],[135.205,34.617],[134.935,34.540],[134.427,34.628],[133.825,34.385],[133.589,34.442],[132.481,34.129],[132.386,34.268],[132.183,34.287],[131.997,34.090],[131.994,33.804],[131.654,33.911],[130.899,33.903],[130.779,33.966],[130.892,34.246],[131.334,34.291],[131.672,34.501],[132.662,35.380],[132.980,35.444],[133.006,35.254],[133.804,35.427],[134.755,35.531],[135.156,35.646],[135.188,35.443],[135.357,35.322],[135.727,35.450],[135.928,35.603],[135.977,35.972],[136.668,36.667],[136.640,37.170],[136.810,37.310],[137.309,37.432],[137.334,37.273],[137.013,37.037]]],[[[140.124,41.792],[140.099,41.945],[139.852,42.035],[139.777,42.112],[139.711,42.477],[139.973,42.651],[140.499,42.896],[140.516,43.057],[140.373,43.185],[140.498,43.320],[140.598,43.326],[140.896,43.134],[141.064,43.096],[141.303,43.187],[141.301,43.720],[141.709,43.914],[141.745,44.628],[141.566,44.969],[141.522,45.182],[141.597,45.279],[141.875,45.435],[143.020,44.463],[143.790,44.027],[144.613,43.842],[144.750,43.881],[145.139,44.178],[145.347,44.243],[145.059,43.785],[145.448,43.169],[144.994,42.937],[144.754,42.866],[144.590,42.859],[144.370,42.949],[144.166,42.942],[144.002,42.877],[143.508,42.420],[143.330,42.196],[143.213,41.926],[143.033,41.958],[141.928,42.501],[141.721,42.539],[141.396,42.519],[140.929,42.255],[140.860,42.390],[140.693,42.550],[140.540,42.537],[140.223,42.363],[140.245,42.228],[140.767,42.005],[141.155,41.749],[140.979,41.652],[140.588,41.677],[140.268,41.324],[140.112,41.273],[140.012,41.381],[139.977,41.503],[140.124,41.792]]]]}},{"type":"Feature","properties":{"name":"Taiwan","name_zh":"","focus":false,"label":[120.67,23.51],"area":2.9,"color":"#a07d5a"},"geometry":{"type":"Polygon","coordinates":[[[120.622,21.925],[120.113,22.641],[119.964,23.086],[119.950,23.283],[120.020,23.619],[120.856,24.809],[121.428,25.134],[121.780,24.900],[121.592,24.645],[121.572,24.226],[121.399,23.933],[121.325,23.400],[121.182,23.037],[120.781,22.344],[120.724,21.988],[120.622,21.925]]]}},{"type":"Feature","properties":{"name":"Philippines","name_zh":"吕宋","focus":false,"label":[120.59,15.69],"area":19.2,"color":"#7272a8"},"geometry":{"type":"MultiPolygon","coordinates":[[[[125.614,7.236],[125.280,6.593],[125.465,6.244],[125.532,5.939],[125.461,5.717],[125.289,5.488],[125.072,5.722],[125.163,5.907],[125.129,6.053],[124.965,6.084],[124.803,5.785],[124.224,6.089],[123.973,6.336],[123.880,6.565],[123.864,6.851],[124.073,7.258],[124.024,7.474],[123.815,7.658],[123.464,7.790],[123.333,7.771],[123.247,7.593],[123.022,7.478],[122.725,7.452],[122.713,7.674],[122.635,7.782],[122.455,7.693],[121.991,6.872],[121.839,6.967],[121.824,7.056],[122.093,7.775],[122.211,7.902],[122.384,7.985],[122.637,8.004],[122.736,8.062],[122.796,8.272],[122.888,8.342],[123.135,8.450],[123.485,8.496],[123.616,8.337],[123.662,8.013],[123.805,8.083],[124.023,8.109],[124.117,8.192],[124.210,8.446],[124.371,8.561],[124.670,8.428],[124.741,8.918],[124.872,8.924],[124.990,8.715],[125.224,8.995],[125.401,8.951],[125.460,9.053],[125.439,9.370],[125.362,9.624],[125.428,9.783],[125.933,9.174],[126.037,8.958],[126.074,8.812],[125.923,8.482],[126.029,8.380],[126.271,8.425],[126.306,8.235],[126.254,8.044],[126.279,7.733],[126.372,7.536],[126.321,7.148],[126.045,6.608],[125.954,6.652],[125.910,6.849],[125.747,7.185],[125.614,7.236]]],[[[117.378,8.895],[118.088,9.431],[118.508,9.921],[118.557,9.673],[118.504,9.482],[118.384,9.349],[117.967,9.113],[117.857,8.833],[117.710,8.712],[117.444,8.635],[117.270,8.450],[117.127,8.469],[117.378,8.895]]],[[[122.602,9.910],[122.700,10.031],[122.920,10.851],[123.117,10.934],[123.239,10.922],[123.312,10.738],[123.104,10.229],[122.962,9.594],[123.132,9.251],[123.037,9.066],[122.941,9.047],[122.395,9.478],[122.303,9.649],[122.347,9.815],[122.602,9.910]]],[[[119.108,10.627],[119.207,11.129],[119.353,11.212],[119.416,11.130],[119.344,11.002],[119.564,10.501],[118.864,10.023],[118.699,10.035],[118.756,10.169],[118.847,10.214],[118.989,10.392],[119.108,10.627]]],[[[122.470,11.454],[122.635,11.442],[122.919,11.525],[122.896,11.150],[122.706,10.940],[122.297,10.647],[121.873,10.468],[121.993,11.758],[122.210,11.580],[122.470,11.454]]],[[[124.916,11.643],[124.875,11.834],[124.330,12.208],[124.264,12.417],[124.952,12.527],[125.119,12.476],[125.246,12.292],[125.333,11.562],[125.448,11.206],[125.398,11.149],[125.323,11.123],[125.069,11.244],[124.883,11.434],[124.854,11.491],[124.916,11.643]]],[[[120.340,13.387],[121.039,13.407],[121.180,13.332],[121.304,13.129],[121.316,12.741],[121.273,12.525],[121.094,12.201],[120.733,12.549],[120.546,13.152],[120.340,13.387]]],[[[119.812,15.978],[119.681,16.187],[119.762,16.359],[120.202,16.042],[120.293,16.233],[120.246,16.874],[120.311,17.071],[120.393,18.043],[120.564,18.431],[120.800,18.552],[121.036,18.527],[121.580,18.294],[121.839,18.275],[122.049,18.447],[122.139,18.384],[122.147,18.206],[122.027,18.009],[122.007,17.793],[122.070,17.437],[122.313,17.260],[122.395,17.114],[122.203,16.542],[122.063,16.332],[121.402,15.873],[121.368,15.498],[121.242,15.307],[121.456,14.882],[121.728,14.108],[121.973,13.949],[122.106,13.918],[122.397,14.306],[122.486,14.319],[122.674,14.269],[122.776,14.174],[122.856,13.888],[122.985,13.729],[123.131,13.692],[123.359,13.952],[123.701,13.820],[123.736,13.763],[123.397,13.527],[123.818,12.975],[123.676,12.892],[123.238,13.025],[123.196,13.241],[123.093,13.380],[122.485,13.881],[122.369,13.880],[122.325,13.779],[122.491,13.430],[122.394,13.302],[122.067,13.651],[121.624,13.898],[121.486,13.891],[121.331,13.827],[121.187,13.681],[121.009,13.655],[120.598,13.921],[120.510,14.112],[120.798,14.385],[121.104,14.253],[121.285,14.342],[121.217,14.418],[120.896,14.551],[120.706,14.728],[120.471,14.804],[120.363,14.530],[119.971,14.904],[119.771,15.469],[119.812,15.978]]]]}},{"type":"Feature","properties":{"name":"Cambodia","name_zh":"柬埔寨","focus":false,"label":[105.28,10.97],"area":13.8,"color":"#a3727a"},"geometry":{"type":"Polygon","coordinates":[[[106.748,10.067],[106.656,9.743],[106.482,9.552],[106.335,9.520],[106.229,9.551],[106.118,9.335],[105.926,9.188],[105.503,9.029],[105.208,8.653],[105.025,8.519],[104.907,8.474],[104.742,8.493],[104.822,9.472],[104.890,9.694],[104.987,9.822],[104.978,9.980],[104.764,10.177],[104.427,10.284],[104.160,10.519],[104.003,10.537],[103.830,10.473],[103.606,10.473],[103.524,10.524],[103.670,10.765],[103.652,10.880],[103.524,11.057],[103.400,11.038],[103.192,10.904],[103.039,10.897],[102.962,11.367],[102.670,12.037],[103.656,12.846],[105.015,13.406],[107.480,13.256],[107.482,12.583],[106.853,10.575],[106.773,10.639],[106.704,10.448],[106.748,10.067]]]}},{"type":"Feature","properties":{"name":"Sinhalese kingdoms","name_zh":"","focus":false,"label":[80.73,7.62],"area":5.0,"color":"#9a8a4a"},"geometry":{"type":"Polygon","coordinates":[[[80.222,6.058],[80.016,6.495],[79.854,7.061],[79.832,8.103],[79.724,8.416],[79.808,8.647],[79.674,8.804],[79.705,8.930],[79.896,8.920],[80.052,9.113],[80.076,9.279],[80.178,9.445],[80.109,9.686],[80.347,9.470],[80.662,9.299],[81.093,8.626],[81.060,8.410],[81.326,8.258],[81.445,7.928],[81.804,7.313],[81.866,7.084],[81.779,6.753],[81.599,6.448],[81.202,6.079],[80.851,5.951],[80.562,5.931],[80.341,5.969],[80.222,6.058]]]}},{"type":"Feature","properties":{"name":"Aceh","name_zh":"","focus":false,"label":[95.56,5.31],"area":0.4,"color":"#7d6b5a"},"geometry":{"type":"Polygon","coordinates":[[[95.190,5.410],[95.283,5.550],[95.464,5.569],[95.627,5.525],[96.024,5.215],[96.602,5.076],[96.594,5.0],[95.293,5.0],[95.190,5.410]]]}},{"type":"Feature","properties":{"name":"Malaysian Islamic states","name_zh":"","focus":false,"label":[116.73,6.0],"area":3.7,"color":"#7272a8"},"geometry":{"type":"MultiPolygon","coordinates":[[[[114.799,5.0],[114.853,5.015],[114.849,5.0],[114.799,5.0]]],[[[96.752,5.064],[97.384,5.180],[97.561,5.0],[96.594,5.0],[96.602,5.076],[96.752,5.064]]],[[[115.291,5.453],[115.717,5.467],[115.787,5.740],[115.970,5.881],[116.098,6.097],[116.337,6.358],[116.595,6.899],[116.740,6.689],[116.889,6.645],[117.031,6.836],[117.168,6.614],[117.507,6.392],[117.540,6.240],[117.353,5.877],[117.370,5.788],[117.866,5.904],[117.918,5.802],[117.761,5.580],[118.256,5.663],[118.377,5.638],[118.997,5.277],[119.042,5.169],[118.908,5.0],[115.432,5.0],[115.417,5.111],[115.203,5.275],[115.291,5.453]]]]}},{"type":"Feature","properties":{"name":"Emirate of the White Sheep Turks","name_zh":"","focus":false,"label":[60.12,25.9],"area":0.3,"color":"#9a8a4a"},"geometry":{"type":"Polygon","coordinates":[[[60.479,25.298],[60.0,25.322],[60.0,26.472],[60.479,25.298]]]}},{"type":"Feature","properties":{"name":"Islamic states","name_zh":"","focus":false,"label":[80.45,20.9],"area":72.5,"color":"#b0805f"},"geometry":{"type":"MultiPolygon","coordinates":[[[[84.303,20.751],[81.861,18.730],[79.328,17.232],[78.867,18.269],[79.212,18.845],[78.752,19.190],[78.533,19.123],[78.572,20.438],[76.092,21.046],[76.928,23.896],[78.277,24.296],[78.950,23.959],[80.924,23.687],[82.545,23.244],[84.303,20.751]]],[[[72.789,19.883],[72.853,19.244],[72.759,20.057],[72.864,20.311],[73.109,20.687],[73.112,20.827],[72.931,20.953],[72.765,21.150],[72.665,21.848],[72.695,22.128],[72.319,22.115],[72.232,22.019],[72.127,21.828],[72.131,21.746],[72.288,21.549],[72.256,21.352],[72.120,21.155],[71.894,20.989],[71.528,20.823],[71.024,20.657],[70.855,20.650],[70.467,20.777],[70.209,20.947],[69.126,21.968],[68.894,22.285],[69.492,22.248],[69.968,22.351],[70.176,22.478],[70.410,22.752],[70.380,22.860],[73.037,24.203],[73.479,22.876],[73.713,22.945],[74.271,21.905],[73.485,19.906],[72.789,19.883]]],[[[69.107,22.898],[68.790,23.028],[68.372,23.326],[68.072,23.675],[68.046,23.764],[67.692,23.814],[67.486,23.928],[67.315,24.092],[67.204,24.588],[67.153,24.651],[66.654,24.783],[66.700,25.114],[66.620,25.317],[66.432,25.488],[66.300,25.494],[65.768,25.309],[64.424,25.173],[64.238,25.210],[64.059,25.401],[63.650,25.336],[63.403,25.164],[62.449,25.162],[61.813,25.053],[61.343,25.026],[60.858,25.095],[60.479,25.298],[60.0,26.513],[65.519,26.930],[66.993,27.741],[69.568,29.955],[70.242,31.135],[70.341,31.384],[72.816,31.057],[70.134,28.104],[69.352,26.193],[69.012,24.633],[69.107,22.898]]]]}},{"type":"Feature","properties":{"name":"Sultanate of Delhi","name_zh":"德里苏丹国","focus":false,"label":[77.88,29.49],"area":79.9,"color":"#b0805f"},"geometry":{"type":"Polygon","coordinates":[[[74.732,28.994],[74.585,30.689],[73.553,30.984],[71.489,31.205],[70.341,31.384],[72.026,35.607],[74.659,34.964],[77.977,34.873],[77.312,34.006],[77.238,33.121],[77.533,32.089],[80.053,29.981],[86.231,27.003],[85.273,24.203],[84.978,24.203],[83.135,24.792],[82.545,24.792],[82.693,24.276],[83.651,23.908],[83.725,23.687],[82.545,23.244],[80.924,23.687],[78.950,23.959],[78.277,24.296],[77.771,25.643],[76.428,27.519],[74.880,27.962],[74.732,28.994]]]}},{"type":"Feature","properties":{"name":"Bengal","name_zh":"","focus":false,"label":[87.36,23.47],"area":39.7,"color":"#4f8f86"},"geometry":{"type":"Polygon","coordinates":[[[90.0,22.560],[90.0,21.930],[89.869,22.133],[89.796,21.832],[89.670,21.719],[89.578,21.700],[89.456,21.941],[89.233,21.655],[89.072,21.774],[88.994,21.629],[89.025,21.546],[88.880,21.514],[88.723,21.539],[88.656,21.857],[88.567,21.895],[88.377,21.577],[88.299,21.551],[88.053,21.938],[87.867,21.696],[87.640,21.563],[86.937,21.288],[86.818,21.186],[86.844,20.875],[86.926,20.691],[86.637,20.319],[86.632,20.203],[86.119,19.806],[85.379,19.605],[84.684,20.212],[82.545,23.244],[83.725,23.687],[83.651,23.908],[82.693,24.276],[82.545,24.792],[83.135,24.792],[84.978,24.203],[85.273,24.203],[86.231,27.003],[88.663,26.414],[91.022,26.414],[91.546,26.285],[92.034,25.426],[91.410,22.720],[91.081,22.561],[90.0,22.560]]]}},{"type":"Feature","properties":{"name":"Ü-Tsang (Tibet)","name_zh":"乌思藏","focus":false,"label":[90.14,31.04],"area":188.9,"color":"#5f87a3"},"geometry":{"type":"Polygon","coordinates":[[[77.238,33.121],[77.312,34.006],[77.977,34.873],[82.693,34.743],[86.821,35.111],[89.916,35.185],[90.0,35.627],[89.916,35.996],[90.0,36.512],[91.685,36.364],[95.518,37.101],[101.687,36.307],[102.406,33.720],[100.681,28.690],[98.637,27.478],[98.571,27.541],[98.216,27.546],[98.118,27.685],[98.008,28.090],[97.829,28.286],[97.603,28.412],[97.478,28.392],[97.340,28.239],[97.340,28.182],[95.478,27.908],[94.837,27.567],[94.324,26.883],[92.401,26.584],[91.546,26.285],[91.022,26.414],[88.663,26.414],[86.231,27.003],[80.053,29.981],[77.533,32.089],[77.238,33.121]]]}},{"type":"Feature","properties":{"name":"Joseon","name_zh":"朝鲜","focus":false,"label":[126.67,38.04],"area":16.2,"color":"#a07d5a"},"geometry":{"type":"Polygon","coordinates":[[[128.980,37.530],[129.249,37.008],[129.235,36.245],[129.177,35.958],[129.241,35.907],[129.466,35.927],[129.412,35.742],[129.060,35.169],[128.917,35.029],[128.808,35.010],[128.552,35.105],[128.438,35.060],[128.164,34.799],[127.970,34.837],[127.840,34.938],[127.596,34.893],[127.359,34.804],[126.824,34.428],[126.616,34.409],[126.409,34.269],[126.360,34.668],[126.225,35.163],[126.300,35.367],[126.524,35.577],[126.524,35.737],[126.626,35.928],[126.436,36.131],[126.361,36.627],[125.960,36.722],[126.390,36.958],[126.685,36.838],[126.799,36.946],[126.786,37.073],[126.442,37.474],[126.391,37.614],[126.209,37.754],[125.909,37.511],[125.741,37.784],[125.561,37.835],[125.269,37.484],[125.076,37.770],[124.769,37.935],[124.693,38.139],[124.736,38.279],[124.929,38.464],[125.268,38.567],[125.293,38.688],[125.027,38.815],[125.296,39.364],[129.641,41.655],[129.590,41.469],[129.631,41.277],[129.477,40.682],[129.177,40.630],[128.446,40.065],[128.236,39.969],[127.931,39.956],[127.671,39.866],[127.440,39.623],[127.276,39.221],[127.404,39.075],[127.956,38.694],[128.451,38.255],[128.980,37.530]]]}},{"type":"Feature","properties":{"name":"Rajastan","name_zh":"","focus":false,"label":[73.26,26.86],"area":46.4,"color":"#8a6f9e"},"geometry":{"type":"Polygon","coordinates":[[[70.134,28.104],[72.816,31.057],[73.553,30.984],[74.585,30.689],[74.732,28.994],[74.880,27.962],[76.428,27.519],[77.771,25.643],[78.277,24.296],[73.479,22.876],[73.037,24.203],[70.310,22.828],[70.045,22.777],[69.664,22.789],[69.107,22.898],[69.012,24.633],[69.352,26.193],[70.134,28.104]]]}},{"type":"Feature","properties":{"name":"Orissa","name_zh":"","focus":false,"label":[83.54,19.09],"area":7.8,"color":"#4f8f86"},"geometry":{"type":"Polygon","coordinates":[[[85.113,19.442],[83.987,18.207],[83.684,18.083],[83.381,17.710],[82.546,17.226],[82.353,17.085],[82.323,17.004],[79.955,17.603],[79.328,17.232],[81.861,18.730],[84.303,20.751],[84.684,20.212],[85.379,19.605],[85.113,19.442]]]}},{"type":"Feature","properties":{"name":"Vijayanagara","name_zh":"","focus":false,"label":[77.59,12.6],"area":34.8,"color":"#8a6f9e"},"geometry":{"type":"Polygon","coordinates":[[[75.210,12.102],[74.733,13.683],[74.401,14.419],[73.841,15.390],[73.494,16.287],[74.375,16.311],[75.066,15.966],[76.103,15.966],[76.909,16.311],[77.485,16.311],[79.431,16.017],[80.459,15.773],[80.300,15.645],[80.089,15.175],[80.169,13.891],[80.075,13.669],[80.319,13.333],[80.313,13.104],[79.769,11.730],[79.710,11.444],[79.826,10.358],[79.789,10.250],[79.306,10.255],[79.222,10.192],[79.072,9.759],[78.926,9.492],[78.937,9.435],[79.159,9.277],[78.313,8.995],[78.181,8.811],[78.135,8.499],[77.899,8.257],[77.484,8.028],[77.341,8.053],[76.703,8.706],[76.537,9.118],[76.385,9.747],[76.075,10.553],[75.651,11.423],[75.210,12.102]]]}},{"type":"Feature","properties":{"name":"Arakan","name_zh":"","focus":false,"label":[92.21,22.23],"area":2.6,"color":"#8a6f9e"},"geometry":{"type":"Polygon","coordinates":[[[92.403,20.613],[92.176,20.886],[91.946,21.362],[91.845,21.908],[91.571,22.543],[91.410,22.720],[91.716,24.093],[92.880,21.902],[92.827,20.424],[92.662,20.404],[92.403,20.613]]]}},{"type":"Feature","properties":{"name":"Champa","name_zh":"林邑","focus":false,"label":[108.05,11.47],"area":2.6,"color":"#9a8a4a"},"geometry":{"type":"Polygon","coordinates":[[[109.061,11.590],[108.897,11.342],[108.695,11.145],[108.164,10.966],[107.938,10.806],[107.672,10.526],[107.412,10.367],[107.265,10.347],[107.035,10.436],[106.853,10.575],[107.384,12.354],[109.048,11.933],[109.061,11.590]]]}},{"type":"Feature","properties":{"name":"Laos","name_zh":"南掌 (老挝)","focus":false,"label":[103.0,19.02],"area":7.0,"color":"#7d6b5a"},"geometry":{"type":"Polygon","coordinates":[[[103.899,19.313],[104.812,18.721],[105.573,17.880],[104.933,17.450],[104.111,17.998],[101.646,17.998],[101.657,19.661],[101.851,20.532],[102.979,20.966],[103.358,20.053],[103.899,19.313]]]}},{"type":"Feature","properties":{"name":"Đại Việt","name_zh":"安南 (大越)","focus":false,"label":[106.79,16.84],"area":16.2,"color":"#9a8a4a"},"geometry":{"type":"Polygon","coordinates":[[[106.807,20.905],[106.746,20.815],[106.771,20.638],[106.380,20.110],[105.964,19.880],[105.843,19.702],[105.532,18.844],[106.364,18.007],[106.433,17.550],[106.622,17.328],[107.114,16.954],[107.809,16.282],[108.095,16.251],[108.236,16.080],[108.363,15.623],[108.498,15.363],[108.786,15.090],[108.917,14.792],[109.071,14.170],[109.307,12.906],[109.068,12.486],[109.090,12.118],[109.048,11.933],[107.384,12.354],[107.482,12.583],[107.457,13.065],[107.514,13.421],[107.309,13.878],[107.296,14.176],[107.463,14.996],[107.433,15.256],[107.338,15.453],[107.099,15.667],[107.067,15.794],[107.168,15.992],[107.107,16.169],[106.638,16.484],[106.426,16.718],[106.169,17.129],[105.412,18.083],[104.812,18.721],[103.899,19.313],[103.358,20.053],[102.979,20.966],[105.412,21.902],[106.234,21.696],[107.465,20.976],[107.374,20.880],[106.807,20.905]]]}},{"type":"Feature","properties":{"name":"Burmese kingdoms","name_zh":"缅甸诸国","focus":false,"label":[96.12,22.45],"area":62.1,"color":"#4f8f86"},"geometry":{"type":"Polygon","coordinates":[[[94.464,17.264],[94.420,18.140],[94.053,19.061],[93.965,19.194],[93.839,18.952],[93.457,19.174],[93.814,19.257],[93.723,19.594],[93.334,20.025],[93.065,19.992],[92.894,20.113],[92.921,20.373],[92.827,20.424],[92.880,21.902],[91.716,24.093],[92.034,25.426],[91.546,26.285],[92.401,26.584],[94.324,26.883],[94.837,27.567],[95.478,27.908],[97.340,28.182],[97.340,28.239],[97.478,28.392],[97.603,28.412],[97.829,28.286],[98.008,28.090],[98.118,27.685],[98.216,27.546],[98.571,27.541],[98.637,27.478],[98.564,24.709],[99.591,22.997],[99.841,20.481],[98.669,18.397],[95.893,17.793],[94.464,17.264]]]}},{"type":"Feature","properties":{"name":"Pegu","name_zh":"","focus":false,"label":[95.59,17.1],"area":5.5,"color":"#5f87a3"},"geometry":{"type":"Polygon","coordinates":[[[96.770,17.332],[96.734,16.887],[96.662,16.697],[96.469,16.512],[95.713,16.155],[95.552,15.875],[95.329,15.677],[95.222,15.804],[95.220,16.001],[95.124,15.995],[94.972,15.835],[94.828,15.842],[94.753,15.937],[94.819,16.210],[94.415,16.076],[94.304,15.948],[94.144,16.005],[94.143,16.215],[94.392,16.908],[94.464,17.264],[95.893,17.793],[98.669,18.397],[97.573,16.445],[97.351,16.527],[97.214,16.939],[96.881,17.345],[96.770,17.332]]]}},{"type":"Feature","properties":{"name":"Ainus","name_zh":"","focus":false,"label":[142.96,49.87],"area":9.3,"color":"#a07d5a"},"geometry":{"type":"MultiPolygon","coordinates":[[[[140.012,41.381],[139.977,41.503],[140.124,41.792],[139.977,41.503],[140.012,41.381]]],[[[140.124,41.792],[140.099,41.945],[140.099,41.945],[140.124,41.792]]],[[[140.245,42.228],[140.767,42.005],[141.019,41.870],[141.155,41.749],[140.767,42.005],[140.245,42.228]]],[[[139.973,42.651],[139.711,42.477],[139.777,42.112],[139.711,42.477],[139.973,42.651],[140.499,42.896],[139.973,42.651]]],[[[140.516,43.057],[140.499,42.896],[140.516,43.057],[140.516,43.057]]],[[[141.303,43.187],[141.064,43.096],[140.896,43.134],[140.598,43.326],[140.498,43.320],[140.373,43.185],[140.498,43.320],[140.598,43.326],[140.896,43.134],[141.064,43.096],[141.303,43.187]]],[[[141.303,43.187],[141.301,43.720],[141.709,43.914],[141.301,43.720],[141.303,43.187]]],[[[141.742,44.248],[141.742,44.248],[141.709,43.914],[141.742,44.248]]],[[[141.745,44.628],[141.745,44.628],[141.742,44.248],[141.745,44.628]]],[[[142.539,44.842],[142.132,45.209],[142.132,45.209],[142.539,44.842]]],[[[141.566,44.969],[141.522,45.182],[141.597,45.279],[141.875,45.435],[141.903,45.403],[141.875,45.435],[141.597,45.279],[141.522,45.182],[141.566,44.969]]],[[[141.903,45.403],[142.132,45.209],[141.903,45.403],[141.903,45.403]]],[[[145.448,43.169],[145.359,43.329],[145.359,43.329],[145.448,43.169]]],[[[145.359,43.329],[145.148,43.599],[145.148,43.599],[145.359,43.329]]],[[[146.076,43.513],[146.226,43.525],[146.124,43.459],[146.076,43.513]]],[[[145.059,43.785],[145.059,43.785],[145.148,43.599],[145.059,43.785]]],[[[146.655,43.704],[146.596,43.736],[146.604,43.803],[146.842,43.874],[146.904,43.839],[146.655,43.704]]],[[[146.539,44.380],[146.119,44.251],[145.940,44.128],[145.779,43.928],[145.595,43.858],[145.554,43.650],[145.437,43.716],[145.409,43.835],[145.744,44.051],[146.127,44.507],[146.344,44.421],[146.568,44.438],[146.539,44.380]]],[[[145.139,44.178],[145.347,44.243],[145.139,44.178],[144.750,43.881],[144.613,43.842],[144.486,43.861],[144.028,43.950],[143.790,44.027],[143.508,44.155],[143.020,44.463],[143.790,44.027],[144.613,43.842],[144.750,43.881],[145.139,44.178]]],[[[143.020,44.463],[142.539,44.842],[142.539,44.842],[143.020,44.463]]],[[[148.582,45.316],[147.877,44.974],[147.762,44.938],[147.620,44.966],[147.585,44.918],[147.622,44.897],[147.548,44.812],[147.291,44.666],[147.209,44.550],[147.021,44.507],[146.948,44.408],[146.840,44.415],[146.846,44.476],[147.153,44.673],[147.111,44.793],[147.479,44.974],[147.504,45.043],[147.656,45.075],[147.763,45.189],[147.894,45.223],[147.856,45.356],[147.932,45.421],[148.000,45.273],[148.069,45.248],[148.321,45.270],[148.700,45.520],[148.856,45.474],[148.825,45.334],[148.582,45.316]]],[[[149.437,45.583],[149.667,45.850],[149.856,45.923],[150.0,46.045],[150.0,45.831],[149.684,45.633],[149.437,45.583]]],[[[143.633,50.234],[144.038,49.508],[144.539,48.753],[143.598,49.233],[143.152,49.258],[142.853,49.127],[142.646,48.657],[142.489,47.901],[142.614,47.459],[142.993,46.953],[143.236,46.863],[143.444,46.571],[143.303,46.011],[143.004,46.577],[142.614,46.712],[142.513,46.699],[142.327,46.563],[141.898,45.914],[141.708,46.139],[141.622,46.558],[141.909,47.073],[141.731,47.471],[141.810,47.675],[142.036,47.959],[141.977,48.284],[141.739,48.807],[141.921,48.943],[142.049,49.354],[142.152,50.890],[142.112,51.219],[142.016,51.430],[141.643,51.813],[141.598,52.216],[141.811,52.628],[141.840,52.960],[141.689,53.165],[141.767,53.272],[142.214,53.299],[142.674,53.540],[143.056,53.061],[143.138,52.856],[143.143,52.511],[143.033,52.312],[142.944,51.961],[142.943,51.617],[143.074,51.267],[143.340,50.885],[143.633,50.234]]]]}},{"type":"Feature","properties":{"name":"Chagatai Khanate","name_zh":"察合台汗国","focus":false,"label":[82.8,43.02],"area":492.1,"approx":true,"color":"#b0805f"},"geometry":{"type":"MultiPolygon","coordinates":[[[[95.592,38.944],[95.150,37.691],[95.518,37.101],[91.685,36.364],[90.0,36.512],[89.916,35.996],[90.0,35.627],[89.916,35.185],[86.821,35.111],[82.693,34.743],[74.659,34.964],[71.342,35.775],[68.578,37.128],[65.077,39.534],[64.531,40.153],[74.065,45.542],[77.181,46.782],[85.515,48.410],[87.774,49.282],[87.206,49.606],[96.0,54.002],[96.0,40.5],[111.132,40.5],[102.926,39.018],[95.592,38.944]]],[[[137.040,53.862],[137.382,53.809],[137.121,53.589],[137.071,53.489],[137.979,53.464],[138.234,53.571],[138.409,53.805],[138.416,54.091],[139.378,54.080],[139.805,53.961],[140.102,53.801],[140.321,53.535],[141.121,53.051],[141.089,52.985],[140.828,52.825],[141.031,52.726],[141.090,52.586],[140.939,52.261],[141.160,52.209],[141.257,52.103],[141.126,51.871],[140.730,51.441],[140.404,50.827],[140.323,50.517],[140.456,50.103],[140.328,49.357],[140.081,48.502],[139.213,47.810],[139.046,47.615],[138.949,47.322],[138.351,46.873],[137.984,46.269],[137.720,45.996],[136.494,44.966],[136.033,44.398],[135.414,44.036],[134.962,43.515],[134.568,43.212],[134.138,42.992],[132.952,42.669],[132.827,42.861],[132.484,42.880],[132.333,42.963],[132.181,43.194],[131.674,43.026],[131.865,43.290],[130.617,43.162],[131.0,45.0],[130.0,45.666],[130.0,54.469],[136.487,53.654],[136.770,53.695],[137.040,53.862]]],[[[99.994,56.0],[102.585,57.295],[109.076,57.598],[118.109,56.893],[121.873,56.0],[99.994,56.0]]]]}},{"type":"Feature","properties":{"name":"Oirat Confederation","name_zh":"瓦剌","focus":false,"label":[87.5,52.0],"area":100.3,"color":"#b0805f"},"geometry":{"type":"Polygon","coordinates":[[[78.804,54.393],[79.300,54.399],[82.536,57.080],[80.013,58.0],[86.227,58.0],[93.975,56.893],[102.585,57.295],[87.206,49.606],[78.804,54.393]]]}},{"type":"Feature","properties":{"name":"Timurid Emirates","name_zh":"帖木儿","focus":false,"label":[64.98,36.45],"area":155.2,"color":"#a07d5a"},"geometry":{"type":"Polygon","coordinates":[[[65.519,26.930],[60.0,26.513],[60.0,43.621],[60.076,43.608],[60.943,44.441],[61.109,44.716],[61.727,44.933],[61.861,45.048],[61.174,45.187],[61.020,45.487],[61.040,45.738],[60.998,45.921],[61.034,46.014],[60.998,46.077],[61.119,46.103],[61.271,46.255],[66.666,44.426],[68.227,42.242],[64.531,40.153],[65.077,39.534],[68.578,37.128],[71.342,35.775],[72.026,35.607],[70.242,31.135],[69.568,29.955],[66.993,27.741],[65.519,26.930]]]}},{"type":"Feature","properties":{"name":"Bidar","name_zh":"","focus":false,"label":[77.75,18.09],"area":2.4,"color":"#a07d5a"},"geometry":{"type":"Polygon","coordinates":[[[77.071,17.361],[77.387,18.770],[78.173,19.012],[78.321,17.415],[77.997,16.465],[77.173,16.658],[77.071,17.361]]]}},{"type":"Feature","properties":{"name":"Bijapur","name_zh":"","focus":false,"label":[76.0,17.93],"area":7.5,"color":"#7272a8"},"geometry":{"type":"Polygon","coordinates":[[[77.997,16.465],[77.922,16.245],[77.485,16.311],[76.909,16.311],[76.103,15.966],[75.066,15.966],[74.375,16.311],[73.494,16.287],[73.395,16.616],[75.412,18.499],[77.387,18.770],[77.071,17.361],[77.173,16.658],[77.997,16.465]]]}},{"type":"Feature","properties":{"name":"Ahmadnagar","name_zh":"","focus":false,"label":[76.08,20.17],"area":20.1,"color":"#9a8a4a"},"geometry":{"type":"Polygon","coordinates":[[[78.572,20.438],[78.533,19.123],[77.255,18.730],[75.412,18.499],[73.395,16.616],[73.064,18.031],[72.853,19.244],[72.789,19.883],[73.485,19.906],[74.271,21.905],[73.713,22.945],[76.928,23.896],[76.092,21.046],[78.572,20.438]]]}},{"type":"Feature","properties":{"name":"Golkonda","name_zh":"","focus":false,"label":[78.76,17.51],"area":6.7,"color":"#4f8f86"},"geometry":{"type":"Polygon","coordinates":[[[82.234,16.647],[82.081,16.462],[81.788,16.328],[81.596,16.302],[81.369,16.346],[81.253,16.225],[81.087,15.826],[80.963,15.723],[80.735,15.837],[80.459,15.773],[79.431,16.017],[77.922,16.245],[78.321,17.415],[78.173,19.012],[78.752,19.190],[79.212,18.845],[78.867,18.269],[79.328,17.232],[79.955,17.603],[82.323,17.004],[82.234,16.647]]]}},{"type":"Feature","properties":{"name":"Ayutthaya","name_zh":"暹罗","focus":false,"label":[102.24,12.79],"area":60.8,"color":"#a3727a"},"geometry":{"type":"Polygon","coordinates":[[[100.244,20.383],[100.430,20.226],[100.435,20.035],[101.657,19.661],[101.646,17.998],[104.111,17.998],[104.933,17.450],[105.573,17.880],[106.169,17.129],[106.426,16.718],[106.638,16.484],[107.107,16.169],[107.168,15.992],[107.067,15.794],[107.099,15.667],[107.338,15.453],[107.433,15.256],[107.463,14.996],[107.296,14.176],[107.309,13.878],[107.514,13.421],[107.480,13.256],[105.015,13.406],[103.656,12.846],[102.670,12.037],[102.529,12.148],[102.323,12.186],[101.918,12.585],[101.586,12.661],[101.329,12.558],[101.023,12.672],[100.871,12.678],[100.956,13.364],[100.908,13.447],[100.473,13.509],[100.239,13.490],[100.040,13.394],[99.930,13.261],[100.023,12.994],[99.833,12.523],[99.895,12.079],[99.186,10.489],[99.071,9.898],[99.118,9.371],[99.298,9.161],[99.724,9.257],[99.837,9.226],[99.898,9.067],[99.865,8.711],[100.009,8.490],[100.131,8.532],[100.301,7.886],[100.344,7.440],[100.539,7.048],[100.614,6.978],[100.975,6.852],[101.217,6.802],[101.427,6.828],[101.559,6.739],[101.679,6.464],[102.089,6.143],[102.325,6.099],[102.802,5.560],[103.212,5.0],[100.393,5.0],[100.139,6.177],[100.221,6.520],[100.154,6.603],[99.969,6.507],[99.833,6.538],[99.662,6.710],[99.610,6.938],[99.639,7.065],[99.571,7.262],[99.468,7.338],[99.293,7.319],[99.024,7.871],[98.544,8.264],[98.292,8.155],[98.195,8.327],[98.177,8.600],[98.250,8.937],[98.632,10.100],[98.431,10.201],[98.397,10.563],[98.605,10.862],[98.738,11.435],[98.867,11.645],[98.590,11.695],[98.588,11.822],[98.676,12.051],[98.596,12.737],[98.485,13.111],[98.198,13.644],[97.822,14.616],[97.573,16.445],[99.841,20.481],[99.965,20.420],[100.001,20.458],[100.244,20.383]]]}},{"type":"Feature","properties":{"name":"Siberians","name_zh":"","focus":false,"label":[129.82,55.79],"area":80.7,"color":"#b0805f"},"geometry":{"type":"Polygon","coordinates":[[[139.293,57.336],[138.345,56.804],[137.229,55.982],[136.521,55.589],[135.269,55.028],[134.985,54.853],[134.893,54.719],[134.902,54.559],[135.094,54.432],[135.725,54.407],[136.196,54.474],[136.491,54.455],[136.343,53.887],[136.350,53.701],[136.487,53.654],[126.436,54.917],[118.109,56.893],[109.076,57.598],[93.975,56.893],[86.227,58.0],[140.347,58.0],[140.028,57.644],[139.293,57.336]]]}},{"type":"Feature","properties":{"name":"White Horde","name_zh":"白帐汗国","focus":false,"label":[71.69,51.78],"area":227.9,"color":"#6f9460"},"geometry":{"type":"MultiPolygon","coordinates":[[[[60.211,46.287],[60.822,46.243],[60.824,46.213],[60.785,46.151],[60.605,46.126],[60.478,46.204],[60.300,46.163],[60.0,46.210],[60.0,46.497],[60.211,46.287]]],[[[68.591,54.282],[78.804,54.393],[87.774,49.282],[85.515,48.410],[77.181,46.782],[74.065,45.542],[68.227,42.242],[66.666,44.426],[61.271,46.255],[61.654,46.768],[61.465,46.766],[61.249,46.611],[60.938,46.489],[60.799,46.568],[60.783,46.632],[60.858,46.697],[60.842,46.773],[60.657,46.821],[60.503,46.805],[60.523,46.727],[60.728,46.676],[60.725,46.625],[60.604,46.578],[60.501,46.611],[60.429,46.528],[60.270,46.699],[60.073,46.618],[60.0,46.514],[60.0,58.0],[64.393,58.0],[64.227,57.661],[64.678,55.973],[68.591,54.282]]]]}},{"type":"Feature","properties":{"name":"Khanate of Sibir","name_zh":"西伯利亚汗国","focus":false,"label":[73.2,56.53],"area":57.1,"color":"#a07d5a"},"geometry":{"type":"Polygon","coordinates":[[[79.300,54.399],[68.591,54.282],[64.678,55.973],[64.227,57.661],[64.393,58.0],[80.013,58.0],[82.536,57.080],[79.300,54.399]]]}},{"type":"Feature","properties":{"name":"Mongols (Northern Yuan)","name_zh":"北元 · 鞑靼","focus":false,"label":[113.0,50.5],"area":465.0,"approx":true,"color":"#5f87a3"},"geometry":{"type":"Polygon","coordinates":[[[130.0,54.469],[130.0,45.666],[128.0,47.0],[124.5,46.2],[123.5,43.5],[122.943,42.372],[119.604,42.029],[111.132,40.5],[96.0,40.5],[96.0,54.002],[99.994,56.0],[121.873,56.0],[126.436,54.917],[130.0,54.469]]]}},{"type":"Feature","properties":{"name":"Qing (Later Jin)","name_zh":"大清 (后金)","focus":false,"label":[126.94,43.05],"area":40.3,"approx":true,"color":"#7272a8"},"geometry":{"type":"Polygon","coordinates":[[[122.6,41.6],[123.5,43.5],[124.5,46.2],[128.0,47.0],[131.0,45.0],[130.5,42.6],[128.0,41.8],[125.5,40.6],[124.0,40.7],[124.3,39.9],[122.3,39.0],[121.2,39.0],[121.8,40.8],[122.8,42.3],[122.6,41.6]]]}},{"type":"Feature","properties":{"name":"Ming","name_zh":"明","focus":true,"label":[111.54,31.1],"area":383.1},"geometry":{"type":"MultiPolygon","coordinates":[[[[114.022,22.228],[113.836,22.213],[113.901,22.290],[114.046,22.340],[114.022,22.228]]],[[[114.413,22.436],[114.263,22.204],[114.207,22.221],[114.133,22.171],[114.098,22.216],[114.144,22.331],[113.925,22.367],[113.901,22.406],[114.166,22.560],[114.309,22.553],[114.413,22.436]]],[[[95.592,38.944],[102.926,39.018],[119.604,42.029],[122.943,42.372],[122.6,41.6],[122.8,42.3],[121.773,40.721],[121.426,40.864],[121.010,40.850],[120.788,40.683],[120.272,40.151],[120.112,40.081],[119.823,40.042],[119.385,39.843],[119.210,39.639],[119.090,39.339],[118.977,39.224],[118.781,39.166],[118.559,39.172],[118.274,38.999],[118.069,39.254],[117.910,39.260],[117.752,39.202],[117.439,38.602],[117.589,38.284],[117.840,38.163],[118.200,38.043],[118.744,38.063],[118.875,37.949],[118.811,37.446],[118.837,37.204],[118.954,37.077],[119.284,37.045],[119.598,37.116],[119.940,37.352],[120.169,37.576],[120.658,37.736],[120.787,37.704],[121.189,37.425],[121.434,37.336],[121.894,37.375],[122.392,37.300],[122.281,36.982],[122.255,36.733],[121.846,36.860],[121.609,36.834],[120.855,36.584],[120.537,36.386],[120.504,36.055],[120.269,35.985],[120.139,36.194],[119.913,36.143],[119.975,35.933],[119.907,35.768],[119.060,35.041],[119.003,34.939],[119.020,34.691],[119.299,34.590],[119.973,34.135],[120.149,33.894],[120.340,33.336],[120.640,33.044],[120.719,32.847],[120.660,32.543],[120.738,32.460],[121.050,32.328],[121.230,32.061],[121.483,31.948],[121.605,31.827],[121.623,31.618],[121.268,31.452],[121.498,31.281],[121.640,30.926],[121.631,30.792],[121.568,30.710],[121.328,30.690],[121.035,30.594],[120.608,30.346],[120.226,30.250],[119.943,30.116],[120.437,29.996],[120.862,30.187],[121.082,30.213],[121.155,30.188],[121.391,29.922],[121.565,29.846],[121.770,29.834],[121.774,29.764],[121.670,29.624],[121.361,29.414],[121.411,29.344],[121.649,29.319],[121.432,28.836],[121.345,28.544],[121.358,28.385],[121.259,28.182],[121.165,28.124],[121.008,28.276],[120.942,28.213],[120.505,27.590],[120.351,27.177],[120.084,26.985],[119.971,26.788],[119.857,26.706],[119.600,26.692],[119.428,26.590],[119.554,26.267],[119.436,26.038],[119.470,25.771],[119.428,25.650],[119.335,25.530],[119.095,25.440],[118.812,24.849],[118.531,24.690],[118.345,24.467],[117.924,24.561],[117.796,24.421],[117.849,24.047],[117.405,23.690],[116.962,23.556],[116.709,23.346],[116.452,23.250],[116.403,23.199],[116.400,22.983],[116.340,22.913],[115.860,22.836],[115.706,22.638],[115.308,22.771],[115.185,22.745],[115.043,22.599],[114.847,22.510],[114.558,22.464],[114.537,22.674],[113.989,22.552],[113.845,22.463],[113.716,22.482],[113.462,22.773],[113.376,22.646],[113.419,22.570],[113.377,22.163],[113.283,22.030],[113.096,21.979],[112.871,22.061],[112.815,21.826],[112.749,21.756],[112.039,21.659],[111.831,21.754],[111.733,21.709],[111.536,21.493],[111.434,21.461],[111.085,21.479],[110.749,21.377],[110.566,21.230],[110.238,21.280],[110.202,21.096],[110.072,20.918],[110.293,20.582],[110.414,20.525],[110.433,20.436],[110.271,20.315],[109.928,20.244],[109.711,20.568],[109.602,20.879],[109.608,21.057],[109.786,21.406],[109.779,21.482],[109.516,21.596],[109.414,21.564],[109.321,21.431],[109.117,21.399],[108.813,21.493],[108.554,21.823],[108.466,21.785],[108.387,21.530],[108.265,21.473],[107.900,21.479],[107.417,21.185],[107.465,20.976],[106.234,21.696],[105.412,21.902],[101.851,20.532],[101.657,19.661],[100.435,20.035],[100.430,20.226],[100.377,20.302],[100.244,20.383],[100.001,20.458],[99.965,20.420],[99.841,20.481],[99.591,22.997],[98.564,24.709],[98.637,27.478],[100.681,28.690],[102.406,33.720],[101.687,36.307],[95.518,37.101],[95.150,37.691],[95.592,38.944]]],[[[121.065,38.750],[121.123,38.865],[121.294,39.0],[121.635,39.0],[121.488,38.878],[121.216,38.756],[121.065,38.750]]],[[[121.439,39.717],[121.319,39.357],[121.282,39.349],[121.213,39.483],[121.239,39.553],[121.439,39.717]]],[[[131.064,42.749],[129.824,41.861],[129.641,41.655],[125.296,39.364],[125.206,39.485],[124.922,39.618],[124.688,39.605],[124.548,39.541],[124.442,39.573],[124.143,39.829],[124.3,39.9],[124.0,40.7],[125.5,40.6],[128.0,41.8],[130.5,42.6],[130.617,43.162],[131.865,43.290],[131.584,43.212],[131.064,42.749]]]]}}]}