{"type":"FeatureCollection","features":[{"type":"Feature","properties":{"name":"Simhala","name_zh":"","focus":false,"label":[80.73,7.62],"area":5.0,"color":"#6f9460"},"geometry":{"type":"Polygon","coordinates":[[[80.341,5.969],[80.222,6.058],[80.127,6.216],[79.854,7.061],[79.832,8.103],[79.724,8.416],[79.808,8.647],[79.674,8.804],[79.705,8.930],[79.896,8.920],[80.052,9.113],[80.076,9.279],[80.178,9.445],[80.109,9.686],[80.347,9.470],[80.662,9.299],[81.093,8.626],[81.060,8.410],[81.326,8.258],[81.445,7.928],[81.804,7.313],[81.866,7.084],[81.779,6.753],[81.599,6.448],[81.202,6.079],[80.851,5.951],[80.341,5.969]]]}},{"type":"Feature","properties":{"name":"Paekche","name_zh":"百济","focus":false,"label":[127.3,36.03],"area":4.3,"color":"#7d6b5a"},"geometry":{"type":"Polygon","coordinates":[[[127.970,34.837],[127.840,34.938],[127.596,34.893],[127.359,34.804],[126.824,34.428],[126.616,34.409],[126.409,34.269],[126.360,34.668],[126.225,35.163],[126.300,35.367],[126.524,35.577],[126.524,35.737],[126.626,35.928],[126.436,36.131],[126.361,36.627],[125.960,36.722],[126.390,36.958],[126.685,36.838],[126.799,36.946],[126.786,37.073],[126.442,37.474],[126.391,37.614],[127.670,37.209],[128.041,36.560],[128.164,34.799],[127.970,34.837]]]}},{"type":"Feature","properties":{"name":"Silla","name_zh":"新罗","focus":false,"label":[128.58,36.78],"area":7.7,"color":"#5f87a3"},"geometry":{"type":"Polygon","coordinates":[[[127.956,38.694],[128.451,38.255],[129.129,37.307],[129.249,37.008],[129.235,36.245],[129.177,35.958],[129.241,35.907],[129.466,35.927],[129.285,35.507],[128.917,35.029],[128.808,35.010],[128.552,35.105],[128.438,35.060],[128.164,34.799],[128.041,36.560],[127.670,37.209],[126.391,37.614],[126.209,37.754],[125.909,37.511],[125.741,37.784],[125.561,37.835],[125.269,37.484],[125.076,37.770],[124.769,37.935],[124.693,38.139],[124.736,38.279],[124.929,38.464],[125.268,38.567],[125.293,38.688],[127.404,39.075],[127.956,38.694]]]}},{"type":"Feature","properties":{"name":"Champa","name_zh":"林邑","focus":false,"label":[108.42,13.33],"area":7.8,"color":"#9a8a4a"},"geometry":{"type":"Polygon","coordinates":[[[107.636,13.743],[107.268,15.118],[107.692,16.371],[107.809,16.282],[108.095,16.251],[108.236,16.080],[108.363,15.623],[108.498,15.363],[108.786,15.090],[108.917,14.792],[109.071,14.170],[109.307,12.906],[109.068,12.486],[109.073,11.635],[108.897,11.342],[108.695,11.145],[108.164,10.966],[107.938,10.806],[107.672,10.526],[107.412,10.367],[107.265,10.347],[107.100,10.411],[107.517,11.759],[107.636,13.743]]]}},{"type":"Feature","properties":{"name":"Yamato","name_zh":"倭","focus":false,"label":[134.35,34.82],"area":11.6,"color":"#7d6b5a"},"geometry":{"type":"MultiPolygon","coordinates":[[[[130.554,30.969],[130.674,31.211],[130.732,31.478],[130.581,31.528],[130.474,31.439],[130.404,31.229],[130.232,31.026],[130.086,31.121],[130.060,31.216],[130.205,31.426],[130.219,31.559],[130.058,31.972],[130.443,32.283],[130.496,32.557],[130.257,32.912],[130.107,32.930],[129.845,32.587],[129.733,32.637],[129.630,32.866],[129.460,32.986],[129.343,33.151],[129.528,33.297],[129.858,33.260],[130.176,33.337],[130.426,33.674],[130.644,33.700],[130.859,33.675],[130.971,33.503],[131.092,33.427],[131.286,33.390],[131.568,33.486],[131.669,33.308],[131.413,33.111],[131.795,32.807],[131.830,32.693],[131.562,32.432],[131.453,32.247],[131.319,31.511],[131.210,31.352],[130.959,31.193],[130.744,30.887],[130.579,30.906],[130.554,30.969]]],[[[132.467,32.757],[132.342,33.106],[132.121,33.347],[132.449,33.519],[132.784,33.907],[132.968,33.793],[133.245,33.800],[133.462,33.883],[133.805,34.176],[134.010,34.189],[134.540,34.012],[134.609,33.898],[134.519,33.650],[133.998,33.148],[133.726,33.376],[133.516,33.394],[133.240,33.299],[133.154,33.216],[132.969,32.765],[132.900,32.669],[132.698,32.548],[132.467,32.757]]],[[[136.507,34.518],[136.898,34.258],[136.766,34.169],[136.393,34.111],[136.199,34.003],[135.755,33.342],[135.062,33.690],[134.969,34.134],[135.236,34.350],[135.317,34.471],[135.286,34.598],[135.205,34.617],[134.935,34.540],[134.427,34.628],[133.825,34.385],[133.589,34.442],[132.481,34.129],[132.386,34.268],[132.183,34.287],[131.997,34.090],[131.994,33.804],[131.654,33.911],[130.899,33.903],[130.779,33.966],[130.892,34.246],[131.334,34.291],[131.672,34.501],[132.662,35.380],[132.980,35.444],[133.006,35.254],[133.804,35.427],[134.755,35.531],[135.156,35.646],[135.188,35.443],[135.357,35.322],[135.727,35.450],[135.928,35.603],[135.977,35.972],[136.187,36.202],[136.733,34.874],[136.616,34.759],[136.507,34.518]]]]}},{"type":"Feature","properties":{"name":"Koguryo","name_zh":"高句丽","focus":false,"label":[126.97,40.98],"area":16.0,"color":"#a07d5a"},"geometry":{"type":"Polygon","coordinates":[[[129.590,41.469],[129.631,41.277],[129.477,40.682],[129.177,40.630],[128.446,40.065],[128.236,39.969],[127.931,39.956],[127.671,39.866],[127.440,39.623],[127.276,39.221],[127.404,39.075],[125.293,38.688],[125.027,38.815],[125.296,39.364],[125.206,39.485],[124.922,39.618],[124.688,39.605],[124.548,39.541],[124.442,39.573],[124.208,39.738],[124.110,39.875],[124.702,42.310],[127.299,43.238],[129.641,41.655],[129.590,41.469]]]}},{"type":"Feature","properties":{"name":"Kushan Principalities","name_zh":"贵霜","focus":false,"label":[73.47,34.17],"area":21.9,"color":"#a07d5a"},"geometry":{"type":"Polygon","coordinates":[[[74.201,37.488],[75.653,37.356],[77.215,36.282],[76.577,35.377],[76.003,34.684],[75.591,33.652],[70.287,31.287],[71.627,35.838],[74.201,37.488]]]}},{"type":"Feature","properties":{"name":"Sasanian Empire","name_zh":"萨珊","focus":false,"label":[65.48,33.56],"area":127.2,"color":"#9a8a4a"},"geometry":{"type":"Polygon","coordinates":[[[66.432,25.488],[66.300,25.494],[65.768,25.309],[64.851,25.205],[64.424,25.173],[64.238,25.210],[64.059,25.401],[63.650,25.336],[63.403,25.164],[62.449,25.162],[61.813,25.053],[61.343,25.026],[60.858,25.095],[60.479,25.298],[60.0,25.322],[60.0,39.038],[62.698,39.992],[65.017,38.508],[66.779,38.044],[67.057,37.116],[67.668,37.158],[67.998,36.894],[68.591,37.158],[69.647,37.092],[69.647,37.554],[70.373,37.554],[70.505,38.148],[70.703,38.214],[71.231,38.214],[71.429,37.752],[71.429,37.026],[71.627,35.838],[70.287,31.287],[67.387,28.226],[66.432,25.488]]]}},{"type":"Feature","properties":{"name":"Gupta Empire","name_zh":"笈多王朝","focus":false,"label":[80.09,23.48],"area":218.8,"color":"#4f8f86"},"geometry":{"type":"Polygon","coordinates":[[[80.089,22.091],[79.439,22.184],[76.777,21.835],[74.921,22.145],[72.931,20.953],[72.765,21.150],[72.665,21.848],[72.695,22.128],[72.319,22.115],[72.127,21.828],[72.131,21.746],[72.288,21.549],[72.256,21.352],[72.120,21.155],[71.894,20.989],[71.024,20.657],[70.855,20.650],[70.467,20.777],[70.209,20.947],[69.126,21.968],[68.894,22.285],[69.492,22.248],[69.968,22.351],[70.176,22.478],[70.410,22.752],[70.380,22.860],[70.045,22.777],[69.664,22.789],[69.107,22.898],[68.790,23.028],[68.372,23.326],[68.072,23.675],[68.046,23.764],[67.692,23.814],[67.486,23.928],[67.315,24.092],[67.204,24.588],[67.153,24.651],[66.654,24.783],[66.700,25.114],[66.620,25.317],[66.432,25.488],[67.387,28.226],[70.287,31.287],[75.591,33.652],[76.003,34.684],[78.761,30.791],[83.605,26.916],[86.511,25.872],[88.001,25.872],[91.578,26.916],[92.628,27.094],[93.909,26.821],[94.465,26.450],[94.497,26.191],[94.186,25.723],[91.429,24.904],[90.0,24.308],[91.876,23.637],[92.472,22.296],[92.921,20.373],[92.827,20.424],[92.662,20.404],[92.403,20.613],[92.176,20.886],[91.946,21.362],[91.845,21.908],[91.571,22.543],[91.410,22.720],[91.081,22.561],[90.0,22.560],[90.0,21.930],[89.869,22.133],[89.796,21.832],[89.670,21.719],[89.578,21.700],[89.456,21.941],[89.233,21.655],[89.072,21.774],[88.994,21.629],[89.025,21.546],[88.723,21.539],[88.656,21.857],[88.567,21.895],[88.377,21.577],[88.299,21.551],[88.053,21.938],[87.867,21.696],[87.640,21.563],[86.937,21.288],[86.796,21.135],[86.926,20.691],[86.637,20.319],[86.632,20.203],[86.119,19.806],[85.379,19.605],[85.113,19.442],[84.262,18.455],[83.987,18.207],[83.684,18.083],[83.381,17.710],[82.353,17.085],[82.234,16.647],[82.081,16.462],[81.788,16.328],[81.596,16.302],[81.369,16.346],[81.253,16.225],[81.087,15.826],[80.963,15.723],[80.735,15.837],[80.459,15.773],[80.300,15.645],[80.089,15.175],[80.169,13.891],[80.075,13.669],[80.319,13.333],[80.313,13.104],[79.922,12.106],[79.561,13.483],[79.458,14.926],[79.664,15.855],[80.180,16.679],[80.180,17.711],[79.870,18.329],[79.870,19.670],[80.194,20.831],[80.089,22.091]]]}},{"type":"Feature","properties":{"name":"Vakataka","name_zh":"","focus":false,"label":[76.39,19.0],"area":46.7,"color":"#a3727a"},"geometry":{"type":"Polygon","coordinates":[[[74.921,22.145],[76.777,21.835],[79.439,22.184],[80.089,22.091],[80.194,20.831],[79.870,19.670],[79.870,18.329],[80.180,17.711],[80.180,16.679],[79.664,15.855],[79.579,15.472],[78.324,15.133],[76.674,14.926],[74.153,14.849],[73.841,15.390],[73.409,16.558],[73.064,18.031],[72.759,20.057],[72.864,20.311],[73.109,20.687],[73.112,20.827],[72.931,20.953],[74.921,22.145]]]}},{"type":"Feature","properties":{"name":"Pandyas","name_zh":"","focus":false,"label":[77.49,8.55],"area":1.1,"color":"#8a6f9e"},"geometry":{"type":"Polygon","coordinates":[[[77.599,9.131],[78.241,8.895],[78.064,8.385],[77.899,8.257],[77.419,8.028],[77.341,8.053],[76.703,8.706],[76.652,8.902],[77.599,9.131]]]}},{"type":"Feature","properties":{"name":"Ainu","name_zh":"","focus":false,"label":[143.26,43.52],"area":18.1,"color":"#7272a8"},"geometry":{"type":"MultiPolygon","coordinates":[[[[140.099,41.945],[139.852,42.035],[139.777,42.112],[139.711,42.477],[139.973,42.651],[140.499,42.896],[140.516,43.057],[140.373,43.185],[140.498,43.320],[140.598,43.326],[140.896,43.134],[141.064,43.096],[141.303,43.187],[141.301,43.720],[141.709,43.914],[141.745,44.628],[141.566,44.969],[141.522,45.182],[141.597,45.279],[141.875,45.435],[143.020,44.463],[143.790,44.027],[144.613,43.842],[144.750,43.881],[145.139,44.178],[145.347,44.243],[145.059,43.785],[145.448,43.169],[144.994,42.937],[144.754,42.866],[144.590,42.859],[144.370,42.949],[144.166,42.942],[144.002,42.877],[143.508,42.420],[143.330,42.196],[143.213,41.926],[143.033,41.958],[141.928,42.501],[141.721,42.539],[141.396,42.519],[140.929,42.255],[140.860,42.390],[140.693,42.550],[140.540,42.537],[140.223,42.363],[140.245,42.228],[140.767,42.005],[141.155,41.749],[140.979,41.652],[140.588,41.677],[140.268,41.324],[140.112,41.273],[140.012,41.381],[139.977,41.503],[140.124,41.792],[140.099,41.945]]],[[[146.124,43.459],[146.080,43.518],[146.226,43.525],[146.205,43.481],[146.124,43.459]]],[[[146.904,43.839],[146.655,43.704],[146.598,43.732],[146.599,43.793],[146.842,43.874],[146.904,43.839]]],[[[146.344,44.421],[146.568,44.438],[146.508,44.358],[146.102,44.243],[145.930,44.119],[145.779,43.928],[145.595,43.858],[145.554,43.650],[145.437,43.716],[145.409,43.835],[145.744,44.051],[146.127,44.507],[146.344,44.421]]],[[[148.582,45.316],[148.265,45.213],[147.868,44.971],[147.762,44.938],[147.620,44.966],[147.585,44.918],[147.622,44.897],[147.548,44.812],[147.291,44.666],[147.209,44.550],[147.021,44.507],[146.948,44.408],[146.840,44.415],[146.846,44.476],[147.153,44.673],[147.111,44.793],[147.479,44.974],[147.504,45.043],[147.656,45.075],[147.763,45.189],[147.894,45.223],[147.856,45.356],[147.932,45.421],[148.000,45.273],[148.069,45.248],[148.321,45.270],[148.700,45.520],[148.856,45.474],[148.825,45.334],[148.582,45.316]]],[[[149.437,45.583],[149.667,45.850],[149.856,45.923],[150.0,46.045],[150.0,45.831],[149.684,45.633],[149.437,45.583]]],[[[142.944,51.961],[142.943,51.617],[143.074,51.267],[143.340,50.885],[143.633,50.234],[144.038,49.508],[144.539,48.753],[143.598,49.233],[143.152,49.258],[142.853,49.127],[142.646,48.657],[142.489,47.901],[142.614,47.459],[142.993,46.953],[143.236,46.863],[143.444,46.571],[143.303,46.011],[143.004,46.577],[142.614,46.712],[142.513,46.699],[142.327,46.563],[141.898,45.914],[141.708,46.139],[141.622,46.558],[141.909,47.073],[141.731,47.471],[141.810,47.675],[142.036,47.959],[141.977,48.284],[141.739,48.807],[141.921,48.943],[142.049,49.354],[142.152,50.890],[142.112,51.219],[142.016,51.430],[141.643,51.813],[141.598,52.216],[141.811,52.628],[141.840,52.960],[141.689,53.165],[141.767,53.272],[142.214,53.299],[142.674,53.540],[142.863,53.340],[143.056,53.061],[143.138,52.856],[143.143,52.511],[143.033,52.312],[142.944,51.961]]]]}},{"type":"Feature","properties":{"name":"Paleo-Siberian hunter-gatherers","name_zh":"","focus":false,"label":[126.85,54.02],"area":224.3,"color":"#7d6b5a","nolabel":true},"geometry":{"type":"MultiPolygon","coordinates":[[[[139.293,57.336],[138.345,56.804],[137.229,55.982],[136.521,55.589],[135.269,55.028],[134.985,54.853],[134.893,54.719],[134.902,54.559],[135.094,54.432],[135.312,54.413],[135.725,54.407],[136.196,54.474],[136.491,54.455],[136.343,53.887],[136.350,53.701],[136.487,53.654],[136.770,53.695],[137.040,53.862],[137.382,53.809],[137.121,53.589],[137.071,53.489],[137.239,53.456],[137.979,53.464],[138.234,53.571],[138.409,53.805],[138.416,54.091],[139.378,54.080],[139.805,53.961],[140.102,53.801],[140.321,53.535],[141.121,53.051],[141.089,52.985],[140.828,52.825],[141.047,52.689],[134.869,52.009],[127.335,49.977],[119.935,51.257],[116.706,54.659],[114.867,58.0],[140.347,58.0],[140.028,57.644],[139.293,57.336]]],[[[99.537,55.281],[93.700,56.484],[78.362,56.410],[65.311,55.046],[60.0,56.229],[60.0,56.559],[62.805,56.955],[65.855,58.0],[104.256,58.0],[99.485,55.658],[99.537,55.281]]]]}},{"type":"Feature","properties":{"name":"Finno-Ugric taiga hunter-gatherers","name_zh":"","focus":false,"label":[62.17,57.48],"area":5.1,"color":"#5f87a3","nolabel":true},"geometry":{"type":"Polygon","coordinates":[[[62.805,56.955],[60.0,56.559],[60.0,58.0],[65.855,58.0],[62.805,56.955]]]}},{"type":"Feature","properties":{"name":"Ruanruan","name_zh":"柔然","focus":false,"label":[96.46,48.88],"area":314.0,"color":"#a3727a"},"geometry":{"type":"Polygon","coordinates":[[[75.336,46.844],[75.298,47.413],[81.780,51.113],[101.657,52.595],[101.527,50.381],[105.590,50.349],[109.653,50.763],[112.362,52.139],[111.178,53.305],[113.332,53.466],[116.318,45.448],[107.359,44.034],[89.156,42.271],[76.358,43.624],[73.435,44.505],[73.929,45.367],[74.119,46.216],[75.336,46.844]]]}},{"type":"Feature","properties":{"name":"Kurykans","name_zh":"骨利干","focus":false,"label":[109.18,52.03],"area":26.3,"color":"#9a8a4a"},"geometry":{"type":"MultiPolygon","coordinates":[[[[107.575,53.547],[107.534,53.438],[106.851,53.102],[106.773,53.022],[106.873,53.029],[106.880,52.973],[106.537,52.705],[106.059,52.511],[105.859,52.386],[105.569,52.108],[105.242,51.938],[104.536,51.784],[103.713,51.694],[104.156,51.535],[104.655,51.482],[105.797,51.701],[105.967,51.774],[106.186,51.956],[106.313,52.323],[106.497,52.383],[106.806,52.328],[106.938,52.474],[107.098,52.541],[107.947,52.780],[108.287,52.989],[108.334,53.037],[108.302,53.109],[108.391,53.163],[108.661,53.301],[108.767,53.281],[108.931,53.344],[108.989,53.450],[108.920,53.565],[108.841,53.586],[108.532,53.513],[108.686,53.652],[110.857,53.622],[112.362,52.139],[109.653,50.763],[105.590,50.349],[101.527,50.381],[101.677,52.932],[106.593,53.681],[107.715,53.665],[107.575,53.547]]],[[[107.313,53.067],[106.962,53.023],[106.995,53.106],[107.584,53.283],[107.795,53.392],[107.766,53.267],[107.313,53.067]]]]}},{"type":"Feature","properties":{"name":"Cheras","name_zh":"","focus":false,"label":[77.02,9.58],"area":1.4,"color":"#b0805f"},"geometry":{"type":"Polygon","coordinates":[[[77.626,9.122],[76.652,8.902],[76.537,9.118],[76.273,10.039],[77.653,10.322],[77.626,9.122]]]}},{"type":"Feature","properties":{"name":"Western Gangas","name_zh":"","focus":false,"label":[76.8,10.99],"area":4.2,"color":"#7d6b5a"},"geometry":{"type":"Polygon","coordinates":[[[77.861,10.364],[76.273,10.039],[76.075,10.553],[75.651,11.423],[75.195,12.151],[77.472,12.448],[77.861,10.364]]]}},{"type":"Feature","properties":{"name":"Cholas","name_zh":"","focus":false,"label":[78.34,9.75],"area":1.6,"color":"#a07d5a"},"geometry":{"type":"Polygon","coordinates":[[[77.653,10.322],[77.874,10.367],[79.157,10.003],[78.926,9.492],[78.937,9.435],[79.159,9.277],[78.313,8.995],[78.241,8.895],[77.626,9.122],[77.653,10.322]]]}},{"type":"Feature","properties":{"name":"Kadambas","name_zh":"","focus":false,"label":[76.14,13.07],"area":6.6,"color":"#b0805f"},"geometry":{"type":"Polygon","coordinates":[[[77.472,12.448],[75.195,12.151],[74.733,13.683],[74.401,14.419],[74.153,14.849],[77.001,14.967],[77.472,12.448]]]}},{"type":"Feature","properties":{"name":"Pallavas","name_zh":"","focus":false,"label":[78.69,11.59],"area":5.3,"color":"#8a6f9e"},"geometry":{"type":"Polygon","coordinates":[[[77.472,12.448],[79.707,12.925],[79.922,12.106],[79.769,11.730],[79.710,11.444],[79.826,10.358],[79.789,10.250],[79.306,10.255],[79.222,10.192],[79.157,10.003],[77.861,10.364],[77.472,12.448]]]}},{"type":"Feature","properties":{"name":"Vishnu-Kundins","name_zh":"","focus":false,"label":[78.33,14.21],"area":5.9,"color":"#a3727a"},"geometry":{"type":"Polygon","coordinates":[[[77.001,14.967],[78.324,15.133],[79.579,15.472],[79.458,14.926],[79.561,13.483],[79.707,12.925],[77.472,12.448],[77.001,14.967]]]}},{"type":"Feature","properties":{"name":"Funan","name_zh":"扶南","focus":false,"label":[104.84,12.39],"area":30.2,"color":"#a3727a"},"geometry":{"type":"Polygon","coordinates":[[[101.880,16.234],[107.329,15.299],[107.268,15.118],[107.636,13.743],[107.517,11.759],[107.100,10.411],[106.773,10.639],[106.704,10.448],[106.748,10.067],[106.656,9.743],[106.482,9.552],[106.335,9.520],[106.229,9.551],[106.118,9.335],[105.926,9.188],[105.503,9.029],[105.208,8.653],[105.025,8.519],[104.907,8.474],[104.742,8.493],[104.822,9.472],[104.890,9.694],[104.987,9.822],[104.978,9.980],[104.764,10.177],[104.427,10.284],[104.160,10.519],[104.003,10.537],[103.830,10.473],[103.606,10.473],[103.524,10.524],[103.670,10.765],[103.652,10.880],[103.524,11.057],[103.400,11.038],[103.192,10.904],[103.039,10.897],[102.962,11.367],[102.658,12.066],[102.529,12.148],[102.323,12.186],[101.918,12.585],[101.769,12.638],[101.880,16.234]]]}},{"type":"Feature","properties":{"name":"Lavo","name_zh":"","focus":false,"label":[99.26,12.3],"area":16.1,"color":"#a07d5a"},"geometry":{"type":"Polygon","coordinates":[[[101.769,12.638],[101.586,12.661],[101.329,12.558],[101.023,12.672],[100.871,12.678],[100.956,13.364],[100.908,13.447],[100.473,13.509],[100.239,13.490],[100.040,13.394],[99.930,13.261],[100.023,12.994],[99.833,12.523],[99.895,12.079],[99.186,10.489],[99.071,9.898],[99.118,9.371],[99.298,9.161],[99.467,9.183],[99.467,8.252],[98.242,8.901],[98.632,10.100],[98.431,10.201],[98.397,10.563],[98.605,10.862],[98.738,11.435],[98.867,11.645],[98.590,11.695],[98.588,11.822],[98.676,12.051],[98.596,12.737],[98.485,13.111],[98.198,13.644],[97.822,14.616],[97.673,15.693],[100.066,16.230],[101.020,16.349],[101.880,16.234],[101.769,12.638]]]}},{"type":"Feature","properties":{"name":"Northern Wei","name_zh":"北魏","focus":true,"label":[107.71,38.17],"area":143.2},"geometry":{"type":"Polygon","coordinates":[[[103.277,34.740],[102.830,35.485],[99.850,37.348],[96.943,38.391],[96.422,39.062],[96.273,39.733],[96.571,40.403],[97.018,40.850],[98.732,40.776],[102.979,40.180],[104.544,40.403],[105.364,40.776],[106.184,41.372],[107.301,41.447],[111.103,40.868],[116.169,40.641],[117.560,40.641],[118.209,40.826],[119.044,42.310],[121.919,42.681],[123.867,43.052],[124.702,42.310],[124.110,39.875],[123.916,39.807],[123.039,39.672],[122.027,39.255],[121.488,38.878],[121.216,38.756],[121.065,38.750],[121.123,38.865],[121.660,39.331],[121.448,39.382],[121.282,39.349],[121.213,39.483],[121.239,39.553],[121.668,39.905],[121.788,40.078],[122.107,40.353],[122.082,40.488],[121.753,40.736],[121.426,40.864],[121.010,40.850],[120.788,40.683],[120.272,40.151],[120.112,40.081],[119.823,40.042],[119.385,39.843],[119.210,39.639],[119.090,39.339],[118.977,39.224],[118.781,39.166],[118.559,39.172],[118.274,38.999],[118.069,39.254],[117.910,39.260],[117.752,39.202],[117.439,38.602],[117.589,38.284],[118.200,38.043],[118.744,38.063],[118.875,37.949],[117.734,37.199],[116.914,36.752],[116.914,35.709],[117.287,35.038],[117.212,34.591],[116.914,34.293],[116.020,34.293],[115.573,34.218],[114.828,33.622],[114.008,33.622],[112.369,33.846],[111.772,33.846],[110.357,33.399],[109.686,33.101],[109.313,33.175],[108.345,33.548],[107.599,33.771],[106.929,33.771],[105.215,33.622],[103.352,33.175],[103.277,34.740]]]}},{"type":"Feature","properties":{"name":"Southern Dynasties","name_zh":"南朝","focus":true,"label":[110.34,27.86],"area":240.0},"geometry":{"type":"MultiPolygon","coordinates":[[[[108.651,18.482],[108.576,19.187],[108.684,19.295],[109.198,19.684],[109.420,19.659],[109.550,19.913],[109.915,19.800],[110.060,19.940],[110.617,20.017],[110.885,19.706],[110.612,19.471],[110.427,19.229],[110.298,18.898],[110.361,18.765],[110.262,18.625],[109.669,18.414],[109.429,18.096],[108.651,18.482]]],[[[102.011,24.680],[100.414,25.085],[99.752,27.470],[101.042,29.598],[102.830,31.685],[103.352,33.175],[105.215,33.622],[106.929,33.771],[107.599,33.771],[108.345,33.548],[109.313,33.175],[109.686,33.101],[110.357,33.399],[111.772,33.846],[112.369,33.846],[114.008,33.622],[114.828,33.622],[115.573,34.218],[116.020,34.293],[116.914,34.293],[117.212,34.591],[117.287,35.038],[116.914,35.709],[116.914,36.752],[117.734,37.199],[118.875,37.949],[118.811,37.446],[118.837,37.204],[118.954,37.077],[119.284,37.045],[119.598,37.116],[119.940,37.352],[120.169,37.576],[120.658,37.736],[120.787,37.704],[121.189,37.425],[121.434,37.336],[121.894,37.375],[122.392,37.300],[122.281,36.982],[122.255,36.733],[121.846,36.860],[121.609,36.834],[120.855,36.584],[120.537,36.386],[120.504,36.055],[120.269,35.985],[120.139,36.194],[119.913,36.143],[119.975,35.933],[119.907,35.768],[119.060,35.041],[119.003,34.939],[119.020,34.691],[119.299,34.590],[119.973,34.135],[120.149,33.894],[120.340,33.336],[120.640,33.044],[120.719,32.847],[120.660,32.543],[120.738,32.460],[121.050,32.328],[121.230,32.061],[121.483,31.948],[121.605,31.827],[121.623,31.618],[121.268,31.452],[121.498,31.281],[121.640,30.926],[121.631,30.792],[121.568,30.710],[121.328,30.690],[121.035,30.594],[120.608,30.346],[120.226,30.250],[119.943,30.116],[120.437,29.996],[120.862,30.187],[121.082,30.213],[121.155,30.188],[121.391,29.922],[121.565,29.846],[121.770,29.834],[121.774,29.764],[121.670,29.624],[121.361,29.414],[121.411,29.344],[121.649,29.319],[121.432,28.836],[121.345,28.544],[121.358,28.385],[121.259,28.182],[121.165,28.124],[121.008,28.276],[120.942,28.213],[120.505,27.590],[120.351,27.177],[120.084,26.985],[119.971,26.788],[119.857,26.706],[119.600,26.692],[119.428,26.590],[119.554,26.267],[119.436,26.038],[119.470,25.771],[119.428,25.650],[119.335,25.530],[119.095,25.440],[118.812,24.849],[118.531,24.690],[118.345,24.467],[117.924,24.561],[117.796,24.421],[117.849,24.047],[117.405,23.690],[116.962,23.556],[116.709,23.346],[116.452,23.250],[116.403,23.199],[116.400,22.983],[116.340,22.913],[115.860,22.836],[115.706,22.638],[115.308,22.771],[115.185,22.745],[115.043,22.599],[114.847,22.510],[114.558,22.464],[114.537,22.674],[113.989,22.552],[113.845,22.463],[113.716,22.482],[113.462,22.773],[113.376,22.646],[113.419,22.570],[113.377,22.163],[113.283,22.030],[113.096,21.979],[112.871,22.061],[112.815,21.826],[112.749,21.756],[112.039,21.659],[111.831,21.754],[111.733,21.709],[111.536,21.493],[111.434,21.461],[111.085,21.479],[110.749,21.377],[110.566,21.230],[110.238,21.280],[110.202,21.096],[110.077,20.867],[110.293,20.582],[110.414,20.525],[110.433,20.436],[110.271,20.315],[109.928,20.244],[109.711,20.568],[109.602,20.879],[109.608,21.057],[109.786,21.406],[109.779,21.482],[109.516,21.596],[109.414,21.564],[109.321,21.431],[109.117,21.399],[108.813,21.493],[108.554,21.823],[108.466,21.785],[108.387,21.530],[108.265,21.473],[107.900,21.479],[107.417,21.185],[107.465,20.976],[107.374,20.880],[106.807,20.905],[106.746,20.815],[106.771,20.638],[106.380,20.110],[105.964,19.880],[105.843,19.702],[105.532,18.844],[106.364,18.007],[106.393,17.664],[105.491,17.780],[104.381,18.327],[103.234,20.122],[102.383,24.010],[102.011,24.680]]]]}}]}