{"type":"FeatureCollection","features":[{"type":"Feature","properties":{"focus":false,"kind":"state","approx":true,"color":"#b0805f","name":"Van Xuan (Early Ly)","name_zh":"万春 (前李)","label":[105.08,20.45],"area":14.7},"geometry":{"type":"MultiPolygon","coordinates":[[[[103.552,21.142],[103.618,21.588],[103.770,22.013],[104.002,22.400],[104.305,22.734],[104.667,23.002],[105.075,23.195],[105.512,23.305],[106.059,23.320],[107.501,21.324],[107.407,21.278],[107.354,21.055],[107.164,20.948],[107.068,20.997],[106.886,20.950],[106.684,20.992],[106.753,20.735],[106.554,20.529],[106.572,20.392],[106.518,20.289],[106.165,19.992],[106.063,19.986],[105.983,19.937],[105.815,19.589],[105.791,19.294],[105.716,19.127],[105.638,19.052],[105.624,18.961],[105.888,18.502],[106.065,18.316],[106.239,18.220],[106.498,17.946],[106.460,17.871],[106.468,17.698],[106.545,17.624],[106.137,17.524],[105.800,17.500],[105.462,17.524],[105.132,17.598],[104.816,17.720],[104.522,17.887],[104.255,18.095],[104.022,18.340],[103.720,18.816],[103.598,19.132],[103.524,19.462],[103.511,20.025],[103.610,20.506],[103.561,20.804],[103.552,21.142]]],[[[107.397,21.104],[107.476,21.268],[107.546,21.229],[107.556,21.176],[107.459,21.091],[107.397,21.104]]],[[[106.795,20.927],[106.855,20.858],[106.854,20.796],[106.769,20.864],[106.795,20.927]]],[[[107.399,20.903],[107.476,20.951],[107.551,21.033],[107.521,20.926],[107.399,20.903]]],[[[106.910,20.824],[106.953,20.867],[107.043,20.836],[107.063,20.799],[107.031,20.747],[106.990,20.743],[106.910,20.824]]]]}},{"type":"Feature","properties":{"focus":false,"kind":"state","approx":true,"color":"#8a6f9e","name":"Tuyuhun","name_zh":"吐谷浑","label":[98.92,35.5],"area":28.3},"geometry":{"type":"Polygon","coordinates":[[[96.918,38.029],[97.993,37.885],[99.078,38.311],[100.808,37.587],[101.247,37.836],[102.835,36.858],[102.802,36.523],[101.831,35.161],[102.177,33.539],[102.104,33.455],[101.678,33.087],[101.175,32.834],[100.625,32.711],[100.062,32.724],[99.520,32.874],[99.122,33.087],[98.773,33.373],[98.468,33.744],[97.999,33.700],[97.440,33.768],[96.916,33.971],[96.455,34.295],[96.087,34.721],[95.834,35.224],[95.711,35.774],[95.724,36.337],[95.874,36.879],[96.152,37.369],[96.540,37.777],[96.918,38.029]]]}},{"type":"Feature","properties":{"name":"Simhala","name_zh":"","focus":false,"color":"#6f9460","label":[80.73,7.62],"area":5.0},"geometry":{"type":"Polygon","coordinates":[[[79.674,8.804],[79.705,8.929],[79.896,8.923],[80.050,9.112],[80.076,9.278],[80.176,9.445],[80.109,9.685],[80.347,9.470],[80.661,9.298],[81.092,8.625],[81.064,8.410],[81.325,8.257],[81.445,7.928],[81.803,7.312],[81.865,7.083],[81.778,6.753],[81.598,6.448],[81.201,6.079],[80.850,5.951],[80.341,5.969],[80.222,6.058],[80.127,6.215],[79.854,7.061],[79.831,8.101],[79.724,8.415],[79.805,8.645],[79.674,8.804]]]}},{"type":"Feature","properties":{"name":"Paekche","name_zh":"百济","focus":false,"color":"#7d6b5a","label":[127.3,36.03],"area":4.3},"geometry":{"type":"Polygon","coordinates":[[[125.960,36.722],[126.390,36.957],[126.680,36.841],[126.796,36.945],[126.784,37.074],[126.442,37.474],[126.391,37.613],[127.669,37.208],[128.040,36.559],[128.163,34.799],[127.970,34.837],[127.838,34.936],[127.596,34.892],[127.358,34.803],[126.823,34.428],[126.615,34.408],[126.409,34.269],[126.359,34.669],[126.225,35.162],[126.300,35.366],[126.521,35.575],[126.524,35.736],[126.621,35.928],[126.436,36.131],[126.357,36.624],[125.960,36.722]]]}},{"type":"Feature","properties":{"name":"Silla","name_zh":"新罗","focus":false,"color":"#5f87a3","label":[128.58,36.78],"area":7.7},"geometry":{"type":"Polygon","coordinates":[[[124.693,38.139],[124.736,38.278],[124.928,38.463],[125.261,38.566],[125.293,38.687],[127.403,39.074],[127.955,38.694],[128.450,38.254],[129.128,37.306],[129.248,37.007],[129.234,36.245],[129.179,35.962],[129.245,35.907],[129.465,35.926],[129.284,35.507],[128.916,35.029],[128.808,35.010],[128.546,35.102],[128.436,35.058],[128.164,34.799],[128.041,36.557],[127.670,37.206],[126.391,37.614],[126.212,37.748],[125.909,37.511],[125.741,37.781],[125.569,37.832],[125.269,37.484],[125.074,37.770],[124.769,37.935],[124.693,38.139]]]}},{"type":"Feature","properties":{"name":"Champa","name_zh":"林邑","focus":false,"color":"#9a8a4a","label":[108.42,13.32],"area":7.8},"geometry":{"type":"Polygon","coordinates":[[[107.100,10.411],[107.516,11.759],[107.635,13.739],[107.268,15.117],[107.692,16.370],[107.810,16.282],[108.095,16.250],[108.235,16.079],[108.363,15.623],[108.497,15.364],[108.786,15.089],[108.916,14.791],[109.070,14.170],[109.306,12.906],[109.068,12.486],[109.072,11.635],[108.896,11.342],[108.694,11.145],[108.161,10.964],[107.938,10.805],[107.671,10.526],[107.411,10.367],[107.265,10.347],[107.100,10.411]]]}},{"type":"Feature","properties":{"name":"Yamato","name_zh":"倭","focus":false,"color":"#7d6b5a","label":[134.35,34.82],"area":11.6},"geometry":{"type":"MultiPolygon","coordinates":[[[[130.779,33.966],[130.892,34.245],[131.332,34.291],[131.670,34.500],[132.662,35.379],[132.979,35.443],[133.025,35.258],[133.804,35.427],[134.754,35.531],[135.155,35.645],[135.189,35.443],[135.364,35.324],[135.725,35.449],[135.924,35.600],[135.977,35.971],[136.186,36.201],[136.732,34.874],[136.615,34.757],[136.513,34.517],[136.897,34.257],[136.765,34.169],[136.394,34.111],[136.200,34.003],[135.754,33.342],[135.062,33.690],[134.969,34.133],[135.235,34.349],[135.313,34.465],[135.285,34.593],[135.208,34.616],[134.934,34.540],[134.425,34.626],[133.824,34.385],[133.585,34.441],[132.481,34.129],[132.384,34.266],[132.186,34.285],[131.998,34.089],[131.993,33.804],[131.652,33.910],[130.899,33.903],[130.779,33.966]]],[[[132.121,33.346],[132.448,33.519],[132.784,33.906],[132.968,33.793],[133.246,33.800],[133.462,33.883],[133.805,34.175],[134.009,34.188],[134.539,34.012],[134.608,33.897],[134.518,33.650],[133.997,33.148],[133.721,33.376],[133.516,33.393],[133.238,33.297],[133.153,33.213],[132.969,32.765],[132.900,32.669],[132.698,32.548],[132.467,32.757],[132.341,33.105],[132.121,33.346]]],[[[129.343,33.150],[129.528,33.296],[129.857,33.260],[130.172,33.336],[130.426,33.674],[130.644,33.699],[130.858,33.674],[130.974,33.500],[131.092,33.427],[131.280,33.390],[131.568,33.485],[131.668,33.308],[131.426,33.104],[131.794,32.806],[131.829,32.693],[131.562,32.432],[131.453,32.248],[131.318,31.511],[131.209,31.352],[130.957,31.191],[130.743,30.887],[130.579,30.906],[130.554,30.968],[130.674,31.211],[130.716,31.482],[130.581,31.525],[130.477,31.441],[130.403,31.229],[130.231,31.026],[130.086,31.121],[130.060,31.215],[130.204,31.425],[130.218,31.556],[130.058,31.971],[130.441,32.282],[130.491,32.563],[130.259,32.907],[130.118,32.928],[129.844,32.587],[129.733,32.637],[129.630,32.864],[129.460,32.986],[129.343,33.150]]]]}},{"type":"Feature","properties":{"name":"Koguryo","name_zh":"高句丽","focus":false,"color":"#a07d5a","label":[126.97,40.98],"area":16.0},"geometry":{"type":"Polygon","coordinates":[[[124.110,39.875],[124.702,42.309],[127.298,43.237],[129.640,41.654],[129.590,41.468],[129.630,41.276],[129.476,40.682],[129.174,40.628],[128.446,40.065],[128.236,39.969],[127.931,39.955],[127.670,39.864],[127.440,39.622],[127.280,39.230],[127.403,39.075],[125.293,38.688],[125.027,38.815],[125.292,39.356],[125.207,39.482],[124.920,39.617],[124.688,39.604],[124.547,39.541],[124.442,39.572],[124.208,39.738],[124.110,39.875]]]}},{"type":"Feature","properties":{"name":"Kushan Principalities","name_zh":"贵霜","focus":false,"color":"#a07d5a","label":[73.47,34.17],"area":21.9},"geometry":{"type":"Polygon","coordinates":[[[70.287,31.287],[71.627,35.837],[74.201,37.487],[75.652,37.355],[77.214,36.281],[76.577,35.377],[76.003,34.684],[75.590,33.652],[70.287,31.287]]]}},{"type":"Feature","properties":{"name":"Sasanian Empire","name_zh":"萨珊","focus":false,"color":"#9a8a4a","label":[65.48,33.56],"area":127.2},"geometry":{"type":"Polygon","coordinates":[[[60.000,39.037],[62.697,39.991],[65.016,38.508],[66.778,38.043],[67.057,37.123],[67.667,37.157],[67.999,36.897],[68.591,37.157],[69.635,37.095],[69.647,37.553],[70.364,37.555],[70.505,38.147],[70.703,38.213],[71.231,38.213],[71.428,37.751],[71.429,37.026],[71.626,35.838],[70.286,31.287],[67.387,28.225],[66.431,25.488],[66.298,25.493],[65.767,25.309],[64.850,25.204],[64.424,25.173],[64.238,25.209],[64.050,25.399],[63.651,25.335],[63.402,25.164],[62.449,25.161],[61.813,25.053],[61.343,25.026],[60.858,25.095],[60.478,25.297],[60.000,25.322],[60.000,39.037]]]}},{"type":"Feature","properties":{"name":"Gupta Empire","name_zh":"笈多王朝","focus":false,"color":"#4f8f86","label":[80.09,23.48],"area":218.8},"geometry":{"type":"Polygon","coordinates":[[[66.432,25.488],[67.387,28.225],[70.286,31.286],[75.585,33.649],[76.003,34.683],[78.761,30.790],[83.606,26.915],[86.512,25.872],[88.001,25.872],[91.577,26.915],[92.627,27.093],[93.908,26.820],[94.464,26.449],[94.496,26.191],[94.185,25.723],[91.430,24.904],[90.036,24.314],[91.875,23.636],[92.471,22.295],[92.920,20.373],[92.824,20.423],[92.662,20.404],[92.403,20.613],[92.176,20.886],[91.946,21.362],[91.844,21.910],[91.571,22.541],[91.408,22.715],[91.080,22.561],[90.010,22.557],[89.999,21.930],[89.866,22.099],[89.795,21.832],[89.669,21.719],[89.578,21.700],[89.448,21.923],[89.232,21.655],[89.073,21.763],[88.996,21.631],[89.024,21.546],[88.723,21.539],[88.656,21.850],[88.573,21.889],[88.376,21.577],[88.299,21.551],[88.048,21.922],[87.866,21.696],[87.640,21.563],[86.938,21.288],[86.798,21.130],[86.925,20.691],[86.639,20.322],[86.631,20.202],[86.118,19.806],[85.379,19.605],[85.113,19.442],[84.262,18.455],[83.987,18.207],[83.685,18.083],[83.380,17.710],[82.356,17.086],[82.233,16.647],[82.080,16.462],[81.787,16.327],[81.596,16.302],[81.364,16.340],[81.252,16.223],[81.086,15.826],[80.962,15.723],[80.729,15.835],[80.460,15.772],[80.299,15.643],[80.089,15.173],[80.168,13.891],[80.077,13.671],[80.318,13.332],[80.312,13.104],[79.922,12.106],[79.561,13.483],[79.458,14.925],[79.664,15.854],[80.179,16.682],[80.179,17.709],[79.87,18.329],[79.870,19.669],[80.193,20.831],[80.084,22.087],[79.438,22.183],[76.777,21.835],[74.922,22.143],[72.931,20.953],[72.765,21.150],[72.665,21.848],[72.690,22.116],[72.327,22.115],[72.127,21.826],[72.133,21.742],[72.287,21.548],[72.255,21.352],[72.119,21.155],[71.893,20.988],[71.024,20.657],[70.855,20.650],[70.467,20.777],[70.209,20.947],[69.126,21.967],[68.894,22.284],[69.491,22.248],[69.966,22.350],[70.176,22.478],[70.403,22.743],[70.380,22.849],[70.044,22.777],[69.664,22.789],[69.107,22.898],[68.789,23.028],[68.372,23.326],[68.072,23.675],[68.042,23.762],[67.692,23.814],[67.486,23.928],[67.315,24.091],[67.204,24.585],[67.155,24.647],[66.654,24.783],[66.698,25.116],[66.619,25.317],[66.432,25.488]]]}},{"type":"Feature","properties":{"name":"Vakataka","name_zh":"","focus":false,"color":"#a3727a","label":[76.39,19.0],"area":46.7},"geometry":{"type":"Polygon","coordinates":[[[72.759,20.056],[72.864,20.310],[73.108,20.689],[73.108,20.827],[72.931,20.952],[74.921,22.144],[76.777,21.835],[79.439,22.183],[80.088,22.090],[80.193,20.831],[79.870,19.669],[79.87,18.333],[80.179,17.710],[80.179,16.679],[79.664,15.855],[79.578,15.472],[78.323,15.132],[76.674,14.926],[74.153,14.849],[73.841,15.390],[73.408,16.558],[73.063,18.031],[72.759,20.056]]]}},{"type":"Feature","properties":{"name":"Pandyas","name_zh":"","focus":false,"color":"#8a6f9e","label":[77.49,8.55],"area":1.1},"geometry":{"type":"Polygon","coordinates":[[[76.652,8.901],[77.598,9.130],[78.240,8.894],[78.063,8.385],[77.898,8.257],[77.418,8.028],[77.340,8.053],[76.703,8.706],[76.652,8.901]]]}},{"type":"Feature","properties":{"name":"Ainu","name_zh":"","focus":false,"color":"#7272a8","label":[143.26,43.52],"area":18.1},"geometry":{"type":"MultiPolygon","coordinates":[[[[149.437,45.583],[149.667,45.849],[149.854,45.922],[149.999,46.044],[149.999,45.831],[149.683,45.633],[149.437,45.583]]],[[[146.840,44.415],[146.846,44.475],[147.145,44.669],[147.111,44.792],[147.473,44.971],[147.504,45.042],[147.655,45.075],[147.763,45.188],[147.882,45.222],[147.856,45.355],[147.931,45.420],[147.999,45.275],[148.073,45.248],[148.321,45.270],[148.700,45.519],[148.855,45.473],[148.824,45.334],[148.582,45.315],[148.267,45.213],[147.867,44.971],[147.762,44.938],[147.619,44.961],[147.594,44.923],[147.621,44.896],[147.547,44.812],[147.293,44.667],[147.208,44.550],[147.022,44.506],[146.947,44.408],[146.840,44.415]]],[[[146.598,43.732],[146.599,43.793],[146.841,43.873],[146.903,43.839],[146.654,43.704],[146.598,43.732]]],[[[145.409,43.834],[145.744,44.051],[146.127,44.506],[146.343,44.421],[146.567,44.437],[146.507,44.358],[146.103,44.243],[145.932,44.120],[145.778,43.928],[145.597,43.856],[145.553,43.650],[145.437,43.716],[145.409,43.834]]],[[[146.080,43.517],[146.225,43.524],[146.225,43.524],[146.204,43.481],[146.124,43.459],[146.080,43.517]]],[[[139.711,42.476],[139.973,42.650],[140.495,42.896],[140.513,43.056],[140.373,43.185],[140.498,43.319],[140.597,43.325],[140.894,43.135],[141.060,43.096],[141.299,43.189],[141.301,43.719],[141.709,43.923],[141.744,44.626],[141.566,44.969],[141.522,45.181],[141.597,45.278],[141.874,45.434],[143.020,44.463],[143.791,44.026],[144.615,43.842],[144.751,43.882],[145.139,44.177],[145.346,44.242],[145.062,43.783],[145.447,43.169],[144.993,42.937],[144.753,42.866],[144.590,42.859],[144.365,42.948],[144.167,42.941],[144.003,42.877],[143.507,42.418],[143.329,42.195],[143.212,41.926],[143.032,41.958],[141.925,42.501],[141.720,42.538],[141.397,42.518],[140.929,42.255],[140.859,42.390],[140.698,42.544],[140.542,42.537],[140.230,42.366],[140.247,42.229],[140.766,42.004],[141.154,41.749],[140.978,41.652],[140.587,41.674],[140.267,41.324],[140.112,41.273],[140.012,41.381],[139.977,41.502],[140.122,41.790],[140.099,41.937],[139.852,42.035],[139.777,42.112],[139.711,42.476]]],[[[141.598,52.215],[141.811,52.630],[141.838,52.958],[141.689,53.165],[141.767,53.271],[142.213,53.299],[142.673,53.539],[142.862,53.339],[143.055,53.061],[143.137,52.855],[143.142,52.511],[143.032,52.311],[142.943,51.958],[142.943,51.617],[143.073,51.269],[143.339,50.884],[143.633,50.233],[144.037,49.508],[144.538,48.753],[143.597,49.232],[143.153,49.257],[142.849,49.119],[142.646,48.656],[142.489,47.898],[142.616,47.456],[142.990,46.956],[143.235,46.862],[143.443,46.570],[143.302,46.011],[143.004,46.574],[142.613,46.711],[142.512,46.697],[142.327,46.562],[141.897,45.914],[141.708,46.139],[141.622,46.557],[141.906,47.074],[141.731,47.471],[141.810,47.674],[142.034,47.964],[141.976,48.284],[141.739,48.806],[141.921,48.945],[142.048,49.354],[142.151,50.889],[142.112,51.217],[142.016,51.428],[141.643,51.813],[141.598,52.215]]]]}},{"type":"Feature","properties":{"name":"Paleo-Siberian hunter-gatherers","name_zh":"","focus":false,"color":"#7d6b5a","nolabel":true,"label":[126.85,54.02],"area":224.4},"geometry":{"type":"MultiPolygon","coordinates":[[[[114.867,57.999],[140.346,57.999],[140.027,57.644],[139.291,57.335],[138.346,56.804],[137.228,55.981],[136.521,55.589],[135.270,55.028],[134.988,54.855],[134.894,54.719],[134.901,54.566],[135.093,54.432],[135.311,54.413],[135.724,54.407],[136.196,54.473],[136.490,54.454],[136.343,53.887],[136.353,53.703],[136.488,53.654],[136.767,53.694],[137.040,53.861],[137.381,53.808],[137.122,53.590],[137.081,53.510],[137.094,53.484],[137.239,53.456],[137.977,53.464],[138.230,53.569],[138.408,53.805],[138.416,54.090],[139.378,54.079],[139.804,53.960],[140.101,53.801],[140.322,53.534],[141.120,53.050],[141.088,52.985],[140.846,52.829],[141.046,52.689],[134.869,52.008],[127.334,49.977],[119.935,51.256],[116.706,54.659],[114.867,57.999]]],[[[60.000,56.558],[62.804,56.955],[65.855,58.0],[104.255,57.999],[99.496,55.663],[99.536,55.281],[93.699,56.483],[78.362,56.410],[65.311,55.046],[60.000,56.229],[60.000,56.558]]]]}},{"type":"Feature","properties":{"name":"Finno-Ugric taiga hunter-gatherers","name_zh":"","focus":false,"color":"#5f87a3","nolabel":true,"label":[62.17,57.48],"area":5.1},"geometry":{"type":"Polygon","coordinates":[[[60.000,56.559],[60.000,58.0],[65.854,57.999],[62.804,56.955],[60.000,56.559]]]}},{"type":"Feature","properties":{"name":"Turks","name_zh":"突厥","focus":false,"color":"#a3727a","label":[96.45,48.88],"area":314.0},"geometry":{"type":"Polygon","coordinates":[[[73.435,44.505],[73.928,45.366],[74.119,46.215],[75.329,46.841],[75.298,47.412],[81.780,51.112],[101.656,52.594],[101.538,50.383],[105.591,50.349],[109.654,50.763],[112.345,52.134],[111.178,53.304],[113.331,53.465],[116.317,45.448],[107.358,44.033],[89.156,42.271],[76.358,43.623],[73.435,44.505]]]}},{"type":"Feature","properties":{"name":"Kurykans","name_zh":"骨利干","focus":false,"color":"#9a8a4a","label":[109.18,52.03],"area":26.3},"geometry":{"type":"MultiPolygon","coordinates":[[[[101.527,50.381],[101.677,52.932],[106.592,53.680],[107.714,53.664],[107.576,53.547],[107.533,53.438],[106.850,53.101],[106.804,53.041],[106.872,53.028],[106.879,52.973],[106.536,52.705],[106.057,52.510],[105.859,52.385],[105.568,52.108],[105.242,51.938],[104.536,51.784],[103.782,51.688],[104.156,51.535],[104.655,51.482],[105.798,51.701],[105.967,51.774],[106.184,51.954],[106.313,52.322],[106.497,52.382],[106.803,52.330],[106.938,52.473],[107.097,52.540],[107.947,52.780],[108.286,52.989],[108.330,53.039],[108.302,53.108],[108.390,53.162],[108.661,53.300],[108.768,53.282],[108.932,53.347],[108.985,53.450],[108.913,53.566],[108.838,53.585],[108.532,53.513],[108.686,53.651],[110.856,53.621],[112.361,52.139],[109.652,50.763],[105.590,50.349],[101.527,50.381]]],[[[106.962,53.023],[106.995,53.105],[107.583,53.283],[107.794,53.391],[107.765,53.266],[107.312,53.067],[106.962,53.023]]]]}},{"type":"Feature","properties":{"name":"Cheras","name_zh":"","focus":false,"color":"#b0805f","label":[77.02,9.58],"area":1.4},"geometry":{"type":"Polygon","coordinates":[[[76.273,10.038],[77.652,10.321],[77.625,9.122],[76.652,8.902],[76.536,9.118],[76.273,10.038]]]}},{"type":"Feature","properties":{"name":"Western Gangas","name_zh":"","focus":false,"color":"#7d6b5a","label":[76.8,10.99],"area":4.2},"geometry":{"type":"Polygon","coordinates":[[[75.195,12.150],[77.471,12.447],[77.860,10.364],[76.273,10.039],[76.074,10.553],[75.651,11.422],[75.195,12.150]]]}},{"type":"Feature","properties":{"name":"Cholas","name_zh":"","focus":false,"color":"#a07d5a","label":[78.34,9.75],"area":1.6},"geometry":{"type":"Polygon","coordinates":[[[77.626,9.122],[77.653,10.321],[77.873,10.366],[79.156,10.002],[78.926,9.489],[78.942,9.431],[79.158,9.277],[78.317,8.996],[78.240,8.895],[77.626,9.122]]]}},{"type":"Feature","properties":{"name":"Kadambas","name_zh":"","focus":false,"color":"#b0805f","label":[76.14,13.07],"area":6.6},"geometry":{"type":"Polygon","coordinates":[[[74.153,14.848],[77.000,14.966],[77.471,12.448],[75.195,12.151],[74.732,13.684],[74.401,14.418],[74.153,14.848]]]}},{"type":"Feature","properties":{"name":"Pallavas","name_zh":"","focus":false,"color":"#8a6f9e","label":[78.69,11.59],"area":5.3},"geometry":{"type":"Polygon","coordinates":[[[77.472,12.447],[79.706,12.924],[79.921,12.106],[79.769,11.729],[79.710,11.445],[79.825,10.358],[79.788,10.250],[79.305,10.253],[79.221,10.189],[79.156,10.003],[77.861,10.364],[77.472,12.447]]]}},{"type":"Feature","properties":{"name":"Vishnu-Kundins","name_zh":"","focus":false,"color":"#a3727a","label":[78.33,14.2],"area":5.9},"geometry":{"type":"Polygon","coordinates":[[[77.001,14.966],[78.322,15.132],[79.578,15.471],[79.458,14.923],[79.561,13.483],[79.706,12.925],[77.472,12.448],[77.001,14.966]]]}},{"type":"Feature","properties":{"name":"Funan","name_zh":"扶南","focus":false,"color":"#a3727a","label":[104.84,12.38],"area":30.2},"geometry":{"type":"Polygon","coordinates":[[[101.769,12.638],[101.880,16.233],[107.328,15.298],[107.269,15.114],[107.635,13.742],[107.516,11.759],[107.100,10.411],[106.769,10.622],[106.704,10.447],[106.747,10.067],[106.655,9.743],[106.481,9.552],[106.335,9.520],[106.227,9.543],[106.117,9.335],[105.925,9.188],[105.503,9.028],[105.207,8.653],[105.024,8.519],[104.906,8.474],[104.742,8.493],[104.822,9.471],[104.890,9.693],[104.986,9.823],[104.974,9.982],[104.763,10.176],[104.427,10.284],[104.157,10.518],[104.003,10.536],[103.829,10.473],[103.606,10.473],[103.524,10.524],[103.669,10.768],[103.651,10.880],[103.523,11.053],[103.398,11.036],[103.191,10.904],[103.039,10.897],[102.961,11.367],[102.658,12.063],[102.528,12.147],[102.323,12.186],[101.919,12.583],[101.769,12.638]]]}},{"type":"Feature","properties":{"name":"Lavo","name_zh":"","focus":false,"color":"#a07d5a","label":[99.26,12.3],"area":16.1},"geometry":{"type":"Polygon","coordinates":[[[97.673,15.692],[100.066,16.230],[101.020,16.348],[101.879,16.233],[101.768,12.638],[101.585,12.660],[101.328,12.558],[101.023,12.671],[100.871,12.678],[100.955,13.359],[100.902,13.447],[100.472,13.508],[100.240,13.490],[100.040,13.393],[99.933,13.262],[100.022,12.994],[99.833,12.523],[99.894,12.079],[99.186,10.488],[99.071,9.898],[99.119,9.369],[99.297,9.164],[99.466,9.182],[99.466,8.252],[98.242,8.901],[98.627,10.087],[98.431,10.201],[98.397,10.562],[98.604,10.862],[98.738,11.434],[98.854,11.633],[98.590,11.695],[98.588,11.821],[98.675,12.053],[98.595,12.736],[98.484,13.110],[98.197,13.644],[97.822,14.616],[97.673,15.692]]]}},{"type":"Feature","properties":{"focus":true,"kind":"state","approx":true,"color":"#2f8a7a","name":"Northern Qi","name_zh":"北齐","label":[116.59,37.11],"area":114.0},"geometry":{"type":"MultiPolygon","coordinates":[[[[109.740,42.691],[110.029,42.947],[110.316,43.128],[110.732,43.300],[111.062,43.375],[111.625,43.388],[112.174,43.265],[112.677,43.012],[113.100,42.658],[113.522,43.012],[114.024,43.265],[114.574,43.388],[115.025,43.388],[115.467,43.300],[115.982,43.072],[116.258,42.878],[116.504,42.644],[116.844,42.158],[117.279,42.025],[117.604,41.862],[117.922,42.112],[118.269,42.304],[118.537,42.848],[118.745,43.114],[118.990,43.347],[119.366,43.598],[119.890,43.801],[120.450,43.869],[120.787,43.845],[121.117,43.771],[121.632,43.542],[121.909,43.347],[122.154,43.114],[122.422,42.752],[122.615,42.345],[122.725,41.907],[122.749,41.569],[122.705,41.121],[122.574,40.689],[122.362,40.291],[122.076,39.943],[121.728,39.657],[121.382,39.467],[121.358,39.401],[121.388,39.376],[121.275,39.384],[121.299,39.454],[121.267,39.544],[121.513,39.649],[121.474,39.754],[121.517,39.844],[121.801,39.952],[122.189,40.356],[122.271,40.533],[122.178,40.602],[122.137,40.689],[121.858,40.842],[121.826,40.964],[121.729,40.846],[121.173,40.899],[120.770,40.589],[120.479,40.230],[119.592,39.902],[119.393,39.754],[119.261,39.561],[119.224,39.408],[118.977,39.182],[118.625,39.176],[118.297,39.067],[118.149,39.193],[118.045,39.225],[117.867,39.191],[117.782,39.130],[117.554,38.691],[117.558,38.623],[117.658,38.421],[117.767,38.311],[118.012,38.184],[118.541,38.095],[118.799,38.126],[118.940,38.042],[119.027,37.903],[119.038,37.780],[119.089,37.700],[118.989,37.633],[118.954,37.330],[119.111,37.201],[119.286,37.138],[119.761,37.156],[119.883,37.251],[119.882,37.350],[120.155,37.495],[120.298,37.612],[120.257,37.678],[120.749,37.833],[121.049,37.725],[121.218,37.601],[121.388,37.578],[121.640,37.460],[121.959,37.446],[122.056,37.528],[122.109,37.522],[122.172,37.455],[122.336,37.405],[122.602,37.426],[122.666,37.402],[122.575,37.317],[122.587,37.181],[122.454,37.072],[122.523,37.002],[122.519,36.946],[122.340,36.832],[122.242,36.849],[122.160,36.958],[121.931,36.958],[121.053,36.611],[120.812,36.630],[120.807,36.599],[120.882,36.538],[120.895,36.444],[120.847,36.426],[120.774,36.453],[120.712,36.412],[120.682,36.338],[120.680,36.168],[120.637,36.129],[120.393,36.053],[120.330,36.110],[120.325,36.224],[120.181,36.201],[120.101,36.111],[120.180,36.019],[120.284,35.984],[120.058,35.862],[119.978,35.740],[119.866,35.643],[119.717,35.586],[119.526,35.358],[119.429,35.299],[119.352,35.113],[119.215,35.009],[119.166,34.849],[119.204,34.751],[119.351,34.749],[119.583,34.581],[119.964,34.447],[120.266,34.274],[120.499,33.716],[120.506,33.636],[120.615,33.490],[120.871,33.016],[120.897,32.843],[120.876,32.806],[120.070,31.957],[119.841,31.676],[119.508,31.524],[118.741,32.839],[118.419,32.883],[118.012,32.263],[118.103,31.530],[117.363,30.350],[115.749,31.322],[115.571,31.540],[113.179,31.193],[113.093,32.229],[111.099,32.929],[111.368,33.771],[111.313,33.945],[111.460,35.026],[110.411,35.994],[110.833,37.686],[110.725,37.954],[110.731,38.746],[110.031,39.591],[109.936,39.667],[109.740,42.691]]],[[[121.106,38.920],[121.662,39.102],[121.639,39.236],[121.913,39.030],[121.863,38.996],[121.679,39.002],[121.638,38.957],[121.670,38.891],[121.649,38.865],[121.321,38.808],[121.163,38.731],[121.106,38.920]]]]}},{"type":"Feature","properties":{"focus":true,"kind":"state","approx":true,"color":"#9e4a6e","name":"Liang","name_zh":"梁","label":[114.78,27.23],"area":201.4},"geometry":{"type":"MultiPolygon","coordinates":[[[[122.331,29.934],[122.401,29.950],[122.394,29.846],[122.367,29.852],[122.331,29.934]]],[[[121.969,30.143],[122.110,30.139],[122.284,30.067],[122.322,30.031],[122.295,29.963],[122.281,29.943],[122.157,30.000],[122.024,30.013],[121.977,30.063],[121.969,30.143]]],[[[122.042,29.735],[122.062,29.772],[122.119,29.782],[122.169,29.660],[122.042,29.735]]],[[[99.882,27.877],[99.998,28.567],[100.227,29.082],[100.495,29.444],[100.829,29.747],[101.216,29.979],[101.556,30.112],[101.769,30.681],[101.794,31.007],[101.868,31.337],[102.041,31.753],[102.222,32.040],[102.622,32.457],[102.852,32.839],[103.115,33.136],[105.269,32.359],[106.069,32.613],[106.318,33.807],[106.879,34.284],[107.561,34.284],[108.684,32.558],[108.779,32.573],[110.532,32.261],[111.099,32.928],[113.098,32.229],[113.179,31.196],[115.576,31.542],[115.754,31.319],[117.353,30.358],[118.101,31.527],[118.011,32.262],[118.419,32.886],[118.737,32.845],[119.506,31.533],[119.840,31.677],[120.072,31.929],[120.194,31.907],[120.497,32.019],[120.715,31.983],[120.792,31.818],[121.055,31.719],[121.204,31.628],[121.351,31.484],[121.660,31.319],[121.785,31.162],[121.877,30.917],[121.769,30.870],[121.528,30.841],[121.419,30.790],[121.309,30.699],[120.999,30.558],[120.897,30.392],[120.821,30.354],[120.450,30.387],[120.271,30.296],[120.268,30.265],[120.354,30.248],[120.494,30.303],[120.642,30.134],[120.904,30.161],[121.159,30.301],[121.258,30.303],[121.432,30.226],[121.678,29.979],[122.082,29.870],[121.905,29.779],[121.560,29.521],[121.578,29.495],[121.689,29.511],[121.887,29.627],[121.941,29.605],[121.968,29.490],[121.917,29.135],[121.853,29.128],[121.790,29.224],[121.716,29.255],[121.534,29.235],[121.461,29.151],[121.664,29.010],[121.679,28.953],[121.609,28.903],[121.662,28.851],[121.630,28.767],[121.519,28.711],[121.478,28.643],[121.609,28.292],[121.509,28.322],[121.354,28.229],[121.272,28.222],[121.219,28.337],[121.147,28.327],[121.097,28.287],[120.958,28.037],[120.892,28.003],[120.765,28.006],[120.764,27.977],[120.832,27.937],[120.832,27.891],[120.686,27.745],[120.664,27.639],[120.593,27.582],[120.629,27.482],[120.607,27.412],[120.384,27.155],[120.276,27.092],[120.137,26.884],[120.086,26.671],[119.967,26.586],[119.882,26.610],[119.802,26.812],[119.710,26.728],[119.591,26.757],[119.639,26.625],[119.725,26.609],[119.784,26.546],[119.881,26.334],[119.692,26.236],[119.463,26.054],[119.173,26.100],[119.261,25.977],[119.329,25.949],[119.418,25.955],[119.500,26.009],[119.618,26.003],[119.648,25.918],[119.553,25.698],[119.540,25.595],[119.622,25.390],[119.592,25.368],[119.419,25.458],[119.180,25.449],[119.149,25.411],[119.167,25.359],[119.285,25.232],[119.235,25.205],[118.974,25.205],[118.917,25.128],[118.955,25.004],[118.909,24.928],[118.644,24.829],[118.719,24.746],[118.657,24.621],[118.560,24.580],[118.412,24.600],[118.295,24.572],[118.195,24.625],[118.091,24.626],[118.015,24.560],[118.005,24.482],[117.852,24.471],[117.879,24.397],[118.024,24.379],[118.056,24.246],[117.839,24.012],[117.735,24.008],[117.668,23.939],[117.628,23.836],[117.464,23.836],[117.440,23.795],[117.462,23.735],[117.416,23.621],[117.367,23.588],[117.331,23.700],[117.300,23.712],[117.082,23.578],[117.030,23.623],[116.912,23.638],[116.860,23.453],[116.683,23.352],[116.698,23.277],[116.669,23.228],[116.540,23.180],[116.519,23.006],[116.470,22.945],[116.345,22.941],[116.252,22.977],[116.157,22.887],[115.852,22.801],[115.636,22.851],[115.562,22.823],[115.498,22.718],[115.382,22.718],[115.190,22.815],[114.919,22.684],[114.853,22.616],[114.750,22.626],[114.711,22.733],[114.651,22.752],[114.546,22.621],[114.554,22.528],[114.346,22.592],[114.276,22.547],[114.287,22.462],[114.335,22.396],[114.292,22.371],[114.207,22.195],[114.138,22.268],[114.178,22.331],[114.034,22.375],[113.937,22.365],[113.902,22.396],[113.896,22.428],[114.006,22.506],[113.828,22.607],[113.754,22.733],[113.661,22.801],[113.586,23.020],[113.598,23.105],[113.518,23.101],[113.450,23.054],[113.433,22.921],[113.520,22.851],[113.563,22.757],[113.426,22.858],[113.394,22.922],[113.336,22.896],[113.553,22.594],[113.551,22.406],[113.588,22.350],[113.548,22.222],[113.365,22.164],[113.266,22.088],[113.149,22.075],[113.074,22.190],[113.009,22.118],[112.983,21.938],[112.953,21.907],[112.903,21.881],[112.799,21.940],[112.662,21.860],[112.586,21.776],[112.421,21.880],[112.430,21.953],[112.381,21.979],[112.389,21.801],[112.304,21.741],[111.955,21.847],[111.873,21.717],[111.773,21.715],[111.602,21.559],[111.395,21.535],[111.319,21.486],[111.025,21.510],[110.996,21.430],[110.770,21.385],[110.567,21.214],[110.458,21.230],[110.413,21.304],[110.374,21.172],[110.296,21.092],[110.385,21.093],[110.426,21.060],[110.521,21.083],[110.538,21.018],[110.504,20.968],[110.421,21.006],[110.280,21.001],[110.264,21.025],[110.301,21.074],[110.279,21.093],[110.194,21.037],[110.155,20.941],[110.186,20.859],[110.365,20.837],[110.388,20.790],[110.317,20.671],[110.511,20.518],[110.517,20.460],[110.449,20.355],[110.344,20.294],[110.123,20.263],[109.938,20.295],[109.882,20.364],[109.885,20.413],[109.963,20.402],[109.969,20.444],[109.860,20.514],[109.792,20.621],[109.802,20.717],[109.662,20.916],[109.703,21.050],[109.681,21.131],[109.759,21.227],[109.779,21.337],[109.916,21.377],[109.927,21.468],[109.829,21.483],[109.769,21.544],[109.686,21.524],[109.567,21.689],[109.525,21.674],[109.544,21.537],[109.347,21.454],[109.148,21.425],[109.081,21.440],[109.129,21.541],[109.100,21.590],[109.027,21.626],[108.771,21.630],[108.615,21.770],[108.597,21.895],[108.496,21.903],[108.481,21.827],[108.525,21.671],[108.502,21.633],[108.444,21.607],[108.333,21.694],[108.246,21.558],[108.146,21.564],[108.066,21.525],[107.810,21.496],[107.706,21.405],[107.501,21.324],[106.060,23.319],[106.220,23.783],[106.537,24.277],[106.525,24.306],[106.251,24.344],[105.853,24.455],[105.647,24.130],[105.426,23.873],[105.170,23.652],[104.884,23.471],[104.467,23.299],[104.091,23.218],[103.784,23.021],[103.474,22.884],[103.148,22.794],[102.813,22.752],[102.362,22.774],[101.820,22.924],[101.421,23.137],[101.038,23.455],[100.758,23.368],[100.425,23.311],[99.862,23.324],[99.320,23.474],[98.829,23.752],[98.573,23.973],[98.352,24.230],[98.171,24.516],[98.034,24.825],[97.944,25.151],[97.902,25.487],[97.911,25.825],[97.968,26.159],[98.075,26.480],[98.227,26.782],[98.422,27.059],[98.655,27.304],[98.922,27.512],[99.216,27.679],[99.532,27.801],[99.882,27.877]],[[108.931,27.158],[108.958,27.145],[109.409,27.394],[109.695,27.492],[109.822,27.668],[109.574,28.120],[109.417,28.695],[109.051,28.744],[108.742,28.827],[108.578,28.475],[108.387,28.167],[108.728,27.684],[108.931,27.158]]],[[[114.043,22.333],[113.997,22.210],[113.877,22.210],[113.838,22.241],[114.043,22.333]]],[[[120.113,31.974],[120.876,32.806],[120.858,32.657],[120.990,32.566],[121.293,32.457],[121.400,32.372],[121.407,32.202],[121.489,32.121],[121.751,31.992],[121.832,31.899],[121.866,31.703],[121.680,31.712],[121.350,31.858],[121.145,31.842],[120.973,31.869],[120.789,32.032],[120.525,32.104],[120.184,31.966],[120.113,31.974]]],[[[121.211,31.805],[121.464,31.756],[121.492,31.694],[121.576,31.638],[121.808,31.552],[121.862,31.492],[121.780,31.463],[121.519,31.549],[121.336,31.643],[121.211,31.805]]],[[[120.072,23.149],[120.142,23.397],[120.132,23.652],[120.629,24.478],[120.836,24.723],[121.040,25.032],[121.362,25.158],[121.439,25.238],[121.212,24.801],[120.838,24.369],[120.724,24.019],[120.512,23.622],[120.304,23.355],[120.072,23.149]]],[[[121.131,28.062],[121.134,28.135],[121.205,28.204],[121.250,28.145],[121.251,28.086],[121.131,28.062]]],[[[119.696,25.590],[119.722,25.638],[119.777,25.653],[119.838,25.591],[119.813,25.510],[119.832,25.479],[119.746,25.410],[119.700,25.432],[119.720,25.548],[119.696,25.590]]],[[[118.287,24.476],[118.340,24.471],[118.407,24.522],[118.451,24.455],[118.432,24.414],[118.295,24.436],[118.287,24.476]]],[[[118.076,24.501],[118.103,24.552],[118.182,24.496],[118.149,24.436],[118.090,24.446],[118.076,24.501]]],[[[112.712,21.697],[112.782,21.772],[112.862,21.752],[112.802,21.697],[112.771,21.581],[112.712,21.697]]],[[[112.525,21.623],[112.559,21.674],[112.647,21.710],[112.643,21.639],[112.525,21.623]]],[[[108.650,19.265],[108.790,19.417],[109.233,19.722],[109.232,19.753],[109.177,19.768],[109.219,19.843],[109.314,19.904],[109.509,19.903],[109.584,19.970],[109.651,19.984],[109.905,19.962],[110.078,19.992],[110.172,20.053],[110.371,20.017],[110.394,20.059],[110.571,19.987],[110.598,20.097],[110.652,20.137],[110.808,20.015],[110.888,19.991],[110.970,19.882],[111.013,19.655],[110.820,19.555],[110.641,19.292],[110.571,19.169],[110.451,18.747],[110.399,18.698],[110.251,18.655],[110.064,18.514],[110.067,18.447],[110.020,18.416],[109.814,18.395],[109.680,18.247],[109.519,18.218],[109.342,18.299],[109.029,18.367],[108.701,18.535],[108.638,18.866],[108.650,19.265]]],[[[107.546,21.229],[107.564,21.220],[107.602,21.216],[107.556,21.176],[107.546,21.229]]]]}},{"type":"Feature","properties":{"focus":true,"kind":"state","approx":true,"color":"#6a5a9c","name":"Western Wei","name_zh":"西魏","label":[106.09,37.76],"area":107.0},"geometry":{"type":"Polygon","coordinates":[[[96.451,38.654],[96.421,38.661],[96.030,38.292],[95.743,38.111],[95.327,37.938],[94.885,37.851],[94.434,37.851],[93.992,37.939],[93.575,38.111],[93.200,38.362],[92.881,38.681],[92.631,39.056],[92.458,39.472],[92.371,39.914],[92.371,40.365],[92.459,40.807],[92.631,41.224],[92.882,41.599],[93.201,41.918],[93.576,42.168],[93.992,42.341],[94.546,42.437],[94.885,42.428],[95.218,42.371],[95.539,42.265],[95.842,42.112],[96.118,41.918],[96.364,41.684],[96.723,41.174],[97.221,41.612],[97.725,41.865],[98.051,41.955],[98.386,41.997],[98.948,41.955],[99.275,41.865],[99.682,41.672],[99.959,41.477],[100.228,41.220],[100.563,41.227],[100.898,41.185],[101.433,41.009],[101.727,40.842],[101.994,40.634],[102.374,40.192],[102.937,40.175],[103.479,40.025],[103.878,39.812],[104.320,39.437],[104.655,39.804],[105.115,40.128],[105.532,40.301],[106.047,40.400],[106.002,41.013],[106.044,41.348],[106.134,41.675],[106.271,41.984],[106.452,42.270],[106.673,42.526],[106.930,42.747],[107.420,43.025],[107.740,43.131],[108.074,43.188],[108.637,43.175],[109.179,43.025],[109.482,42.872],[109.740,42.692],[109.936,39.670],[110.030,39.592],[110.732,38.751],[110.725,37.956],[110.835,37.690],[110.413,35.995],[111.461,35.030],[111.314,33.947],[111.370,33.775],[111.099,32.929],[110.538,32.259],[108.782,32.572],[108.681,32.555],[107.550,34.285],[106.874,34.280],[106.318,33.806],[106.071,32.611],[105.262,32.357],[103.116,33.136],[103.090,33.301],[102.640,33.368],[102.176,33.540],[101.829,35.161],[102.800,36.520],[102.826,36.864],[101.252,37.832],[100.813,37.584],[99.078,38.309],[97.992,37.884],[96.920,38.029],[96.652,38.329],[96.451,38.654]]]}}]}