{"type":"FeatureCollection","features":[{"type":"Feature","properties":{"name":"Simhala","name_zh":"","focus":false,"label":[80.73,7.62],"area":5.0,"color":"#6f9460"},"geometry":{"type":"Polygon","coordinates":[[[80.341,5.969],[80.222,6.058],[80.127,6.216],[79.854,7.061],[79.832,8.103],[79.724,8.416],[79.808,8.647],[79.674,8.804],[79.705,8.930],[79.896,8.920],[80.052,9.113],[80.076,9.279],[80.178,9.445],[80.109,9.686],[80.347,9.470],[80.662,9.299],[81.093,8.626],[81.060,8.410],[81.326,8.258],[81.445,7.928],[81.804,7.313],[81.866,7.084],[81.779,6.753],[81.599,6.448],[81.202,6.079],[80.851,5.951],[80.341,5.969]]]}},{"type":"Feature","properties":{"name":"Parthia","name_zh":"","focus":false,"label":[60.38,34.85],"area":5.8,"color":"#6f9460"},"geometry":{"type":"Polygon","coordinates":[[[60.340,35.982],[60.546,35.090],[60.958,34.610],[61.301,32.826],[60.615,31.316],[60.0,31.246],[60.0,38.212],[61.164,37.698],[60.340,35.982]]]}},{"type":"Feature","properties":{"name":"Bactria","name_zh":"大夏","focus":false,"label":[67.87,33.24],"area":163.6,"color":"#a3727a"},"geometry":{"type":"Polygon","coordinates":[[[72.486,40.237],[73.584,40.031],[77.770,40.031],[77.839,39.619],[76.604,38.727],[74.751,36.531],[74.227,34.178],[74.750,33.655],[74.139,32.608],[70.287,31.287],[67.387,28.226],[66.432,25.488],[66.300,25.494],[65.768,25.309],[64.851,25.205],[64.424,25.173],[64.238,25.210],[64.059,25.401],[63.650,25.336],[63.403,25.164],[62.449,25.162],[61.813,25.053],[61.343,25.026],[60.858,25.095],[60.479,25.298],[60.0,25.322],[60.0,27.860],[60.340,27.885],[60.683,28.640],[60.203,29.806],[60.615,31.316],[61.301,32.826],[60.958,34.610],[60.546,35.090],[60.340,35.982],[61.164,37.698],[66.310,39.757],[72.280,40.992],[72.486,40.237]]]}},{"type":"Feature","properties":{"name":"Iron Age chieftainships","name_zh":"","focus":false,"label":[77.82,10.95],"area":12.8,"color":"#5f87a3"},"geometry":{"type":"Polygon","coordinates":[[[75.643,13.543],[76.878,11.347],[77.427,11.347],[77.908,11.964],[79.922,12.106],[79.769,11.730],[79.710,11.444],[79.826,10.358],[79.789,10.250],[79.306,10.255],[79.222,10.192],[79.072,9.759],[78.926,9.492],[78.937,9.435],[79.159,9.277],[78.313,8.995],[78.181,8.811],[78.135,8.499],[78.064,8.385],[77.484,8.028],[77.341,8.053],[76.703,8.706],[76.537,9.118],[76.385,9.747],[76.075,10.553],[75.651,11.423],[75.210,12.102],[74.733,13.683],[74.421,14.375],[75.643,13.543]]]}},{"type":"Feature","properties":{"name":"Mauryan Empire","name_zh":"孔雀帝国","focus":false,"label":[75.97,22.51],"area":247.7,"color":"#4f8f86"},"geometry":{"type":"Polygon","coordinates":[[[86.926,20.691],[86.637,20.319],[86.632,20.203],[86.119,19.806],[85.379,19.605],[85.113,19.442],[84.262,18.455],[83.987,18.207],[83.684,18.083],[83.381,17.710],[82.353,17.085],[82.234,16.647],[82.081,16.462],[81.788,16.328],[81.596,16.302],[81.369,16.346],[81.253,16.225],[81.087,15.826],[80.963,15.723],[80.735,15.837],[80.459,15.773],[80.300,15.645],[80.089,15.175],[80.169,13.891],[80.075,13.669],[80.319,13.333],[80.313,13.104],[79.922,12.106],[77.908,11.964],[77.427,11.347],[76.878,11.347],[75.643,13.543],[74.421,14.375],[73.841,15.390],[73.572,16.037],[73.064,18.031],[72.853,19.244],[72.759,20.057],[72.864,20.311],[73.109,20.687],[73.112,20.827],[72.931,20.953],[72.765,21.150],[72.665,21.848],[72.695,22.128],[72.319,22.115],[72.232,22.019],[72.127,21.828],[72.131,21.746],[72.288,21.549],[72.256,21.352],[72.120,21.155],[71.894,20.989],[71.024,20.657],[70.855,20.650],[70.467,20.777],[70.209,20.947],[69.126,21.968],[68.894,22.285],[69.492,22.248],[69.968,22.351],[70.176,22.478],[70.410,22.752],[70.380,22.860],[70.045,22.777],[69.664,22.789],[69.107,22.898],[68.790,23.028],[68.372,23.326],[68.072,23.675],[68.046,23.764],[67.692,23.814],[67.486,23.928],[67.315,24.092],[67.204,24.588],[67.153,24.651],[66.654,24.783],[66.700,25.114],[66.620,25.317],[66.432,25.488],[67.387,28.226],[70.287,31.287],[74.139,32.608],[74.750,33.655],[76.604,31.041],[78.868,29.326],[81.956,27.816],[86.181,26.413],[87.926,26.064],[89.758,25.976],[91.591,26.587],[93.074,26.849],[93.772,26.500],[93.685,25.715],[93.423,25.017],[92.085,23.168],[91.571,22.543],[91.410,22.720],[91.081,22.561],[90.0,22.560],[90.0,21.930],[89.869,22.133],[89.796,21.832],[89.670,21.719],[89.578,21.700],[89.456,21.941],[89.233,21.655],[89.072,21.774],[88.994,21.629],[89.025,21.546],[88.880,21.514],[88.723,21.539],[88.656,21.857],[88.567,21.895],[88.377,21.577],[88.299,21.551],[88.053,21.938],[87.867,21.696],[87.640,21.563],[86.937,21.288],[86.818,21.186],[86.844,20.875],[86.926,20.691]],[[81.726,22.601],[81.905,21.709],[81.816,21.091],[79.840,19.170],[79.486,18.209],[80.241,17.386],[81.339,17.180],[84.976,20.679],[86.485,21.434],[86.485,21.846],[85.138,23.013],[83.522,23.630],[82.175,23.356],[81.726,22.601]]]}},{"type":"Feature","properties":{"name":"Ainu","name_zh":"","focus":false,"label":[143.26,43.52],"area":18.1,"color":"#7272a8"},"geometry":{"type":"MultiPolygon","coordinates":[[[[140.099,41.945],[139.852,42.035],[139.777,42.112],[139.711,42.477],[139.973,42.651],[140.499,42.896],[140.516,43.057],[140.373,43.185],[140.498,43.320],[140.598,43.326],[140.896,43.134],[141.064,43.096],[141.303,43.187],[141.301,43.720],[141.709,43.914],[141.745,44.628],[141.566,44.969],[141.522,45.182],[141.597,45.279],[141.875,45.435],[143.020,44.463],[143.790,44.027],[144.613,43.842],[144.750,43.881],[145.139,44.178],[145.347,44.243],[145.059,43.785],[145.448,43.169],[144.994,42.937],[144.754,42.866],[144.590,42.859],[144.370,42.949],[144.166,42.942],[144.002,42.877],[143.508,42.420],[143.330,42.196],[143.213,41.926],[143.033,41.958],[141.928,42.501],[141.721,42.539],[141.396,42.519],[140.929,42.255],[140.860,42.390],[140.693,42.550],[140.540,42.537],[140.223,42.363],[140.245,42.228],[140.767,42.005],[141.155,41.749],[140.979,41.652],[140.588,41.677],[140.268,41.324],[140.112,41.273],[140.012,41.381],[139.977,41.503],[140.124,41.792],[140.099,41.945]]],[[[146.124,43.459],[146.080,43.518],[146.226,43.525],[146.205,43.481],[146.124,43.459]]],[[[146.904,43.839],[146.655,43.704],[146.598,43.732],[146.599,43.793],[146.842,43.874],[146.904,43.839]]],[[[146.344,44.421],[146.568,44.438],[146.508,44.358],[146.102,44.243],[145.930,44.119],[145.779,43.928],[145.595,43.858],[145.554,43.650],[145.437,43.716],[145.409,43.835],[145.744,44.051],[146.127,44.507],[146.344,44.421]]],[[[148.582,45.316],[148.265,45.213],[147.868,44.971],[147.762,44.938],[147.620,44.966],[147.585,44.918],[147.622,44.897],[147.548,44.812],[147.291,44.666],[147.209,44.550],[147.021,44.507],[146.948,44.408],[146.840,44.415],[146.846,44.476],[147.153,44.673],[147.111,44.793],[147.479,44.974],[147.504,45.043],[147.656,45.075],[147.763,45.189],[147.894,45.223],[147.856,45.356],[147.932,45.421],[148.000,45.273],[148.069,45.248],[148.321,45.270],[148.700,45.520],[148.856,45.474],[148.825,45.334],[148.582,45.316]]],[[[149.437,45.583],[149.667,45.850],[149.856,45.923],[150.0,46.045],[150.0,45.831],[149.684,45.633],[149.437,45.583]]],[[[142.944,51.961],[142.943,51.617],[143.074,51.267],[143.340,50.885],[143.633,50.234],[144.038,49.508],[144.539,48.753],[143.598,49.233],[143.152,49.258],[142.853,49.127],[142.646,48.657],[142.489,47.901],[142.614,47.459],[142.993,46.953],[143.236,46.863],[143.444,46.571],[143.303,46.011],[143.004,46.577],[142.614,46.712],[142.513,46.699],[142.327,46.563],[141.898,45.914],[141.708,46.139],[141.622,46.558],[141.909,47.073],[141.731,47.471],[141.810,47.675],[142.036,47.959],[141.977,48.284],[141.739,48.807],[141.921,48.943],[142.049,49.354],[142.152,50.890],[142.112,51.219],[142.016,51.430],[141.643,51.813],[141.598,52.216],[141.811,52.628],[141.840,52.960],[141.689,53.165],[141.767,53.272],[142.214,53.299],[142.674,53.540],[142.863,53.340],[143.056,53.061],[143.138,52.856],[143.143,52.511],[143.033,52.312],[142.944,51.961]]]]}},{"type":"Feature","properties":{"name":"Paleo-Siberian hunter-gatherers","name_zh":"","focus":false,"label":[126.85,54.02],"area":224.3,"color":"#7d6b5a","nolabel":true},"geometry":{"type":"MultiPolygon","coordinates":[[[[139.293,57.336],[138.345,56.804],[137.229,55.982],[136.521,55.589],[135.269,55.028],[134.985,54.853],[134.893,54.719],[134.902,54.559],[135.094,54.432],[135.312,54.413],[135.725,54.407],[136.196,54.474],[136.491,54.455],[136.343,53.887],[136.350,53.701],[136.487,53.654],[136.770,53.695],[137.040,53.862],[137.382,53.809],[137.121,53.589],[137.071,53.489],[137.239,53.456],[137.979,53.464],[138.234,53.571],[138.409,53.805],[138.416,54.091],[139.378,54.080],[139.805,53.961],[140.102,53.801],[140.321,53.535],[141.121,53.051],[141.089,52.985],[140.828,52.825],[141.047,52.689],[134.869,52.009],[127.335,49.977],[119.935,51.257],[116.706,54.659],[114.867,58.0],[140.347,58.0],[140.028,57.644],[139.293,57.336]]],[[[99.537,55.281],[93.700,56.484],[78.362,56.410],[65.311,55.046],[60.0,56.229],[60.0,56.559],[62.805,56.955],[65.855,58.0],[104.256,58.0],[99.485,55.658],[99.537,55.281]]]]}},{"type":"Feature","properties":{"name":"Finno-Ugric taiga hunter-gatherers","name_zh":"","focus":false,"label":[62.17,57.48],"area":5.1,"color":"#5f87a3","nolabel":true},"geometry":{"type":"Polygon","coordinates":[[[62.805,56.955],[60.0,56.559],[60.0,58.0],[65.855,58.0],[62.805,56.955]]]}},{"type":"Feature","properties":{"name":"Xiongnu","name_zh":"匈奴","focus":false,"label":[109.94,44.16],"area":375.7,"color":"#a3727a"},"geometry":{"type":"Polygon","coordinates":[[[94.984,41.223],[85.413,48.359],[95.824,51.177],[107.073,50.966],[124.200,50.327],[131.084,46.195],[125.879,41.475],[122.500,41.809],[120.472,41.682],[118.546,41.425],[113.317,41.595],[109.082,42.117],[107.621,42.090],[107.209,41.747],[106.798,39.139],[106.043,37.561],[94.984,41.223]]]}},{"type":"Feature","properties":{"name":"Qiang and southwestern peoples","name_zh":"羌 · 西南夷","focus":false,"label":[101.8,26.24],"area":224.5,"color":"#b0805f"},"geometry":{"type":"Polygon","coordinates":[[[101.651,29.532],[101.582,28.708],[102.131,28.022],[105.082,28.022],[108.170,27.542],[109.611,26.581],[110.846,24.865],[111.257,22.838],[106.866,22.670],[105.768,22.395],[104.945,22.052],[104.670,21.503],[104.739,20.542],[105.843,19.702],[105.556,18.903],[94.272,18.516],[93.965,19.194],[93.839,18.952],[93.457,19.174],[93.814,19.257],[93.723,19.594],[93.334,20.025],[93.065,19.992],[92.894,20.113],[92.926,20.348],[93.114,20.591],[92.901,21.608],[92.041,23.115],[91.571,22.543],[92.085,23.168],[93.423,25.017],[93.685,25.715],[93.772,26.500],[93.074,26.849],[91.591,26.587],[89.758,25.976],[87.926,26.064],[86.181,26.413],[83.244,27.388],[83.645,30.174],[103.444,33.635],[101.651,29.532]]]}},{"type":"Feature","properties":{"name":"Mon-Khmer","name_zh":"","focus":false,"label":[105.89,11.94],"area":94.2,"color":"#9a8a4a"},"geometry":{"type":"Polygon","coordinates":[[[105.556,18.903],[105.532,18.844],[106.364,18.007],[106.433,17.550],[106.622,17.328],[107.114,16.954],[107.809,16.282],[108.095,16.251],[108.236,16.080],[108.363,15.623],[108.498,15.363],[108.786,15.090],[108.917,14.792],[109.071,14.170],[109.307,12.906],[109.068,12.486],[109.061,11.590],[108.897,11.342],[108.695,11.145],[108.164,10.966],[107.938,10.806],[107.672,10.526],[107.412,10.367],[107.265,10.347],[107.035,10.436],[106.773,10.639],[106.704,10.448],[106.748,10.067],[106.656,9.743],[106.482,9.552],[106.335,9.520],[106.229,9.551],[106.118,9.335],[105.926,9.188],[105.503,9.029],[105.208,8.653],[105.025,8.519],[104.907,8.474],[104.742,8.493],[104.822,9.472],[104.890,9.694],[104.987,9.822],[104.978,9.980],[104.764,10.177],[104.427,10.284],[104.160,10.519],[104.003,10.537],[103.830,10.473],[103.606,10.473],[103.524,10.524],[103.670,10.765],[103.652,10.880],[103.524,11.057],[103.400,11.038],[103.192,10.904],[103.039,10.897],[102.962,11.367],[102.658,12.066],[102.529,12.148],[102.323,12.186],[101.918,12.585],[101.586,12.661],[101.329,12.558],[101.023,12.672],[100.871,12.678],[100.956,13.364],[100.908,13.447],[100.473,13.509],[100.239,13.490],[100.040,13.394],[99.930,13.261],[100.023,12.994],[99.833,12.523],[99.895,12.079],[99.186,10.489],[99.071,9.898],[99.118,9.371],[99.298,9.161],[99.724,9.257],[99.837,9.226],[99.898,9.067],[99.865,8.711],[100.009,8.490],[100.131,8.532],[100.301,7.886],[100.344,7.440],[100.539,7.048],[100.614,6.978],[100.975,6.852],[101.217,6.802],[101.427,6.828],[101.559,6.739],[101.679,6.464],[102.089,6.143],[102.325,6.099],[102.802,5.560],[103.212,5.0],[100.393,5.0],[100.139,6.177],[100.221,6.520],[100.154,6.603],[99.969,6.507],[99.833,6.538],[99.662,6.710],[99.610,6.938],[99.639,7.065],[99.571,7.262],[99.468,7.338],[99.293,7.319],[99.024,7.871],[98.544,8.264],[98.292,8.155],[98.195,8.327],[98.177,8.600],[98.250,8.937],[98.632,10.100],[98.431,10.201],[98.397,10.563],[98.605,10.862],[98.738,11.435],[98.867,11.645],[98.590,11.695],[98.588,11.822],[98.676,12.051],[98.596,12.737],[98.485,13.111],[98.198,13.644],[97.822,14.616],[97.573,16.445],[97.351,16.527],[97.214,16.939],[96.881,17.345],[96.770,17.332],[96.734,16.887],[96.662,16.697],[96.469,16.512],[95.713,16.155],[95.552,15.875],[95.329,15.677],[95.222,15.804],[95.220,16.001],[95.124,15.995],[94.972,15.835],[94.828,15.842],[94.753,15.937],[94.819,16.210],[94.415,16.076],[94.304,15.948],[94.144,16.005],[94.143,16.215],[94.392,16.908],[94.464,17.264],[94.420,18.140],[94.272,18.516],[105.556,18.903]]]}},{"type":"Feature","properties":{"name":"Malays","name_zh":"","focus":false,"label":[120.59,15.69],"area":23.3,"color":"#4f8f86"},"geometry":{"type":"MultiPolygon","coordinates":[[[[114.853,5.015],[114.849,5.0],[114.799,5.0],[114.853,5.015]]],[[[95.283,5.550],[95.464,5.569],[95.627,5.525],[96.024,5.215],[96.187,5.145],[96.752,5.064],[97.384,5.180],[97.561,5.0],[95.293,5.0],[95.190,5.410],[95.283,5.550]]],[[[115.291,5.453],[115.717,5.467],[115.787,5.740],[115.970,5.881],[116.098,6.097],[116.337,6.358],[116.595,6.899],[116.740,6.689],[116.889,6.645],[117.031,6.836],[117.168,6.614],[117.507,6.392],[117.540,6.240],[117.353,5.877],[117.370,5.788],[117.866,5.904],[117.918,5.802],[117.761,5.580],[118.256,5.663],[118.377,5.638],[118.997,5.277],[119.042,5.169],[118.908,5.0],[115.432,5.0],[115.417,5.111],[115.203,5.275],[115.291,5.453]]],[[[118.088,9.431],[118.508,9.921],[118.557,9.673],[118.504,9.482],[118.384,9.349],[117.967,9.113],[117.857,8.833],[117.710,8.712],[117.444,8.635],[117.270,8.450],[117.127,8.469],[117.378,8.895],[118.088,9.431]]],[[[119.108,10.627],[119.207,11.129],[119.353,11.212],[119.416,11.130],[119.344,11.002],[119.564,10.501],[118.864,10.023],[118.699,10.035],[118.756,10.169],[118.847,10.214],[118.989,10.392],[119.108,10.627]]],[[[120.340,13.387],[121.039,13.407],[121.180,13.332],[121.304,13.129],[121.316,12.741],[121.273,12.525],[121.094,12.201],[120.733,12.549],[120.546,13.152],[120.340,13.387]]],[[[125.280,6.593],[125.465,6.244],[125.532,5.939],[125.461,5.717],[125.289,5.488],[125.072,5.722],[125.163,5.907],[125.129,6.053],[124.965,6.084],[124.803,5.785],[124.224,6.089],[123.973,6.336],[123.880,6.565],[123.864,6.851],[124.073,7.258],[124.024,7.474],[123.815,7.658],[123.464,7.790],[123.333,7.771],[123.247,7.593],[123.022,7.478],[122.725,7.452],[122.713,7.674],[122.635,7.782],[122.455,7.693],[121.991,6.872],[121.839,6.967],[121.824,7.056],[122.093,7.775],[122.211,7.902],[122.384,7.985],[122.637,8.004],[122.736,8.062],[122.796,8.272],[122.888,8.342],[123.135,8.450],[123.485,8.496],[123.616,8.337],[123.662,8.013],[123.805,8.083],[124.023,8.109],[124.117,8.192],[124.210,8.446],[124.371,8.561],[124.670,8.428],[124.741,8.918],[124.872,8.924],[124.990,8.715],[125.224,8.995],[125.401,8.951],[125.460,9.053],[125.439,9.370],[125.362,9.624],[125.428,9.783],[125.933,9.174],[126.037,8.958],[126.074,8.812],[125.923,8.482],[126.029,8.380],[126.271,8.425],[126.306,8.235],[126.254,8.044],[126.279,7.733],[126.372,7.536],[126.372,7.339],[126.321,7.148],[126.045,6.608],[125.954,6.652],[125.910,6.849],[125.747,7.185],[125.614,7.236],[125.280,6.593]]],[[[122.700,10.031],[122.920,10.851],[123.117,10.934],[123.239,10.922],[123.312,10.738],[123.104,10.229],[122.962,9.594],[123.132,9.251],[123.037,9.066],[122.941,9.047],[122.395,9.478],[122.303,9.649],[122.347,9.815],[122.602,9.910],[122.700,10.031]]],[[[122.470,11.454],[122.635,11.442],[122.919,11.525],[122.896,11.150],[122.706,10.940],[122.297,10.647],[121.873,10.468],[121.993,11.758],[122.210,11.580],[122.470,11.454]]],[[[124.875,11.834],[124.330,12.208],[124.264,12.417],[124.952,12.527],[125.119,12.476],[125.246,12.292],[125.333,11.562],[125.448,11.206],[125.398,11.149],[125.323,11.123],[125.069,11.244],[124.883,11.434],[124.854,11.491],[124.916,11.643],[124.875,11.834]]],[[[119.681,16.187],[119.762,16.359],[120.202,16.042],[120.293,16.233],[120.246,16.874],[120.311,17.071],[120.393,18.043],[120.564,18.431],[120.800,18.552],[121.036,18.527],[121.580,18.294],[121.839,18.275],[122.049,18.447],[122.139,18.384],[122.147,18.206],[122.027,18.009],[122.007,17.793],[122.070,17.437],[122.313,17.260],[122.395,17.114],[122.203,16.542],[122.063,16.332],[121.402,15.873],[121.368,15.498],[121.242,15.307],[121.456,14.882],[121.728,14.108],[121.973,13.949],[122.106,13.918],[122.397,14.306],[122.486,14.319],[122.674,14.269],[122.776,14.174],[122.856,13.888],[122.985,13.729],[123.131,13.692],[123.359,13.952],[123.701,13.820],[123.736,13.763],[123.397,13.527],[123.818,12.975],[123.676,12.892],[123.238,13.025],[123.196,13.241],[123.093,13.380],[122.485,13.881],[122.369,13.880],[122.325,13.779],[122.491,13.430],[122.394,13.302],[122.067,13.651],[121.624,13.898],[121.486,13.891],[121.331,13.827],[121.187,13.681],[121.009,13.655],[120.598,13.921],[120.510,14.112],[120.798,14.385],[121.104,14.253],[121.285,14.342],[121.217,14.418],[120.896,14.551],[120.706,14.728],[120.471,14.804],[120.363,14.530],[119.971,14.904],[119.771,15.469],[119.812,15.978],[119.681,16.187]]]]}},{"type":"Feature","properties":{"name":"Seleucid Kingdom","name_zh":"","focus":false,"label":[60.22,29.22],"area":1.5,"color":"#7d6b5a"},"geometry":{"type":"Polygon","coordinates":[[[60.615,31.316],[60.203,29.806],[60.683,28.640],[60.340,27.885],[60.0,27.860],[60.0,31.246],[60.615,31.316]]]}},{"type":"Feature","properties":{"name":"Yuezhi","name_zh":"月氏","focus":false,"label":[89.2,39.17],"area":272.0,"color":"#b0805f"},"geometry":{"type":"Polygon","coordinates":[[[94.984,41.223],[106.043,37.561],[105.151,37.629],[104.396,37.218],[104.396,37.012],[104.670,36.806],[104.739,36.600],[103.444,33.635],[83.645,30.174],[84.397,35.394],[80.534,36.167],[75.599,37.537],[76.604,38.727],[77.839,39.619],[77.770,40.031],[73.584,40.031],[72.486,40.237],[72.280,40.992],[75.977,42.094],[81.846,43.310],[85.558,46.885],[84.341,48.408],[85.480,48.309],[94.984,41.223]]]}},{"type":"Feature","properties":{"name":"Scythians","name_zh":"塞种","focus":false,"label":[72.0,48.83],"area":291.4,"color":"#8a6f9e"},"geometry":{"type":"MultiPolygon","coordinates":[[[[60.114,45.689],[60.017,45.658],[60.0,45.648],[60.0,45.706],[60.114,45.689]]],[[[60.211,46.287],[60.822,46.243],[60.824,46.213],[60.785,46.151],[60.605,46.126],[60.478,46.204],[60.300,46.163],[60.0,46.210],[60.0,46.497],[60.211,46.287]]],[[[64.340,54.867],[82.448,50.779],[85.558,46.885],[81.846,43.310],[75.977,42.094],[72.280,40.992],[66.310,39.757],[61.164,37.698],[60.0,38.212],[60.0,43.621],[60.076,43.608],[60.943,44.441],[61.109,44.716],[61.727,44.933],[61.861,45.048],[61.174,45.187],[61.020,45.487],[61.040,45.738],[60.998,45.921],[61.034,46.014],[60.998,46.077],[61.119,46.103],[61.368,46.355],[61.654,46.768],[61.465,46.766],[61.249,46.611],[60.938,46.489],[60.799,46.568],[60.783,46.632],[60.858,46.697],[60.842,46.773],[60.657,46.821],[60.503,46.805],[60.523,46.727],[60.728,46.676],[60.725,46.625],[60.604,46.578],[60.501,46.611],[60.429,46.528],[60.270,46.699],[60.073,46.618],[60.0,46.514],[60.0,56.229],[64.862,55.146],[64.745,54.775],[64.340,54.867]]]]}},{"type":"Feature","properties":{"name":"Turcik tribes","name_zh":"丁零","focus":false,"label":[95.56,52.96],"area":285.6,"color":"#7272a8"},"geometry":{"type":"Polygon","coordinates":[[[84.341,48.408],[82.448,50.779],[64.745,54.775],[64.862,55.146],[65.311,55.046],[78.362,56.410],[93.700,56.484],[99.537,55.281],[99.485,55.658],[104.256,58.0],[114.867,58.0],[116.706,54.659],[119.935,51.257],[124.133,50.531],[123.991,50.335],[107.073,50.966],[95.824,51.177],[85.413,48.359],[85.480,48.309],[84.341,48.408]]]}},{"type":"Feature","properties":{"name":"Tungus","name_zh":"靺鞨","focus":false,"label":[131.41,43.4],"area":116.6,"color":"#9a8a4a"},"geometry":{"type":"MultiPolygon","coordinates":[[[[126.843,33.308],[126.266,33.190],[126.158,33.314],[126.317,33.452],[126.633,33.531],[126.821,33.550],[126.941,33.453],[126.843,33.308]]],[[[126.106,34.387],[126.243,34.573],[126.380,34.494],[126.342,34.401],[126.186,34.351],[126.106,34.387]]],[[[125.914,34.685],[125.981,34.716],[126.008,34.691],[125.971,34.647],[125.914,34.685]]],[[[126.005,34.768],[125.932,34.718],[125.888,34.732],[125.908,34.772],[126.005,34.768]]],[[[125.986,34.860],[126.062,34.928],[126.094,34.909],[126.063,34.854],[125.986,34.860]]],[[[126.059,35.090],[126.137,35.142],[126.162,35.143],[126.106,35.046],[126.059,35.090]]],[[[126.335,36.438],[126.324,36.565],[126.376,36.590],[126.431,36.403],[126.335,36.438]]],[[[126.166,36.839],[126.163,36.824],[126.158,36.833],[126.166,36.839]]],[[[124.615,37.968],[124.718,37.983],[124.746,37.954],[124.651,37.914],[124.615,37.968]]],[[[126.648,34.320],[126.694,34.389],[126.774,34.286],[126.700,34.284],[126.648,34.320]]],[[[127.114,34.463],[127.213,34.485],[127.245,34.465],[127.160,34.414],[127.114,34.463]]],[[[127.711,34.526],[127.770,34.538],[127.798,34.484],[127.780,34.474],[127.711,34.526]]],[[[127.739,34.604],[127.768,34.664],[127.812,34.641],[127.799,34.572],[127.739,34.604]]],[[[128.055,34.813],[128.060,34.701],[127.977,34.697],[127.860,34.719],[127.822,34.843],[127.898,34.933],[127.956,34.800],[128.055,34.813]]],[[[128.741,34.781],[128.585,34.703],[128.597,34.834],[128.526,34.805],[128.490,34.868],[128.711,34.976],[128.741,34.781]]],[[[127.997,34.835],[128.024,34.913],[128.085,34.830],[127.997,34.835]]],[[[130.805,37.513],[130.919,37.545],[130.922,37.481],[130.868,37.450],[130.805,37.513]]],[[[126.410,37.593],[126.364,37.720],[126.371,37.629],[126.209,37.754],[125.909,37.511],[125.741,37.784],[125.561,37.835],[125.269,37.484],[125.076,37.770],[124.769,37.935],[124.693,38.139],[124.736,38.279],[124.929,38.464],[125.268,38.567],[125.293,38.688],[125.027,38.815],[125.296,39.364],[125.206,39.485],[124.922,39.618],[124.688,39.605],[124.548,39.541],[124.442,39.573],[124.208,39.738],[124.104,39.884],[124.091,41.266],[123.747,41.678],[125.879,41.475],[131.084,46.195],[124.200,50.327],[123.991,50.335],[124.133,50.531],[127.335,49.977],[134.869,52.009],[141.047,52.689],[141.090,52.586],[140.939,52.261],[141.160,52.209],[141.257,52.103],[141.126,51.871],[140.730,51.441],[140.404,50.827],[140.323,50.517],[140.456,50.103],[140.328,49.357],[140.081,48.502],[139.213,47.810],[139.046,47.615],[138.949,47.322],[138.351,46.873],[137.984,46.269],[137.720,45.996],[136.494,44.966],[136.033,44.398],[135.414,44.036],[134.962,43.515],[134.568,43.212],[134.138,42.992],[132.952,42.669],[132.827,42.861],[132.484,42.880],[132.333,42.963],[132.181,43.194],[131.674,43.026],[131.865,43.290],[131.584,43.212],[131.064,42.749],[129.824,41.861],[129.641,41.655],[129.590,41.469],[129.631,41.277],[129.477,40.682],[129.177,40.630],[128.446,40.065],[128.236,39.969],[127.931,39.956],[127.671,39.866],[127.440,39.623],[127.276,39.221],[127.404,39.075],[128.269,38.420],[128.303,38.583],[128.363,38.625],[128.634,38.125],[129.063,37.668],[129.433,37.058],[129.416,36.942],[129.473,36.710],[129.416,36.616],[129.450,36.500],[129.381,36.314],[129.386,36.036],[129.457,35.993],[129.557,36.078],[129.588,36.007],[129.466,35.537],[129.237,35.189],[129.136,35.112],[128.978,35.084],[128.973,35.134],[128.810,35.084],[128.572,35.169],[128.378,35.036],[128.372,35.004],[128.477,35.053],[128.501,35.008],[128.434,34.834],[128.335,34.871],[128.329,34.949],[128.216,34.930],[128.203,34.888],[128.066,34.924],[128.020,34.986],[127.767,34.960],[127.643,34.900],[127.593,34.941],[127.576,34.886],[127.638,34.814],[127.773,34.843],[127.747,34.727],[127.634,34.614],[127.554,34.656],[127.567,34.766],[127.522,34.856],[127.418,34.818],[127.363,34.751],[127.514,34.591],[127.389,34.471],[127.315,34.443],[127.124,34.537],[127.201,34.633],[127.192,34.569],[127.242,34.569],[127.328,34.652],[127.328,34.743],[127.009,34.602],[126.889,34.412],[126.800,34.463],[126.783,34.587],[126.600,34.300],[126.478,34.345],[126.463,34.484],[126.288,34.590],[126.289,34.742],[126.451,34.578],[126.451,34.648],[126.618,34.619],[126.476,34.724],[126.659,34.812],[126.539,34.873],[126.510,34.775],[126.375,34.785],[126.433,34.963],[126.318,34.932],[126.249,35.116],[126.344,35.151],[126.359,35.069],[126.431,35.023],[126.458,35.090],[126.360,35.180],[126.421,35.406],[126.523,35.524],[126.687,35.533],[126.664,35.591],[126.498,35.578],[126.474,35.635],[126.751,35.778],[126.801,35.861],[126.788,35.894],[126.615,35.890],[126.631,35.967],[126.761,35.995],[126.872,36.054],[126.685,35.999],[126.544,36.136],[126.464,36.574],[126.527,36.592],[126.497,36.723],[126.347,36.739],[126.293,36.581],[126.272,36.717],[126.172,36.672],[126.128,36.751],[126.191,36.819],[126.184,36.878],[126.291,36.962],[126.321,36.884],[126.289,36.785],[126.401,36.851],[126.413,36.933],[126.348,36.952],[126.355,36.996],[126.442,36.999],[126.483,36.842],[126.502,37.052],[126.619,36.972],[126.781,36.963],[126.838,36.753],[127.000,36.929],[126.908,36.919],[126.752,37.048],[126.776,37.123],[126.869,37.176],[126.694,37.121],[126.661,37.156],[126.661,37.253],[126.865,37.266],[126.722,37.328],[126.741,37.386],[126.656,37.411],[126.621,37.481],[126.674,37.488],[126.652,37.566],[126.540,37.676],[126.513,37.597],[126.410,37.593]]]]}},{"type":"Feature","properties":{"name":"Zhangzhung Kingdom","name_zh":"象雄","focus":false,"label":[79.82,32.35],"area":64.0,"color":"#4f8f86"},"geometry":{"type":"Polygon","coordinates":[[[80.534,36.167],[84.397,35.394],[83.244,27.388],[81.956,27.816],[78.868,29.326],[76.604,31.041],[74.750,33.655],[74.227,34.178],[74.751,36.531],[75.599,37.537],[80.534,36.167]]]}},{"type":"Feature","properties":{"name":"Arakan","name_zh":"","focus":false,"label":[92.34,21.76],"area":2.1,"color":"#8a6f9e"},"geometry":{"type":"Polygon","coordinates":[[[92.901,21.608],[93.114,20.591],[92.926,20.348],[92.827,20.424],[92.662,20.404],[92.403,20.613],[92.176,20.886],[91.946,21.362],[91.845,21.908],[91.571,22.543],[92.041,23.115],[92.901,21.608]]]}},{"type":"Feature","properties":{"name":"Qin","name_zh":"秦","focus":true,"label":[111.93,30.86],"area":289.4},"geometry":{"type":"MultiPolygon","coordinates":[[[[108.651,18.482],[108.576,19.187],[108.684,19.295],[109.198,19.684],[109.420,19.659],[109.550,19.913],[109.915,19.800],[110.060,19.940],[110.617,20.017],[110.885,19.706],[110.612,19.471],[110.427,19.229],[110.298,18.898],[110.361,18.765],[110.262,18.625],[109.669,18.414],[109.429,18.096],[108.651,18.482]]],[[[113.419,22.570],[113.377,22.163],[113.283,22.030],[113.096,21.979],[112.871,22.061],[112.815,21.826],[112.749,21.756],[112.039,21.659],[111.831,21.754],[111.733,21.709],[111.536,21.493],[111.434,21.461],[111.085,21.479],[110.749,21.377],[110.566,21.230],[110.238,21.280],[110.202,21.096],[110.072,20.918],[110.293,20.582],[110.414,20.525],[110.433,20.436],[110.271,20.315],[109.928,20.244],[109.711,20.568],[109.602,20.879],[109.608,21.057],[109.786,21.406],[109.779,21.482],[109.516,21.596],[109.414,21.564],[109.321,21.431],[109.117,21.399],[108.813,21.493],[108.554,21.823],[108.466,21.785],[108.387,21.530],[108.265,21.473],[107.900,21.479],[107.417,21.185],[107.465,20.976],[107.374,20.880],[106.807,20.905],[106.746,20.815],[106.771,20.638],[106.380,20.110],[105.964,19.880],[105.843,19.702],[104.739,20.542],[104.670,21.503],[104.945,22.052],[105.768,22.395],[106.866,22.670],[111.257,22.838],[110.846,24.865],[109.611,26.581],[108.170,27.542],[105.082,28.022],[102.131,28.022],[101.582,28.708],[101.651,29.532],[104.739,36.600],[104.670,36.806],[104.396,37.012],[104.396,37.218],[105.151,37.629],[106.043,37.561],[106.798,39.139],[107.209,41.747],[107.621,42.090],[109.082,42.117],[113.317,41.595],[118.546,41.425],[120.472,41.682],[122.500,41.809],[123.747,41.678],[124.091,41.266],[124.104,39.884],[123.916,39.807],[123.039,39.672],[122.027,39.255],[121.488,38.878],[121.216,38.756],[121.065,38.750],[121.123,38.865],[121.660,39.331],[121.448,39.382],[121.282,39.349],[121.213,39.483],[121.239,39.553],[121.668,39.905],[121.788,40.078],[122.107,40.353],[122.082,40.488],[121.753,40.736],[121.426,40.864],[121.010,40.850],[120.788,40.683],[120.272,40.151],[120.112,40.081],[119.823,40.042],[119.385,39.843],[119.210,39.639],[119.090,39.339],[118.977,39.224],[118.781,39.166],[118.559,39.172],[118.274,38.999],[118.069,39.254],[117.910,39.260],[117.752,39.202],[117.439,38.602],[117.589,38.284],[117.840,38.163],[118.200,38.043],[118.744,38.063],[118.875,37.949],[118.811,37.446],[118.837,37.204],[118.954,37.077],[119.284,37.045],[119.598,37.116],[119.940,37.352],[120.169,37.576],[120.658,37.736],[120.787,37.704],[121.189,37.425],[121.434,37.336],[121.894,37.375],[122.392,37.300],[122.281,36.982],[122.255,36.733],[121.846,36.860],[121.609,36.834],[120.855,36.584],[120.537,36.386],[120.504,36.055],[120.269,35.985],[120.139,36.194],[119.913,36.143],[119.975,35.933],[119.907,35.768],[119.060,35.041],[119.003,34.939],[119.020,34.691],[119.299,34.590],[119.973,34.135],[120.149,33.894],[120.340,33.336],[120.640,33.044],[120.719,32.847],[120.660,32.543],[120.738,32.460],[121.050,32.328],[121.230,32.061],[121.483,31.948],[121.605,31.827],[121.623,31.618],[121.268,31.452],[121.498,31.281],[121.640,30.926],[121.631,30.792],[121.568,30.710],[121.328,30.690],[121.035,30.594],[120.608,30.346],[120.226,30.250],[119.943,30.116],[120.437,29.996],[120.862,30.187],[121.082,30.213],[121.155,30.188],[121.391,29.922],[121.565,29.846],[121.770,29.834],[121.774,29.764],[121.670,29.624],[121.361,29.414],[121.411,29.344],[121.649,29.319],[121.432,28.836],[121.345,28.544],[121.358,28.385],[121.259,28.182],[121.165,28.124],[121.008,28.276],[120.505,27.590],[120.351,27.177],[120.084,26.985],[119.971,26.788],[119.857,26.706],[119.600,26.692],[119.428,26.590],[119.554,26.267],[119.436,26.038],[119.470,25.771],[119.428,25.650],[119.335,25.530],[119.095,25.440],[118.812,24.849],[118.531,24.690],[118.345,24.467],[117.924,24.561],[117.796,24.421],[117.849,24.047],[117.405,23.690],[116.962,23.556],[116.709,23.346],[116.452,23.250],[116.403,23.199],[116.400,22.983],[116.340,22.913],[115.860,22.836],[115.706,22.638],[115.308,22.771],[115.185,22.745],[115.043,22.599],[114.847,22.510],[114.558,22.464],[114.537,22.674],[113.989,22.552],[113.845,22.463],[113.716,22.482],[113.462,22.773],[113.376,22.646],[113.419,22.570]]],[[[114.022,22.228],[113.836,22.213],[113.901,22.290],[114.046,22.340],[114.022,22.228]]],[[[114.309,22.553],[114.413,22.436],[114.263,22.204],[114.207,22.221],[114.133,22.171],[114.098,22.216],[114.144,22.331],[113.925,22.367],[113.901,22.406],[114.166,22.560],[114.309,22.553]]]]}}]}