{"type":"FeatureCollection","features":[{"type":"Feature","properties":{"name":"Philippines","name_zh":"吕宋","focus":false,"label":[120.59,15.69],"area":19.2,"color":"#7272a8"},"geometry":{"type":"MultiPolygon","coordinates":[[[[125.614,7.236],[125.280,6.593],[125.465,6.244],[125.532,5.939],[125.461,5.717],[125.289,5.488],[125.072,5.722],[125.163,5.907],[125.129,6.053],[124.965,6.084],[124.803,5.785],[124.224,6.089],[123.973,6.336],[123.880,6.565],[123.864,6.851],[124.073,7.258],[124.024,7.474],[123.815,7.658],[123.464,7.790],[123.333,7.771],[123.247,7.593],[123.022,7.478],[122.725,7.452],[122.713,7.674],[122.635,7.782],[122.455,7.693],[121.991,6.872],[121.839,6.967],[121.824,7.056],[122.093,7.775],[122.211,7.902],[122.384,7.985],[122.637,8.004],[122.736,8.062],[122.796,8.272],[122.888,8.342],[123.135,8.450],[123.485,8.496],[123.616,8.337],[123.662,8.013],[123.805,8.083],[124.023,8.109],[124.117,8.192],[124.210,8.446],[124.371,8.561],[124.670,8.428],[124.741,8.918],[124.872,8.924],[124.990,8.715],[125.224,8.995],[125.401,8.951],[125.460,9.053],[125.439,9.370],[125.362,9.624],[125.428,9.783],[125.933,9.174],[126.037,8.958],[126.074,8.812],[125.923,8.482],[126.029,8.380],[126.271,8.425],[126.306,8.235],[126.254,8.044],[126.279,7.733],[126.372,7.536],[126.321,7.148],[126.045,6.608],[125.954,6.652],[125.910,6.849],[125.747,7.185],[125.614,7.236]]],[[[117.535,9.048],[118.088,9.431],[118.508,9.921],[118.557,9.673],[118.504,9.482],[118.384,9.349],[117.967,9.113],[117.857,8.833],[117.710,8.712],[117.444,8.635],[117.270,8.450],[117.127,8.469],[117.224,8.685],[117.535,9.048]]],[[[122.347,9.815],[122.602,9.910],[122.700,10.031],[122.920,10.851],[123.117,10.934],[123.239,10.922],[123.312,10.738],[123.104,10.229],[122.962,9.594],[123.132,9.251],[123.037,9.066],[122.941,9.047],[122.395,9.478],[122.303,9.649],[122.347,9.815]]],[[[118.847,10.214],[119.108,10.627],[119.207,11.129],[119.353,11.212],[119.416,11.130],[119.344,11.002],[119.564,10.501],[118.864,10.023],[118.699,10.035],[118.756,10.169],[118.847,10.214]]],[[[122.210,11.580],[122.470,11.454],[122.635,11.442],[122.919,11.525],[122.896,11.150],[122.706,10.940],[122.297,10.647],[121.873,10.468],[121.993,11.758],[122.210,11.580]]],[[[124.854,11.491],[124.916,11.643],[124.875,11.834],[124.330,12.208],[124.264,12.417],[124.952,12.527],[125.119,12.476],[125.246,12.292],[125.333,11.562],[125.448,11.206],[125.323,11.123],[125.069,11.244],[124.854,11.491]]],[[[120.546,13.152],[120.340,13.387],[121.039,13.407],[121.180,13.332],[121.304,13.129],[121.316,12.741],[121.273,12.525],[121.094,12.201],[120.733,12.549],[120.546,13.152]]],[[[119.771,15.469],[119.812,15.978],[119.681,16.187],[119.762,16.359],[120.202,16.042],[120.293,16.233],[120.246,16.874],[120.311,17.071],[120.393,18.043],[120.564,18.431],[120.800,18.552],[121.036,18.527],[121.580,18.294],[121.839,18.275],[122.049,18.447],[122.139,18.384],[122.147,18.206],[122.027,18.009],[122.007,17.793],[122.070,17.437],[122.313,17.260],[122.395,17.114],[122.203,16.542],[122.063,16.332],[121.402,15.873],[121.368,15.498],[121.242,15.307],[121.456,14.882],[121.728,14.108],[121.973,13.949],[122.106,13.918],[122.397,14.306],[122.486,14.319],[122.674,14.269],[122.776,14.174],[122.856,13.888],[122.985,13.729],[123.131,13.692],[123.359,13.952],[123.701,13.820],[123.736,13.763],[123.397,13.527],[123.818,12.975],[123.676,12.892],[123.238,13.025],[123.196,13.241],[123.093,13.380],[122.485,13.881],[122.369,13.880],[122.325,13.779],[122.491,13.430],[122.394,13.302],[122.067,13.651],[121.624,13.898],[121.486,13.891],[121.331,13.827],[121.187,13.681],[121.009,13.655],[120.598,13.921],[120.510,14.112],[120.798,14.385],[121.104,14.253],[121.285,14.342],[121.217,14.418],[120.896,14.551],[120.706,14.728],[120.471,14.804],[120.363,14.530],[120.305,14.575],[119.971,14.904],[119.771,15.469]]]]}},{"type":"Feature","properties":{"name":"Ceylon","name_zh":"","focus":false,"label":[81.35,7.76],"area":1.5,"color":"#b0805f"},"geometry":{"type":"MultiPolygon","coordinates":[[[[80.892,8.946],[81.093,8.626],[81.060,8.410],[81.326,8.258],[81.445,7.928],[81.804,7.313],[81.866,7.084],[81.779,6.753],[81.476,6.316],[81.056,6.473],[81.345,6.607],[81.396,7.276],[81.165,7.584],[81.139,8.175],[80.728,8.175],[80.728,8.792],[80.619,8.833],[80.892,8.946]]],[[[80.502,8.784],[80.419,8.432],[80.291,8.303],[80.111,8.329],[80.034,8.124],[80.078,7.744],[79.981,7.905],[79.838,7.815],[79.832,8.103],[79.724,8.416],[79.808,8.647],[79.674,8.804],[79.705,8.930],[79.919,8.948],[80.391,8.738],[80.502,8.784]]]]}},{"type":"Feature","properties":{"name":"Malaya","name_zh":"","focus":false,"label":[116.73,6.0],"area":6.1,"color":"#7272a8"},"geometry":{"type":"MultiPolygon","coordinates":[[[[102.325,6.099],[102.802,5.560],[103.212,5.0],[100.379,5.021],[100.139,6.177],[100.158,6.340],[100.360,6.416],[100.617,6.422],[100.665,6.212],[100.866,6.159],[100.984,6.051],[101.027,5.855],[100.931,5.676],[100.984,5.568],[101.076,5.531],[101.311,5.834],[101.450,5.761],[101.472,5.546],[101.762,5.586],[101.812,5.845],[102.034,6.002],[102.073,6.154],[102.325,6.099]]],[[[115.417,5.111],[115.203,5.275],[115.291,5.453],[115.717,5.467],[115.787,5.740],[115.970,5.881],[116.098,6.097],[116.337,6.358],[116.595,6.899],[116.740,6.689],[116.889,6.645],[117.031,6.836],[117.168,6.614],[117.507,6.392],[117.540,6.240],[117.353,5.877],[117.370,5.788],[117.866,5.904],[117.918,5.802],[117.761,5.580],[118.256,5.663],[118.377,5.638],[118.997,5.277],[119.042,5.169],[118.908,5.0],[115.432,5.0],[115.417,5.111]]]]}},{"type":"Feature","properties":{"name":"Dutch East Indies","name_zh":"","focus":false,"label":[95.54,5.36],"area":0.6,"color":"#7d6b5a"},"geometry":{"type":"Polygon","coordinates":[[[95.205,5.245],[95.216,5.499],[95.283,5.550],[95.464,5.569],[95.740,5.468],[96.024,5.215],[96.187,5.145],[96.752,5.064],[97.384,5.180],[97.561,5.0],[95.293,5.0],[95.205,5.245]]]}},{"type":"Feature","properties":{"name":"Korea","name_zh":"朝鲜","focus":false,"label":[126.66,38.63],"area":22.6,"color":"#b0805f"},"geometry":{"type":"Polygon","coordinates":[[[128.451,38.255],[129.129,37.307],[129.249,37.008],[129.235,36.245],[129.177,35.958],[129.241,35.907],[129.466,35.927],[129.412,35.742],[129.060,35.169],[128.917,35.029],[128.808,35.010],[128.552,35.105],[128.438,35.060],[128.164,34.799],[127.970,34.837],[127.840,34.938],[127.596,34.893],[127.359,34.804],[126.824,34.428],[126.616,34.409],[126.409,34.269],[126.360,34.668],[126.225,35.163],[126.300,35.367],[126.524,35.577],[126.524,35.737],[126.626,35.928],[126.436,36.131],[126.361,36.627],[125.960,36.722],[126.390,36.958],[126.685,36.838],[126.799,36.946],[126.786,37.073],[126.442,37.474],[126.391,37.614],[126.209,37.754],[125.909,37.511],[125.741,37.784],[125.561,37.835],[125.269,37.484],[125.076,37.770],[124.769,37.935],[124.693,38.139],[124.736,38.279],[124.929,38.464],[125.268,38.567],[125.293,38.688],[125.027,38.815],[125.296,39.364],[125.206,39.485],[124.922,39.618],[124.688,39.605],[124.548,39.541],[124.442,39.573],[124.133,39.843],[124.491,40.279],[124.725,40.427],[125.415,40.699],[125.879,40.945],[126.165,41.189],[126.474,41.651],[126.849,41.717],[126.972,41.539],[127.422,41.356],[127.861,41.377],[128.098,41.449],[127.849,41.844],[127.860,41.998],[127.984,42.107],[128.160,42.134],[128.309,42.077],[128.755,42.060],[129.034,42.177],[129.464,42.416],[129.568,42.737],[129.740,42.898],[129.965,42.957],[130.225,42.651],[130.435,42.276],[129.824,41.861],[129.641,41.655],[129.590,41.469],[129.631,41.277],[129.477,40.682],[129.177,40.630],[128.446,40.065],[128.236,39.969],[127.931,39.956],[127.671,39.866],[127.440,39.623],[127.276,39.221],[127.404,39.075],[127.956,38.694],[128.451,38.255]]]}},{"type":"Feature","properties":{"name":"Arakan (Indian princely state)","name_zh":"","focus":false,"label":[94.16,19.79],"area":5.3,"color":"#7272a8"},"geometry":{"type":"Polygon","coordinates":[[[92.509,22.110],[92.892,21.979],[93.004,22.037],[93.127,22.202],[93.318,21.729],[94.702,20.015],[95.361,18.038],[95.163,17.642],[94.465,17.642],[94.420,18.140],[94.053,19.061],[93.965,19.194],[93.839,18.952],[93.457,19.174],[93.814,19.257],[93.723,19.594],[93.334,20.025],[93.065,19.992],[92.894,20.113],[92.921,20.373],[92.827,20.424],[92.662,20.404],[92.403,20.613],[92.176,20.886],[92.123,20.996],[92.236,21.149],[92.597,21.387],[92.509,22.110]]]}},{"type":"Feature","properties":{"name":"Kandy","name_zh":"","focus":false,"label":[80.64,7.66],"area":1.8,"color":"#6f9460"},"geometry":{"type":"Polygon","coordinates":[[[80.619,8.833],[80.728,8.792],[80.728,8.175],[81.139,8.175],[81.165,7.584],[81.396,7.276],[81.345,6.607],[81.056,6.473],[80.786,6.574],[80.078,7.744],[80.034,8.124],[80.111,8.329],[80.291,8.303],[80.419,8.432],[80.502,8.784],[80.619,8.833]]]}},{"type":"Feature","properties":{"name":"Safavid Empire","name_zh":"","focus":false,"label":[63.81,32.93],"area":90.2,"color":"#a3727a"},"geometry":{"type":"Polygon","coordinates":[[[65.768,25.309],[64.424,25.173],[64.238,25.210],[64.059,25.401],[63.650,25.336],[63.403,25.164],[62.449,25.162],[61.813,25.053],[61.343,25.026],[60.858,25.095],[60.479,25.298],[60.0,25.322],[60.0,38.888],[61.228,39.830],[66.335,36.307],[65.473,35.014],[67.054,35.588],[67.772,33.433],[67.485,32.427],[67.629,31.133],[66.767,30.415],[66.928,28.111],[66.300,25.494],[65.768,25.309]]]}},{"type":"Feature","properties":{"name":"Dzungar Khanate","name_zh":"准噶尔汗国","focus":false,"label":[93.08,44.57],"area":330.3,"color":"#6f9460"},"geometry":{"type":"MultiPolygon","coordinates":[[[[64.346,37.872],[64.404,37.639],[66.335,36.307],[61.228,39.830],[62.113,39.220],[62.662,39.220],[64.346,37.872]]],[[[69.816,41.210],[80.939,44.077],[85.535,47.181],[85.605,48.233],[90.0,51.569],[91.965,51.569],[92.591,52.400],[93.567,52.348],[95.187,53.795],[95.865,53.795],[97.319,52.826],[97.610,52.148],[98.917,52.036],[99.758,51.902],[101.011,51.671],[101.772,51.425],[100.250,50.103],[99.531,48.666],[99.388,47.229],[100.394,45.504],[101.831,45.360],[104.274,44.929],[104.705,44.211],[103.268,43.061],[103.268,42.486],[104.561,41.480],[103.555,39.900],[102.118,39.756],[100.537,40.331],[99.388,39.756],[99.244,38.750],[89.616,36.882],[80.131,36.882],[79.329,35.628],[75.245,38.031],[73.808,38.031],[69.497,35.876],[66.335,36.307],[69.231,37.367],[70.095,37.907],[69.816,41.210]]],[[[63.994,52.797],[63.038,51.176],[64.457,53.581],[63.994,52.797]]],[[[74.629,54.323],[72.991,55.306],[74.920,54.149],[74.629,54.323]]]]}},{"type":"Feature","properties":{"name":"Maratha","name_zh":"","focus":false,"label":[74.18,17.08],"area":7.4,"color":"#a07d5a"},"geometry":{"type":"Polygon","coordinates":[[[74.421,14.375],[73.841,15.390],[73.572,16.037],[73.064,18.031],[72.976,18.538],[73.288,18.819],[73.135,19.075],[73.288,19.280],[73.135,19.638],[73.391,19.894],[73.339,20.508],[73.953,20.508],[73.800,20.252],[74.260,18.922],[74.874,18.717],[75.642,18.819],[75.795,18.512],[74.670,18.001],[75.130,17.489],[74.977,16.670],[74.465,16.363],[74.465,15.698],[74.874,15.136],[74.874,14.522],[74.421,14.375]]]}},{"type":"Feature","properties":{"name":"Mughal Empire","name_zh":"莫卧儿帝国","focus":false,"label":[79.22,24.72],"area":348.9,"color":"#b0805f"},"geometry":{"type":"Polygon","coordinates":[[[80.313,13.104],[79.769,11.730],[79.725,11.515],[79.070,11.349],[78.558,12.219],[77.995,12.577],[77.279,12.424],[76.665,12.782],[75.795,13.908],[75.386,13.959],[74.702,13.751],[74.421,14.375],[74.874,14.522],[74.874,15.136],[74.465,15.698],[74.465,16.363],[74.977,16.670],[75.130,17.489],[74.670,18.001],[75.795,18.512],[75.642,18.819],[74.874,18.717],[74.260,18.922],[73.800,20.252],[73.953,20.508],[73.339,20.508],[73.391,19.894],[73.135,19.638],[73.288,19.280],[73.135,19.075],[73.288,18.819],[72.976,18.538],[72.759,20.057],[72.864,20.311],[73.109,20.687],[73.112,20.827],[72.931,20.953],[72.765,21.150],[72.665,21.848],[72.695,22.128],[72.319,22.115],[72.232,22.019],[72.127,21.828],[72.131,21.746],[72.288,21.549],[72.256,21.352],[72.120,21.155],[71.894,20.989],[71.024,20.657],[70.855,20.650],[70.467,20.777],[70.209,20.947],[69.126,21.968],[68.894,22.285],[69.492,22.248],[69.968,22.351],[70.176,22.478],[70.410,22.752],[70.380,22.860],[70.045,22.777],[69.664,22.789],[69.107,22.898],[68.790,23.028],[68.372,23.326],[68.072,23.675],[68.046,23.764],[67.692,23.814],[67.486,23.928],[67.315,24.092],[67.204,24.588],[67.153,24.651],[66.654,24.783],[66.700,25.114],[66.620,25.317],[66.432,25.488],[66.300,25.494],[66.928,28.111],[66.767,30.415],[67.629,31.133],[67.485,32.427],[67.772,33.433],[67.054,35.588],[65.473,35.014],[66.335,36.307],[69.497,35.876],[73.808,38.031],[75.245,38.031],[79.329,35.628],[80.174,31.573],[81.448,30.402],[81.572,30.372],[81.655,30.454],[82.141,30.365],[82.200,30.090],[82.591,29.971],[82.917,29.703],[83.129,29.606],[83.197,29.666],[83.402,29.539],[83.697,29.182],[83.768,29.256],[84.088,29.309],[84.218,29.234],[84.298,29.063],[84.266,28.937],[84.920,28.535],[85.069,28.646],[85.216,28.639],[85.138,28.460],[85.144,28.341],[85.729,28.341],[85.972,28.118],[86.035,27.910],[86.142,27.954],[86.137,28.118],[86.445,27.947],[86.568,27.984],[86.603,28.133],[86.787,28.133],[87.070,28.006],[87.214,27.843],[87.596,27.873],[87.749,27.820],[87.902,27.947],[88.197,27.875],[88.070,27.523],[88.038,27.129],[88.231,26.757],[88.601,26.640],[88.867,26.908],[89.834,26.685],[90.0,26.718],[90.0,26.778],[91.161,26.750],[90.0,26.360],[90.0,25.966],[91.434,26.097],[91.565,26.053],[91.434,25.791],[91.565,25.703],[91.434,25.265],[91.740,25.003],[91.521,25.003],[91.565,24.346],[91.302,24.346],[91.259,24.127],[91.478,24.083],[91.828,23.733],[91.828,23.558],[91.915,23.514],[92.047,23.689],[92.178,23.427],[92.266,22.945],[92.528,22.595],[92.509,22.110],[92.597,21.387],[92.236,21.149],[92.123,20.996],[91.946,21.362],[91.845,21.908],[91.571,22.543],[91.410,22.720],[91.081,22.561],[90.0,22.560],[90.0,21.930],[89.869,22.133],[89.796,21.832],[89.670,21.719],[89.578,21.700],[89.456,21.941],[89.233,21.655],[89.072,21.774],[88.994,21.629],[89.025,21.546],[88.723,21.539],[88.656,21.857],[88.567,21.895],[88.377,21.577],[88.299,21.551],[88.053,21.938],[87.867,21.696],[87.640,21.563],[86.937,21.288],[86.796,21.135],[86.926,20.691],[86.637,20.319],[86.632,20.203],[86.119,19.806],[85.379,19.605],[85.113,19.442],[84.262,18.455],[83.987,18.207],[83.684,18.083],[83.381,17.710],[82.353,17.085],[82.234,16.647],[82.081,16.462],[81.788,16.328],[81.596,16.302],[81.369,16.346],[81.253,16.225],[81.087,15.826],[80.963,15.723],[80.735,15.837],[80.459,15.773],[80.300,15.645],[80.089,15.175],[80.169,13.891],[80.075,13.669],[80.319,13.333],[80.313,13.104]]]}},{"type":"Feature","properties":{"name":"Hindu kingdoms","name_zh":"","focus":false,"label":[77.83,10.95],"area":14.5,"color":"#9a8a4a"},"geometry":{"type":"Polygon","coordinates":[[[77.279,12.424],[77.995,12.577],[78.558,12.219],[79.070,11.349],[79.725,11.515],[79.826,10.358],[79.789,10.250],[79.306,10.255],[79.222,10.192],[79.072,9.759],[78.926,9.492],[78.937,9.435],[79.159,9.277],[78.313,8.995],[78.181,8.811],[78.135,8.499],[78.064,8.385],[77.484,8.028],[77.341,8.053],[76.703,8.706],[76.537,9.118],[76.385,9.747],[76.075,10.553],[75.651,11.423],[75.210,12.102],[74.702,13.751],[75.386,13.959],[75.795,13.908],[76.665,12.782],[77.279,12.424]]]}},{"type":"Feature","properties":{"name":"Đại Việt","name_zh":"大越","focus":false,"label":[106.79,16.84],"area":23.6,"color":"#9a8a4a"},"geometry":{"type":"Polygon","coordinates":[[[102.185,22.636],[102.570,22.689],[102.985,22.469],[103.397,22.707],[104.478,22.783],[105.179,23.250],[105.313,23.296],[105.593,23.037],[105.941,22.931],[106.588,22.928],[106.694,22.834],[106.719,22.662],[106.507,22.325],[106.550,22.090],[106.673,21.926],[107.098,21.649],[107.786,21.526],[107.875,21.462],[107.417,21.185],[107.465,20.976],[107.374,20.880],[106.807,20.905],[106.746,20.815],[106.771,20.638],[106.380,20.110],[105.964,19.880],[105.843,19.702],[105.532,18.844],[106.364,18.007],[106.433,17.550],[106.622,17.328],[107.114,16.954],[107.692,16.371],[107.809,16.282],[108.095,16.251],[108.236,16.080],[108.363,15.623],[108.498,15.363],[108.786,15.090],[108.917,14.792],[109.071,14.170],[109.307,12.906],[109.068,12.486],[109.061,11.590],[108.897,11.342],[108.695,11.145],[108.164,10.966],[107.938,10.806],[107.672,10.526],[107.412,10.367],[107.265,10.347],[107.035,10.436],[106.853,10.575],[107.482,12.583],[107.457,13.065],[107.514,13.421],[107.309,13.878],[107.296,14.176],[107.463,14.996],[107.433,15.256],[107.338,15.453],[107.099,15.667],[107.067,15.794],[107.168,15.992],[107.107,16.169],[106.638,16.484],[106.426,16.718],[106.169,17.129],[105.412,18.083],[104.812,18.721],[103.899,19.313],[103.880,19.535],[104.004,19.701],[104.144,19.746],[104.487,19.741],[104.719,19.971],[104.715,20.200],[104.324,20.636],[104.129,20.939],[104.011,20.977],[103.836,20.900],[103.607,20.682],[103.477,20.656],[103.266,20.744],[102.992,20.939],[102.690,21.668],[102.170,22.198],[101.967,22.533],[102.185,22.636]]]}},{"type":"Feature","properties":{"name":"Cambodia","name_zh":"柬埔寨","focus":false,"label":[105.28,10.97],"area":13.8,"color":"#a3727a"},"geometry":{"type":"Polygon","coordinates":[[[106.704,10.448],[106.748,10.067],[106.656,9.743],[106.482,9.552],[106.335,9.520],[106.229,9.551],[106.118,9.335],[105.926,9.188],[105.503,9.029],[105.208,8.653],[105.025,8.519],[104.907,8.474],[104.742,8.493],[104.822,9.472],[104.890,9.694],[104.987,9.822],[104.978,9.980],[104.764,10.177],[104.427,10.284],[104.160,10.519],[104.003,10.537],[103.830,10.473],[103.606,10.473],[103.524,10.524],[103.670,10.765],[103.652,10.880],[103.524,11.057],[103.400,11.038],[103.192,10.904],[103.039,10.897],[102.962,11.367],[102.670,12.037],[103.656,12.846],[105.015,13.406],[107.480,13.256],[107.482,12.583],[106.853,10.575],[106.773,10.639],[106.704,10.448]]]}},{"type":"Feature","properties":{"name":"Laotian states","name_zh":"南掌 (老挝)","focus":false,"label":[104.84,17.88],"area":20.7,"color":"#a3727a"},"geometry":{"type":"Polygon","coordinates":[[[105.402,15.378],[104.658,16.479],[104.610,16.643],[104.584,17.329],[104.388,17.614],[104.079,17.910],[103.927,18.278],[103.807,18.347],[103.224,18.439],[103.005,17.993],[102.661,17.845],[102.019,18.121],[101.864,18.107],[101.170,17.392],[100.953,17.454],[100.888,17.600],[100.900,17.822],[101.229,18.910],[101.117,19.500],[101.097,19.550],[100.690,19.440],[100.500,19.439],[100.417,19.508],[100.387,19.673],[100.430,20.226],[100.244,20.383],[100.001,20.458],[100.350,20.746],[100.787,21.282],[101.013,21.442],[101.238,21.259],[101.584,21.223],[101.703,21.319],[101.752,21.472],[101.535,22.137],[101.554,22.283],[101.662,22.392],[101.967,22.533],[102.170,22.198],[102.690,21.668],[102.992,20.939],[103.266,20.744],[103.477,20.656],[103.607,20.682],[103.836,20.900],[104.011,20.977],[104.129,20.939],[104.324,20.636],[104.715,20.200],[104.719,19.971],[104.487,19.741],[104.144,19.746],[104.004,19.701],[103.880,19.535],[103.899,19.313],[104.812,18.721],[105.412,18.083],[106.169,17.129],[106.426,16.718],[106.638,16.484],[107.107,16.169],[107.168,15.992],[107.067,15.794],[107.099,15.667],[107.338,15.453],[107.433,15.256],[107.463,14.996],[107.296,14.176],[107.309,13.878],[107.514,13.421],[107.480,13.256],[106.060,13.342],[106.146,14.023],[105.473,15.150],[105.402,15.378]]]}},{"type":"Feature","properties":{"name":"Ayutthaya","name_zh":"暹罗","focus":false,"label":[99.7,11.96],"area":37.5,"color":"#a3727a"},"geometry":{"type":"Polygon","coordinates":[[[101.812,5.845],[101.762,5.586],[101.472,5.546],[101.450,5.761],[101.311,5.834],[101.076,5.531],[100.984,5.568],[100.931,5.676],[101.027,5.855],[100.984,6.051],[100.866,6.159],[100.665,6.212],[100.617,6.422],[100.360,6.416],[100.158,6.340],[100.221,6.520],[100.154,6.603],[99.969,6.507],[99.833,6.538],[99.662,6.710],[99.610,6.938],[99.639,7.065],[99.571,7.262],[99.468,7.338],[99.293,7.319],[99.024,7.871],[98.544,8.264],[98.292,8.155],[98.195,8.327],[98.177,8.600],[98.250,8.937],[98.632,10.100],[98.593,10.120],[98.637,10.288],[99.546,11.755],[99.581,11.888],[99.097,12.972],[99.133,13.372],[99.094,13.670],[99.003,13.886],[98.486,14.372],[98.137,15.189],[98.502,15.382],[98.579,15.471],[98.475,16.004],[98.532,16.106],[98.735,16.209],[98.823,16.317],[98.786,16.394],[99.905,16.665],[100.926,17.514],[100.888,17.600],[100.953,17.454],[101.170,17.392],[101.864,18.107],[102.019,18.121],[102.661,17.845],[103.005,17.993],[103.224,18.439],[103.406,18.433],[103.807,18.347],[103.927,18.278],[104.079,17.910],[104.388,17.614],[104.584,17.329],[104.610,16.643],[104.658,16.479],[105.214,15.694],[105.402,15.378],[105.473,15.150],[106.146,14.023],[106.060,13.342],[105.015,13.406],[103.656,12.846],[102.670,12.037],[102.529,12.148],[102.323,12.186],[101.918,12.585],[101.586,12.661],[101.329,12.558],[101.023,12.672],[100.871,12.678],[100.956,13.364],[100.908,13.447],[100.473,13.509],[100.239,13.490],[100.040,13.394],[99.930,13.261],[100.023,12.994],[99.833,12.523],[99.895,12.079],[99.186,10.489],[99.071,9.898],[99.118,9.371],[99.298,9.161],[99.724,9.257],[99.837,9.226],[99.898,9.067],[99.865,8.711],[100.009,8.490],[100.131,8.532],[100.301,7.886],[100.344,7.440],[100.539,7.048],[100.614,6.978],[100.975,6.852],[101.217,6.802],[101.427,6.828],[101.559,6.739],[101.679,6.464],[102.073,6.154],[102.034,6.002],[101.812,5.845]]]}},{"type":"Feature","properties":{"name":"Shan states","name_zh":"掸邦","focus":false,"label":[94.56,24.57],"area":32.2,"color":"#9a8a4a"},"geometry":{"type":"Polygon","coordinates":[[[97.340,28.239],[97.478,28.392],[97.603,28.412],[97.829,28.286],[98.008,28.090],[98.118,27.685],[98.216,27.546],[98.571,27.541],[98.637,27.478],[98.733,26.343],[98.382,25.630],[97.887,25.271],[97.524,24.799],[97.631,24.273],[97.530,24.012],[97.530,23.892],[97.628,23.860],[97.767,23.899],[98.136,24.098],[98.698,24.146],[98.769,24.089],[98.893,23.296],[98.984,23.151],[99.233,23.184],[99.468,23.141],[99.483,23.020],[99.155,22.307],[99.208,22.149],[99.310,22.105],[99.755,22.127],[99.886,21.956],[100.040,21.620],[99.099,21.240],[97.260,20.920],[96.621,21.320],[95.742,24.038],[95.342,24.118],[94.382,24.198],[92.047,23.689],[91.915,23.514],[91.828,23.558],[91.828,23.733],[91.478,24.083],[91.259,24.127],[91.302,24.346],[91.565,24.346],[91.521,25.003],[91.740,25.003],[91.434,25.265],[91.565,25.703],[91.434,25.791],[91.565,26.053],[91.434,26.097],[90.0,25.966],[90.0,26.360],[91.546,26.285],[92.401,26.584],[94.324,26.883],[94.837,27.567],[95.478,27.908],[97.340,28.182],[97.340,28.239]]]}},{"type":"Feature","properties":{"name":"Ava","name_zh":"缅甸 (东吁)","focus":false,"label":[95.6,17.17],"area":33.2,"color":"#8a6f9e"},"geometry":{"type":"Polygon","coordinates":[[[100.320,21.463],[100.612,21.535],[100.894,21.721],[101.013,21.442],[100.787,21.282],[100.350,20.746],[99.965,20.420],[99.407,20.283],[99.170,20.129],[98.993,19.862],[98.508,19.719],[98.015,19.748],[97.852,19.563],[97.788,19.398],[97.711,18.508],[97.373,18.449],[97.706,18.051],[97.787,17.575],[98.393,17.083],[98.823,16.317],[98.735,16.209],[98.532,16.106],[98.475,16.004],[98.579,15.471],[98.502,15.382],[98.137,15.189],[98.486,14.372],[99.003,13.886],[99.094,13.670],[99.133,13.372],[99.097,12.972],[99.581,11.888],[99.546,11.755],[98.637,10.288],[98.593,10.120],[98.431,10.201],[98.397,10.563],[98.605,10.862],[98.738,11.435],[98.867,11.645],[98.590,11.695],[98.588,11.822],[98.676,12.051],[98.596,12.737],[98.485,13.111],[98.198,13.644],[97.822,14.616],[97.573,16.445],[97.351,16.527],[97.214,16.939],[96.881,17.345],[96.770,17.332],[96.734,16.887],[96.662,16.697],[96.469,16.512],[95.713,16.155],[95.552,15.875],[95.329,15.677],[95.222,15.804],[95.220,16.001],[95.124,15.995],[94.972,15.835],[94.828,15.842],[94.753,15.937],[94.819,16.210],[94.415,16.076],[94.304,15.948],[94.144,16.005],[94.143,16.215],[94.392,16.908],[94.464,17.264],[94.465,17.642],[95.163,17.642],[95.361,18.038],[94.702,20.015],[93.318,21.729],[93.127,22.202],[93.004,22.037],[92.892,21.979],[92.509,22.110],[92.528,22.595],[92.266,22.945],[92.178,23.427],[92.047,23.689],[94.382,24.198],[95.342,24.118],[95.742,24.038],[96.621,21.320],[97.260,20.920],[99.099,21.240],[100.040,21.620],[100.320,21.463]]]}},{"type":"Feature","properties":{"name":"Tokugawa shogunate","name_zh":"日本 (德川)","focus":false,"label":[139.78,37.37],"area":37.5,"color":"#5f87a3"},"geometry":{"type":"MultiPolygon","coordinates":[[[[130.581,31.528],[130.474,31.439],[130.404,31.229],[130.232,31.026],[130.086,31.121],[130.060,31.216],[130.205,31.426],[130.219,31.559],[130.058,31.972],[130.443,32.283],[130.496,32.557],[130.257,32.912],[130.107,32.930],[129.845,32.587],[129.733,32.637],[129.630,32.866],[129.460,32.986],[129.343,33.151],[129.528,33.297],[129.858,33.260],[130.176,33.337],[130.426,33.674],[130.859,33.675],[130.971,33.503],[131.092,33.427],[131.286,33.390],[131.568,33.486],[131.669,33.308],[131.413,33.111],[131.795,32.807],[131.830,32.693],[131.562,32.432],[131.453,32.247],[131.319,31.511],[131.210,31.352],[130.959,31.193],[130.744,30.887],[130.579,30.906],[130.554,30.969],[130.674,31.211],[130.732,31.478],[130.581,31.528]]],[[[132.121,33.347],[132.449,33.519],[132.784,33.907],[132.968,33.793],[133.245,33.800],[133.462,33.883],[133.805,34.176],[134.010,34.189],[134.540,34.012],[134.609,33.898],[134.519,33.650],[133.998,33.148],[133.726,33.376],[133.516,33.394],[133.240,33.299],[133.154,33.216],[132.969,32.765],[132.900,32.669],[132.698,32.548],[132.467,32.757],[132.342,33.106],[132.121,33.347]]],[[[137.013,37.037],[136.983,36.833],[137.045,36.668],[137.176,36.643],[137.464,36.853],[138.492,37.301],[138.698,37.448],[138.856,37.735],[139.197,37.920],[139.353,38.067],[139.439,38.188],[139.503,38.417],[139.745,38.679],[139.741,38.743],[139.896,38.998],[140.030,39.483],[140.011,39.693],[139.862,39.782],[139.804,39.890],[139.985,40.114],[139.915,40.574],[140.159,40.729],[140.386,40.985],[140.472,40.985],[140.656,40.723],[141.152,40.865],[141.076,41.102],[140.936,41.114],[140.774,41.255],[141.087,41.441],[141.436,41.269],[141.467,40.514],[141.675,40.316],[141.998,39.671],[141.998,39.448],[141.887,39.129],[141.568,38.785],[141.467,38.587],[141.496,38.421],[141.024,38.210],[140.872,37.917],[140.982,37.268],[140.963,36.956],[140.655,36.618],[140.546,36.287],[140.555,35.969],[140.834,35.677],[140.394,35.409],[140.316,35.033],[139.830,34.835],[139.788,34.962],[140.002,35.497],[139.913,35.554],[139.682,35.445],[139.422,35.165],[139.208,35.165],[139.052,35.024],[139.022,34.688],[138.863,34.567],[138.779,34.579],[138.749,34.649],[138.751,34.922],[138.683,34.992],[138.450,34.902],[138.295,34.763],[138.149,34.527],[137.759,34.552],[137.248,34.481],[137.041,34.728],[136.733,34.874],[136.616,34.759],[136.507,34.518],[136.898,34.258],[136.766,34.169],[136.393,34.111],[136.199,34.003],[135.755,33.342],[135.062,33.690],[134.969,34.134],[135.236,34.350],[135.317,34.471],[135.286,34.598],[135.205,34.617],[134.935,34.540],[134.427,34.628],[133.825,34.385],[133.589,34.442],[132.481,34.129],[132.386,34.268],[132.183,34.287],[131.997,34.090],[131.994,33.804],[131.654,33.911],[130.899,33.903],[130.779,33.966],[130.892,34.246],[131.334,34.291],[131.672,34.501],[132.662,35.380],[132.980,35.444],[133.006,35.254],[133.804,35.427],[134.755,35.531],[135.156,35.646],[135.188,35.443],[135.357,35.322],[135.727,35.450],[135.928,35.603],[135.977,35.972],[136.668,36.667],[136.640,37.170],[136.810,37.310],[137.309,37.432],[137.334,37.273],[137.013,37.037]]],[[[139.852,42.035],[139.777,42.112],[139.711,42.477],[139.973,42.651],[140.499,42.896],[140.516,43.057],[140.373,43.185],[140.498,43.320],[140.598,43.326],[140.896,43.134],[141.064,43.096],[141.303,43.187],[141.301,43.720],[141.709,43.914],[141.745,44.628],[141.566,44.969],[141.522,45.182],[141.597,45.279],[141.875,45.435],[143.020,44.463],[143.790,44.027],[144.613,43.842],[144.750,43.881],[145.139,44.178],[145.347,44.243],[145.059,43.785],[145.448,43.169],[144.994,42.937],[144.754,42.866],[144.590,42.859],[144.370,42.949],[144.166,42.942],[144.002,42.877],[143.508,42.420],[143.330,42.196],[143.213,41.926],[143.033,41.958],[141.928,42.501],[141.721,42.539],[141.396,42.519],[140.929,42.255],[140.860,42.390],[140.693,42.550],[140.540,42.537],[140.223,42.363],[140.245,42.228],[140.767,42.005],[141.155,41.749],[140.979,41.652],[140.588,41.677],[140.268,41.324],[140.112,41.273],[140.012,41.381],[139.977,41.503],[140.124,41.792],[140.099,41.945],[139.852,42.035]]],[[[146.076,43.513],[146.226,43.525],[146.124,43.459],[146.076,43.513]]],[[[146.682,43.707],[146.598,43.732],[146.604,43.803],[146.842,43.874],[146.904,43.839],[146.682,43.707]]],[[[146.568,44.438],[146.119,44.251],[145.940,44.128],[145.779,43.928],[145.595,43.858],[145.554,43.650],[145.437,43.716],[145.409,43.835],[145.744,44.051],[146.127,44.507],[146.344,44.421],[146.568,44.438]]],[[[148.332,45.229],[147.877,44.974],[147.762,44.938],[147.620,44.966],[147.585,44.918],[147.622,44.897],[147.548,44.812],[147.291,44.666],[147.209,44.550],[147.021,44.507],[146.948,44.408],[146.840,44.415],[146.846,44.476],[147.153,44.673],[147.111,44.793],[147.479,44.974],[147.504,45.043],[147.656,45.075],[147.763,45.189],[147.894,45.223],[147.856,45.356],[147.932,45.421],[148.000,45.273],[148.069,45.248],[148.321,45.270],[148.700,45.520],[148.856,45.474],[148.825,45.334],[148.582,45.316],[148.332,45.229]]],[[[149.437,45.583],[149.667,45.850],[149.856,45.923],[150.0,46.045],[150.0,45.831],[149.684,45.633],[149.437,45.583]]]]}},{"type":"Feature","properties":{"name":"Ceylon (Dutch)","name_zh":"","focus":false,"label":[80.28,6.82],"area":1.8,"color":"#4f8f86"},"geometry":{"type":"MultiPolygon","coordinates":[[[[80.786,6.574],[81.476,6.316],[81.202,6.079],[80.851,5.951],[80.562,5.931],[80.341,5.969],[80.222,6.058],[80.016,6.495],[79.854,7.061],[79.838,7.815],[79.981,7.905],[80.786,6.574]]],[[[79.919,8.948],[80.052,9.113],[80.076,9.279],[80.178,9.445],[80.109,9.686],[80.347,9.470],[80.662,9.299],[80.892,8.946],[80.619,8.833],[80.522,8.869],[80.502,8.784],[80.391,8.738],[79.919,8.948]]]]}},{"type":"Feature","properties":{"name":"Tsardom of Muscovy","name_zh":"沙俄","focus":false,"label":[108.74,53.1],"area":445.4,"color":"#4f8f86"},"geometry":{"type":"Polygon","coordinates":[[[140.028,57.644],[138.866,57.124],[138.345,56.804],[137.229,55.982],[136.521,55.589],[135.269,55.028],[134.985,54.853],[134.893,54.719],[134.902,54.559],[135.094,54.432],[135.725,54.407],[136.196,54.474],[136.491,54.455],[136.343,53.887],[136.350,53.701],[136.487,53.654],[136.770,53.695],[137.040,53.862],[137.382,53.809],[137.121,53.589],[137.071,53.489],[137.239,53.456],[136.160,53.020],[135.273,53.020],[134.681,52.946],[134.237,53.464],[133.423,52.650],[133.127,52.650],[132.387,52.354],[132.017,52.428],[131.130,53.908],[130.538,53.908],[130.908,55.239],[130.390,56.053],[129.206,56.867],[128.836,56.645],[128.171,56.719],[126.913,56.497],[126.543,56.497],[124.915,56.201],[124.546,56.275],[124.102,56.275],[123.510,56.423],[122.696,55.979],[121.956,55.905],[121.734,55.387],[121.291,55.092],[121.217,54.722],[120.921,54.500],[121.069,54.278],[120.921,53.834],[121.660,53.760],[121.674,53.357],[121.187,53.319],[120.702,53.184],[119.996,52.703],[119.942,52.591],[120.563,52.614],[120.773,52.476],[120.821,52.364],[120.745,52.007],[120.128,51.733],[119.859,51.488],[119.182,50.701],[119.136,50.589],[119.321,50.367],[119.346,50.230],[119.291,50.124],[118.940,49.972],[117.644,49.593],[117.490,49.586],[116.566,50.005],[116.286,49.997],[115.733,49.864],[115.346,49.940],[114.855,50.225],[114.522,50.296],[114.098,50.274],[113.574,50.055],[113.033,49.653],[112.524,49.462],[111.378,49.319],[110.199,49.241],[109.424,49.295],[108.423,49.518],[108.058,49.686],[107.549,49.827],[106.668,50.313],[106.322,50.416],[105.155,50.443],[104.796,50.408],[103.680,50.166],[103.377,50.217],[102.639,50.456],[102.449,50.606],[102.265,50.808],[102.184,51.025],[102.182,51.269],[102.117,51.361],[101.772,51.425],[101.011,51.671],[99.758,51.902],[98.917,52.036],[97.610,52.148],[97.319,52.826],[95.865,53.795],[95.187,53.795],[93.567,52.348],[92.591,52.400],[91.965,51.569],[90.0,51.569],[85.601,48.230],[85.382,48.147],[83.115,48.283],[84.267,49.204],[81.479,50.291],[78.649,50.805],[74.920,54.149],[72.991,55.306],[64.687,54.272],[64.457,53.581],[63.038,51.176],[60.820,50.859],[60.0,50.883],[60.0,58.0],[140.347,58.0],[140.028,57.644]]]}},{"type":"Feature","properties":{"name":"Nogai Horde","name_zh":"","focus":false,"label":[60.15,45.95],"area":0.5,"color":"#a3727a"},"geometry":{"type":"Polygon","coordinates":[[[60.610,45.433],[60.953,45.245],[60.0,45.064],[60.0,46.457],[60.610,45.433]]]}},{"type":"Feature","properties":{"name":"Quazaq Khanate","name_zh":"哈萨克汗国","focus":false,"label":[72.78,47.66],"area":232.7,"color":"#7d6b5a"},"geometry":{"type":"Polygon","coordinates":[[[80.939,44.077],[68.782,40.944],[60.610,45.433],[60.0,46.457],[60.0,50.883],[60.820,50.859],[63.038,51.176],[64.457,53.581],[64.687,54.272],[72.991,55.306],[74.920,54.149],[78.649,50.805],[81.479,50.291],[84.267,49.204],[83.115,48.283],[85.382,48.147],[85.605,48.233],[85.535,47.181],[80.939,44.077]]]}},{"type":"Feature","properties":{"name":"Khiva Khanate","name_zh":"","focus":false,"label":[64.94,40.39],"area":51.4,"color":"#5f87a3"},"geometry":{"type":"Polygon","coordinates":[[[60.953,45.245],[68.782,40.944],[69.816,41.210],[70.095,37.907],[69.231,37.367],[66.335,36.307],[64.404,37.639],[64.346,37.872],[62.662,39.220],[62.113,39.220],[61.228,39.830],[60.0,38.888],[60.0,45.064],[60.953,45.245]]]}},{"type":"Feature","properties":{"name":"Bhutan","name_zh":"不丹","focus":false,"label":[89.97,27.33],"area":4.4,"color":"#8a6f9e"},"geometry":{"type":"Polygon","coordinates":[[[89.784,28.022],[91.300,27.997],[92.170,26.987],[91.064,26.752],[90.0,26.778],[90.0,26.718],[89.834,26.685],[88.867,26.908],[88.601,26.640],[88.231,26.757],[88.038,27.129],[88.070,27.523],[88.161,27.741],[89.671,28.197],[89.784,28.022]]]}},{"type":"Feature","properties":{"name":"Lan Na","name_zh":"八百媳妇 (兰纳)","focus":false,"label":[99.28,18.25],"area":10.0,"color":"#8a6f9e"},"geometry":{"type":"Polygon","coordinates":[[[99.905,16.665],[98.786,16.394],[98.393,17.083],[97.787,17.575],[97.706,18.051],[97.373,18.449],[97.711,18.508],[97.788,19.398],[97.852,19.563],[98.015,19.748],[98.508,19.719],[98.993,19.862],[99.170,20.129],[99.407,20.283],[99.603,20.361],[99.894,20.388],[100.001,20.458],[100.244,20.383],[100.430,20.226],[100.387,19.673],[100.417,19.508],[100.500,19.439],[100.690,19.440],[101.097,19.550],[101.229,18.910],[100.900,17.822],[100.888,17.600],[100.926,17.514],[99.905,16.665]]]}},{"type":"Feature","properties":{"name":"Hong Kong","name_zh":"","focus":false,"label":[114.2,22.35],"area":0.1,"color":"#7272a8"},"geometry":{"type":"MultiPolygon","coordinates":[[[[114.046,22.340],[114.022,22.228],[113.836,22.213],[113.901,22.290],[114.046,22.340]]],[[[114.166,22.560],[114.309,22.553],[114.413,22.436],[114.263,22.204],[114.207,22.221],[114.133,22.171],[114.098,22.216],[114.144,22.331],[113.925,22.367],[113.901,22.406],[114.166,22.560]]]]}},{"type":"Feature","properties":{"name":"Qing","name_zh":"清","focus":true,"label":[107.77,38.53],"area":972.7},"geometry":{"type":"MultiPolygon","coordinates":[[[[108.651,18.482],[108.576,19.187],[109.198,19.684],[109.420,19.659],[109.550,19.913],[109.915,19.800],[110.060,19.940],[110.617,20.017],[110.885,19.706],[110.612,19.471],[110.427,19.229],[110.298,18.898],[110.361,18.765],[110.262,18.625],[109.669,18.414],[109.429,18.096],[108.651,18.482]]],[[[89.784,28.022],[89.671,28.197],[88.161,27.741],[88.213,27.865],[87.902,27.947],[87.749,27.820],[87.596,27.873],[87.214,27.843],[87.070,28.006],[86.787,28.133],[86.603,28.133],[86.568,27.984],[86.445,27.947],[86.137,28.118],[86.142,27.954],[86.035,27.910],[85.972,28.118],[85.729,28.341],[85.144,28.341],[85.138,28.460],[85.216,28.639],[85.069,28.646],[84.920,28.535],[84.266,28.937],[84.298,29.063],[84.218,29.234],[84.088,29.309],[83.768,29.256],[83.697,29.182],[83.402,29.539],[83.197,29.666],[83.129,29.606],[82.917,29.703],[82.591,29.971],[82.200,30.090],[82.141,30.365],[81.655,30.454],[81.572,30.372],[81.448,30.402],[80.174,31.573],[79.329,35.628],[80.131,36.882],[89.616,36.882],[99.244,38.750],[99.388,39.756],[100.537,40.331],[102.118,39.756],[103.555,39.900],[104.561,41.480],[103.268,42.486],[103.268,43.061],[104.705,44.211],[104.274,44.929],[101.831,45.360],[100.394,45.504],[99.388,47.229],[99.531,48.666],[100.250,50.103],[101.772,51.425],[102.117,51.361],[102.182,51.269],[102.184,51.025],[102.265,50.808],[102.639,50.456],[103.377,50.217],[103.680,50.166],[104.796,50.408],[105.155,50.443],[106.322,50.416],[106.668,50.313],[107.549,49.827],[108.058,49.686],[108.423,49.518],[109.424,49.295],[110.199,49.241],[111.378,49.319],[112.524,49.462],[113.033,49.653],[113.574,50.055],[114.098,50.274],[114.522,50.296],[114.855,50.225],[115.346,49.940],[115.733,49.864],[116.286,49.997],[116.566,50.005],[117.490,49.586],[117.644,49.593],[118.940,49.972],[119.291,50.124],[119.346,50.230],[119.321,50.367],[119.136,50.589],[119.182,50.701],[119.859,51.488],[120.128,51.733],[120.745,52.007],[120.821,52.364],[120.773,52.476],[120.563,52.614],[119.942,52.591],[119.996,52.703],[120.702,53.184],[121.187,53.319],[121.674,53.357],[121.660,53.760],[120.921,53.834],[121.069,54.278],[120.921,54.500],[121.217,54.722],[121.291,55.092],[121.734,55.387],[121.956,55.905],[122.696,55.979],[123.510,56.423],[124.102,56.275],[124.546,56.275],[124.915,56.201],[126.543,56.497],[126.913,56.497],[128.171,56.719],[128.836,56.645],[129.206,56.867],[130.390,56.053],[130.908,55.239],[130.538,53.908],[131.130,53.908],[132.017,52.428],[132.387,52.354],[133.127,52.650],[133.423,52.650],[134.237,53.464],[134.681,52.946],[135.273,53.020],[136.160,53.020],[137.239,53.456],[137.979,53.464],[138.234,53.571],[138.409,53.805],[138.416,54.091],[139.378,54.080],[139.805,53.961],[140.102,53.801],[140.321,53.535],[141.121,53.051],[141.089,52.985],[140.828,52.825],[141.031,52.726],[141.090,52.586],[140.939,52.261],[141.160,52.209],[141.257,52.103],[141.126,51.871],[140.730,51.441],[140.404,50.827],[140.323,50.517],[140.456,50.103],[140.328,49.357],[140.081,48.502],[139.213,47.810],[139.046,47.615],[138.949,47.322],[138.351,46.873],[137.984,46.269],[137.720,45.996],[136.494,44.966],[136.033,44.398],[135.414,44.036],[134.962,43.515],[134.568,43.212],[134.138,42.992],[132.952,42.669],[132.827,42.861],[132.484,42.880],[132.333,42.963],[132.181,43.194],[131.674,43.026],[131.865,43.290],[131.584,43.212],[131.064,42.749],[130.435,42.276],[130.225,42.651],[129.965,42.957],[129.854,42.956],[129.568,42.737],[129.464,42.416],[129.034,42.177],[128.755,42.060],[128.309,42.077],[128.160,42.134],[127.984,42.107],[127.860,41.998],[127.849,41.844],[128.098,41.449],[127.861,41.377],[127.422,41.356],[126.972,41.539],[126.849,41.717],[126.474,41.651],[126.165,41.189],[125.879,40.945],[125.415,40.699],[124.725,40.427],[124.491,40.279],[124.133,39.843],[124.104,39.884],[123.916,39.807],[123.039,39.672],[122.027,39.255],[121.488,38.878],[121.216,38.756],[121.065,38.750],[121.123,38.865],[121.660,39.331],[121.448,39.382],[121.282,39.349],[121.213,39.483],[121.239,39.553],[121.668,39.905],[121.788,40.078],[122.107,40.353],[122.082,40.488],[121.753,40.736],[121.426,40.864],[121.010,40.850],[120.788,40.683],[120.272,40.151],[120.112,40.081],[119.823,40.042],[119.385,39.843],[119.210,39.639],[119.090,39.339],[118.977,39.224],[118.781,39.166],[118.559,39.172],[118.274,38.999],[118.069,39.254],[117.910,39.260],[117.752,39.202],[117.439,38.602],[117.479,38.449],[117.589,38.284],[117.840,38.163],[118.200,38.043],[118.744,38.063],[118.875,37.949],[118.811,37.446],[118.837,37.204],[118.954,37.077],[119.284,37.045],[119.598,37.116],[119.940,37.352],[120.169,37.576],[120.658,37.736],[120.787,37.704],[121.189,37.425],[121.434,37.336],[121.894,37.375],[122.392,37.300],[122.281,36.982],[122.255,36.733],[121.846,36.860],[121.609,36.834],[120.855,36.584],[120.537,36.386],[120.504,36.055],[120.269,35.985],[120.139,36.194],[119.913,36.143],[119.975,35.933],[119.907,35.768],[119.060,35.041],[119.003,34.939],[119.020,34.691],[119.299,34.590],[119.973,34.135],[120.149,33.894],[120.340,33.336],[120.640,33.044],[120.719,32.847],[120.660,32.543],[120.738,32.460],[121.050,32.328],[121.230,32.061],[121.483,31.948],[121.605,31.827],[121.645,31.688],[121.623,31.618],[121.268,31.452],[121.498,31.281],[121.640,30.926],[121.631,30.792],[121.568,30.710],[121.328,30.690],[121.035,30.594],[120.608,30.346],[120.226,30.250],[119.943,30.116],[120.437,29.996],[120.862,30.187],[121.082,30.213],[121.155,30.188],[121.391,29.922],[121.565,29.846],[121.770,29.834],[121.774,29.764],[121.670,29.624],[121.361,29.414],[121.411,29.344],[121.649,29.319],[121.432,28.836],[121.345,28.544],[121.358,28.385],[121.259,28.182],[121.165,28.124],[121.008,28.276],[120.505,27.590],[120.351,27.177],[120.084,26.985],[119.971,26.788],[119.857,26.706],[119.600,26.692],[119.428,26.590],[119.554,26.267],[119.436,26.038],[119.470,25.771],[119.428,25.650],[119.335,25.530],[119.095,25.440],[118.812,24.849],[118.531,24.690],[118.345,24.467],[117.924,24.561],[117.796,24.421],[117.849,24.047],[117.405,23.690],[116.962,23.556],[116.709,23.346],[116.452,23.250],[116.403,23.199],[116.400,22.983],[116.340,22.913],[115.860,22.836],[115.706,22.638],[115.308,22.771],[115.185,22.745],[115.043,22.599],[114.847,22.510],[114.558,22.464],[114.537,22.674],[113.989,22.552],[113.845,22.463],[113.716,22.482],[113.462,22.773],[113.376,22.646],[113.419,22.570],[113.377,22.163],[113.283,22.030],[113.096,21.979],[112.871,22.061],[112.815,21.826],[112.749,21.756],[112.039,21.659],[111.831,21.754],[111.733,21.709],[111.536,21.493],[111.434,21.461],[111.085,21.479],[110.749,21.377],[110.566,21.230],[110.238,21.280],[110.202,21.096],[110.077,20.867],[110.293,20.582],[110.414,20.525],[110.433,20.436],[110.271,20.315],[109.928,20.244],[109.711,20.568],[109.602,20.879],[109.608,21.057],[109.786,21.406],[109.779,21.482],[109.516,21.596],[109.414,21.564],[109.321,21.431],[109.117,21.399],[108.813,21.493],[108.554,21.823],[108.466,21.785],[108.387,21.530],[108.265,21.473],[107.875,21.462],[107.786,21.526],[107.098,21.649],[106.673,21.926],[106.550,22.090],[106.507,22.325],[106.719,22.662],[106.694,22.834],[106.588,22.928],[105.941,22.931],[105.593,23.037],[105.313,23.296],[105.179,23.250],[104.478,22.783],[103.397,22.707],[102.985,22.469],[102.570,22.689],[102.416,22.695],[102.185,22.636],[101.662,22.392],[101.554,22.283],[101.535,22.137],[101.752,21.472],[101.703,21.319],[101.584,21.223],[101.238,21.259],[101.013,21.442],[100.894,21.721],[100.612,21.535],[100.320,21.463],[100.040,21.620],[99.886,21.956],[99.755,22.127],[99.310,22.105],[99.208,22.149],[99.155,22.307],[99.483,23.020],[99.468,23.141],[99.233,23.184],[98.984,23.151],[98.893,23.296],[98.769,24.089],[98.698,24.146],[98.136,24.098],[97.767,23.899],[97.628,23.860],[97.530,23.892],[97.530,24.012],[97.631,24.273],[97.524,24.799],[97.887,25.271],[98.382,25.630],[98.733,26.343],[98.637,27.478],[98.571,27.541],[98.216,27.546],[98.118,27.685],[98.008,28.090],[97.829,28.286],[97.603,28.412],[97.478,28.392],[97.340,28.239],[97.340,28.182],[95.478,27.908],[94.837,27.567],[94.324,26.883],[92.401,26.584],[91.546,26.285],[90.0,26.360],[91.161,26.750],[91.064,26.752],[92.170,26.987],[91.300,27.997],[89.784,28.022]]]]}}]}