{"type":"FeatureCollection","features":[{"type":"Feature","properties":{"name":"Imperial Japan","name_zh":"日本","focus":false,"label":[139.77,37.37],"area":37.5,"color":"#5f87a3"},"geometry":{"type":"MultiPolygon","coordinates":[[[[130.474,31.439],[130.404,31.229],[130.232,31.026],[130.086,31.121],[130.060,31.216],[130.205,31.426],[130.219,31.559],[130.058,31.972],[130.443,32.283],[130.496,32.557],[130.257,32.912],[130.107,32.930],[129.845,32.587],[129.733,32.637],[129.630,32.866],[129.460,32.986],[129.343,33.151],[129.528,33.297],[129.858,33.260],[130.176,33.337],[130.426,33.674],[130.859,33.675],[130.971,33.503],[131.092,33.427],[131.286,33.390],[131.568,33.486],[131.669,33.308],[131.413,33.111],[131.795,32.807],[131.830,32.693],[131.562,32.432],[131.453,32.247],[131.319,31.511],[131.210,31.352],[130.959,31.193],[130.744,30.887],[130.579,30.906],[130.554,30.969],[130.674,31.211],[130.732,31.478],[130.581,31.528],[130.474,31.439]]],[[[132.449,33.519],[132.784,33.907],[132.968,33.793],[133.245,33.800],[133.462,33.883],[133.805,34.176],[134.010,34.189],[134.540,34.012],[134.609,33.898],[134.519,33.650],[133.998,33.148],[133.726,33.376],[133.516,33.394],[133.240,33.299],[133.154,33.216],[132.969,32.765],[132.900,32.669],[132.698,32.548],[132.467,32.757],[132.342,33.106],[132.121,33.347],[132.449,33.519]]],[[[136.983,36.833],[137.045,36.668],[137.176,36.643],[137.464,36.853],[138.317,37.205],[138.698,37.448],[138.856,37.735],[139.197,37.920],[139.353,38.067],[139.439,38.188],[139.503,38.417],[139.745,38.679],[139.741,38.743],[139.896,38.998],[140.030,39.483],[140.011,39.693],[139.862,39.782],[139.804,39.890],[139.985,40.114],[139.915,40.574],[140.159,40.729],[140.386,40.985],[140.472,40.985],[140.656,40.723],[141.152,40.865],[141.076,41.102],[140.936,41.114],[140.774,41.255],[141.087,41.441],[141.436,41.269],[141.467,40.514],[141.675,40.316],[141.998,39.671],[141.998,39.448],[141.887,39.129],[141.568,38.785],[141.467,38.587],[141.496,38.421],[141.024,38.210],[140.872,37.917],[140.982,37.268],[140.963,36.956],[140.655,36.618],[140.546,36.287],[140.555,35.969],[140.834,35.677],[140.394,35.409],[140.316,35.033],[139.830,34.835],[139.788,34.962],[140.002,35.497],[139.913,35.554],[139.682,35.445],[139.422,35.165],[139.208,35.165],[139.052,35.024],[139.022,34.688],[138.863,34.567],[138.779,34.579],[138.749,34.649],[138.751,34.922],[138.683,34.992],[138.450,34.902],[138.295,34.763],[138.149,34.527],[137.759,34.552],[137.248,34.481],[137.041,34.728],[136.733,34.874],[136.616,34.759],[136.507,34.518],[136.898,34.258],[136.766,34.169],[136.393,34.111],[136.199,34.003],[135.755,33.342],[135.062,33.690],[134.969,34.134],[135.236,34.350],[135.317,34.471],[135.286,34.598],[135.205,34.617],[134.935,34.540],[134.427,34.628],[133.825,34.385],[133.589,34.442],[132.481,34.129],[132.386,34.268],[132.183,34.287],[131.997,34.090],[131.994,33.804],[131.654,33.911],[130.899,33.903],[130.779,33.966],[130.892,34.246],[131.334,34.291],[131.672,34.501],[132.662,35.380],[132.980,35.444],[133.006,35.254],[133.804,35.427],[134.755,35.531],[135.156,35.646],[135.188,35.443],[135.357,35.322],[135.727,35.450],[135.928,35.603],[135.977,35.972],[136.668,36.667],[136.640,37.170],[136.810,37.310],[137.309,37.432],[137.334,37.273],[137.013,37.037],[136.983,36.833]]],[[[139.777,42.112],[139.711,42.477],[139.973,42.651],[140.499,42.896],[140.516,43.057],[140.373,43.185],[140.498,43.320],[140.598,43.326],[140.896,43.134],[141.064,43.096],[141.303,43.187],[141.301,43.720],[141.709,43.914],[141.745,44.628],[141.566,44.969],[141.522,45.182],[141.597,45.279],[141.875,45.435],[143.020,44.463],[143.790,44.027],[144.613,43.842],[144.750,43.881],[145.139,44.178],[145.347,44.243],[145.059,43.785],[145.448,43.169],[144.994,42.937],[144.754,42.866],[144.590,42.859],[144.370,42.949],[144.166,42.942],[144.002,42.877],[143.508,42.420],[143.330,42.196],[143.213,41.926],[143.033,41.958],[141.928,42.501],[141.721,42.539],[141.396,42.519],[140.929,42.255],[140.860,42.390],[140.693,42.550],[140.540,42.537],[140.223,42.363],[140.245,42.228],[140.767,42.005],[141.155,41.749],[140.979,41.652],[140.588,41.677],[140.268,41.324],[140.112,41.273],[140.012,41.381],[139.977,41.503],[140.124,41.792],[140.099,41.945],[139.852,42.035],[139.777,42.112]]],[[[146.124,43.459],[146.080,43.518],[146.226,43.525],[146.205,43.481],[146.124,43.459]]],[[[146.655,43.704],[146.596,43.736],[146.604,43.803],[146.842,43.874],[146.904,43.839],[146.655,43.704]]],[[[146.534,44.376],[146.119,44.251],[145.940,44.128],[145.779,43.928],[145.595,43.858],[145.554,43.650],[145.437,43.716],[145.409,43.835],[145.744,44.051],[146.127,44.507],[146.344,44.421],[146.568,44.438],[146.534,44.376]]],[[[148.285,45.220],[147.877,44.974],[147.762,44.938],[147.620,44.966],[147.585,44.918],[147.622,44.897],[147.548,44.812],[147.291,44.666],[147.209,44.550],[147.021,44.507],[146.948,44.408],[146.840,44.415],[146.846,44.476],[147.153,44.673],[147.111,44.793],[147.479,44.974],[147.504,45.043],[147.656,45.075],[147.763,45.189],[147.894,45.223],[147.856,45.356],[147.932,45.421],[148.000,45.273],[148.069,45.248],[148.321,45.270],[148.700,45.520],[148.856,45.474],[148.843,45.352],[148.784,45.316],[148.591,45.318],[148.285,45.220]]],[[[149.437,45.583],[149.667,45.850],[149.856,45.923],[150.0,46.045],[150.0,45.831],[149.684,45.633],[149.437,45.583]]]]}},{"type":"Feature","properties":{"name":"Bhutan","name_zh":"不丹","focus":false,"label":[90.35,27.55],"area":3.5,"color":"#8a6f9e"},"geometry":{"type":"Polygon","coordinates":[[[89.796,28.226],[90.0,28.279],[90.0,28.053],[91.152,28.032],[91.319,28.014],[91.459,27.919],[91.607,27.641],[91.594,27.463],[91.998,27.193],[92.006,27.066],[91.908,26.805],[91.161,26.750],[90.0,26.778],[90.0,26.718],[89.834,26.685],[88.867,26.908],[88.761,27.129],[89.365,27.876],[89.796,28.226]]]}},{"type":"Feature","properties":{"name":"Philippines","name_zh":"吕宋","focus":false,"label":[120.59,15.69],"area":19.2,"color":"#7272a8"},"geometry":{"type":"MultiPolygon","coordinates":[[[[125.614,7.236],[125.280,6.593],[125.465,6.244],[125.532,5.939],[125.461,5.717],[125.289,5.488],[125.072,5.722],[125.163,5.907],[125.129,6.053],[124.965,6.084],[124.803,5.785],[124.224,6.089],[123.973,6.336],[123.880,6.565],[123.864,6.851],[124.073,7.258],[124.024,7.474],[123.815,7.658],[123.464,7.790],[123.333,7.771],[123.247,7.593],[123.022,7.478],[122.725,7.452],[122.713,7.674],[122.635,7.782],[122.455,7.693],[121.991,6.872],[121.839,6.967],[121.824,7.056],[122.093,7.775],[122.211,7.902],[122.384,7.985],[122.637,8.004],[122.736,8.062],[122.796,8.272],[122.888,8.342],[123.135,8.450],[123.485,8.496],[123.616,8.337],[123.662,8.013],[123.805,8.083],[124.023,8.109],[124.117,8.192],[124.210,8.446],[124.371,8.561],[124.670,8.428],[124.741,8.918],[124.872,8.924],[124.990,8.715],[125.224,8.995],[125.401,8.951],[125.460,9.053],[125.439,9.370],[125.362,9.624],[125.428,9.783],[125.933,9.174],[126.037,8.958],[126.074,8.812],[125.923,8.482],[126.029,8.380],[126.271,8.425],[126.306,8.235],[126.254,8.044],[126.279,7.733],[126.372,7.536],[126.321,7.148],[126.045,6.608],[125.954,6.652],[125.910,6.849],[125.747,7.185],[125.614,7.236]]],[[[117.535,9.048],[118.088,9.431],[118.508,9.921],[118.557,9.673],[118.504,9.482],[118.384,9.349],[117.967,9.113],[117.857,8.833],[117.710,8.712],[117.444,8.635],[117.270,8.450],[117.127,8.469],[117.224,8.685],[117.535,9.048]]],[[[122.347,9.815],[122.602,9.910],[122.700,10.031],[122.920,10.851],[123.117,10.934],[123.239,10.922],[123.312,10.738],[123.104,10.229],[122.962,9.594],[123.132,9.251],[123.037,9.066],[122.941,9.047],[122.395,9.478],[122.303,9.649],[122.347,9.815]]],[[[118.847,10.214],[119.108,10.627],[119.207,11.129],[119.353,11.212],[119.416,11.130],[119.344,11.002],[119.564,10.501],[118.864,10.023],[118.699,10.035],[118.756,10.169],[118.847,10.214]]],[[[122.210,11.580],[122.470,11.454],[122.635,11.442],[122.919,11.525],[122.896,11.150],[122.706,10.940],[122.297,10.647],[121.873,10.468],[121.993,11.758],[122.210,11.580]]],[[[124.854,11.491],[124.916,11.643],[124.875,11.834],[124.330,12.208],[124.264,12.417],[124.952,12.527],[125.119,12.476],[125.246,12.292],[125.333,11.562],[125.448,11.206],[125.323,11.123],[125.069,11.244],[124.854,11.491]]],[[[120.546,13.152],[120.340,13.387],[121.039,13.407],[121.180,13.332],[121.304,13.129],[121.316,12.741],[121.273,12.525],[121.094,12.201],[120.733,12.549],[120.546,13.152]]],[[[119.771,15.469],[119.812,15.978],[119.681,16.187],[119.762,16.359],[120.202,16.042],[120.293,16.233],[120.246,16.874],[120.311,17.071],[120.393,18.043],[120.564,18.431],[120.800,18.552],[121.036,18.527],[121.580,18.294],[121.839,18.275],[122.049,18.447],[122.139,18.384],[122.147,18.206],[122.027,18.009],[122.007,17.793],[122.070,17.437],[122.313,17.260],[122.395,17.114],[122.203,16.542],[122.063,16.332],[121.402,15.873],[121.368,15.498],[121.242,15.307],[121.456,14.882],[121.728,14.108],[121.973,13.949],[122.106,13.918],[122.397,14.306],[122.486,14.319],[122.674,14.269],[122.776,14.174],[122.856,13.888],[122.985,13.729],[123.131,13.692],[123.359,13.952],[123.701,13.820],[123.736,13.763],[123.397,13.527],[123.818,12.975],[123.676,12.892],[123.238,13.025],[123.196,13.241],[123.093,13.380],[122.485,13.881],[122.369,13.880],[122.325,13.779],[122.491,13.430],[122.394,13.302],[122.067,13.651],[121.624,13.898],[121.486,13.891],[121.331,13.827],[121.187,13.681],[121.009,13.655],[120.598,13.921],[120.510,14.112],[120.798,14.385],[121.104,14.253],[121.285,14.342],[121.217,14.418],[120.896,14.551],[120.706,14.728],[120.471,14.804],[120.363,14.530],[120.305,14.575],[119.971,14.904],[119.771,15.469]]]]}},{"type":"Feature","properties":{"name":"Ceylon","name_zh":"","focus":false,"label":[80.73,7.62],"area":5.0,"color":"#b0805f"},"geometry":{"type":"Polygon","coordinates":[[[80.341,5.969],[80.222,6.058],[80.127,6.216],[79.854,7.061],[79.832,8.103],[79.724,8.416],[79.808,8.647],[79.674,8.804],[79.705,8.930],[79.896,8.920],[80.052,9.113],[80.076,9.279],[80.178,9.445],[80.109,9.686],[80.347,9.470],[80.662,9.299],[81.093,8.626],[81.060,8.410],[81.326,8.258],[81.445,7.928],[81.804,7.313],[81.866,7.084],[81.779,6.753],[81.599,6.448],[81.202,6.079],[80.851,5.951],[80.341,5.969]]]}},{"type":"Feature","properties":{"name":"Afghanistan","name_zh":"阿富汗","focus":false,"label":[65.22,33.82],"area":63.0,"color":"#a3727a"},"geometry":{"type":"Polygon","coordinates":[[[61.779,30.905],[61.693,31.266],[60.880,31.484],[60.793,31.578],[60.540,32.993],[60.853,33.483],[60.841,33.566],[60.465,33.716],[60.412,34.014],[60.419,34.078],[60.687,34.250],[60.787,34.384],[61.221,35.581],[62.179,35.288],[62.677,35.265],[63.062,35.490],[63.062,35.700],[63.116,35.789],[64.494,36.280],[64.632,36.784],[64.825,37.147],[65.336,37.239],[65.724,37.490],[65.979,37.357],[66.676,37.240],[67.515,37.213],[67.621,37.157],[67.855,36.852],[67.965,36.834],[68.184,36.899],[68.706,37.182],[68.852,37.183],[69.136,37.076],[69.307,37.083],[69.537,37.282],[69.567,37.505],[69.698,37.531],[70.022,37.456],[70.221,37.528],[70.315,37.630],[70.334,37.936],[70.529,38.128],[70.590,38.291],[70.718,38.364],[70.960,38.347],[71.219,38.144],[71.149,37.875],[71.367,37.918],[71.444,37.834],[71.386,37.370],[71.303,37.170],[71.466,36.752],[71.524,36.714],[71.847,36.716],[72.182,36.938],[72.448,36.967],[72.714,37.186],[73.047,37.328],[73.351,37.341],[73.441,37.307],[73.383,37.228],[73.444,37.201],[73.882,37.268],[74.137,37.370],[74.255,37.302],[74.733,37.209],[74.646,37.144],[74.388,37.170],[74.392,37.049],[74.499,37.044],[74.520,37.004],[74.453,36.940],[74.292,36.938],[74.087,36.804],[73.938,36.807],[73.786,36.726],[73.494,36.791],[72.889,36.786],[72.372,36.717],[71.760,36.323],[71.649,36.333],[71.533,36.237],[71.324,36.051],[71.328,35.907],[71.514,35.785],[71.518,35.634],[71.623,35.557],[71.569,35.339],[71.658,35.125],[71.512,34.933],[71.096,34.620],[71.038,34.493],[71.153,34.138],[71.023,34.023],[70.792,33.926],[70.029,33.998],[69.869,33.940],[70.191,33.606],[70.289,33.283],[70.199,33.168],[69.639,33.050],[69.507,32.948],[69.277,32.382],[69.206,31.798],[69.053,31.625],[68.946,31.587],[68.496,31.755],[68.242,31.767],[67.828,31.536],[67.683,31.224],[67.569,31.185],[67.048,31.239],[66.920,31.207],[66.466,30.842],[66.381,30.690],[66.277,30.295],[66.232,29.889],[66.201,29.806],[66.090,29.736],[64.644,29.448],[64.089,29.394],[63.479,29.454],[62.946,29.356],[62.368,29.384],[61.503,29.601],[60.820,29.833],[61.779,30.905]]]}},{"type":"Feature","properties":{"name":"Malaya","name_zh":"","focus":false,"label":[116.73,6.0],"area":6.1,"color":"#7272a8"},"geometry":{"type":"MultiPolygon","coordinates":[[[[102.802,5.560],[103.212,5.0],[100.393,5.0],[100.139,6.177],[100.158,6.340],[100.360,6.416],[100.617,6.422],[100.665,6.212],[100.866,6.159],[100.984,6.051],[101.027,5.855],[100.931,5.676],[100.984,5.568],[101.076,5.531],[101.311,5.834],[101.450,5.761],[101.472,5.546],[101.762,5.586],[101.812,5.845],[102.034,6.002],[102.073,6.154],[102.325,6.099],[102.802,5.560]]],[[[115.417,5.111],[115.203,5.275],[115.291,5.453],[115.717,5.467],[115.787,5.740],[115.970,5.881],[116.098,6.097],[116.337,6.358],[116.595,6.899],[116.740,6.689],[116.889,6.645],[117.031,6.836],[117.168,6.614],[117.507,6.392],[117.540,6.240],[117.353,5.877],[117.370,5.788],[117.866,5.904],[117.918,5.802],[117.761,5.580],[118.256,5.663],[118.377,5.638],[118.997,5.277],[119.042,5.169],[118.908,5.0],[115.432,5.0],[115.417,5.111]]]]}},{"type":"Feature","properties":{"name":"Nepal","name_zh":"尼泊尔","focus":false,"label":[83.2,28.38],"area":13.5,"color":"#9a8a4a"},"geometry":{"type":"Polygon","coordinates":[[[81.388,30.172],[81.448,30.402],[81.572,30.372],[81.655,30.454],[82.141,30.365],[82.200,30.090],[82.591,29.971],[82.917,29.703],[83.129,29.606],[83.197,29.666],[83.402,29.539],[83.697,29.182],[83.768,29.256],[84.088,29.309],[84.218,29.234],[84.298,29.063],[84.266,28.937],[84.920,28.535],[85.069,28.646],[85.216,28.639],[85.138,28.460],[85.144,28.341],[85.729,28.341],[85.972,28.118],[86.035,27.910],[86.142,27.954],[86.137,28.118],[86.445,27.947],[86.568,27.984],[86.603,28.133],[86.787,28.133],[87.070,28.006],[87.214,27.843],[87.596,27.873],[87.749,27.820],[87.902,27.947],[88.197,27.875],[88.070,27.523],[88.038,27.129],[88.231,26.757],[88.092,26.444],[87.940,26.466],[87.632,26.407],[87.510,26.444],[87.349,26.384],[87.169,26.437],[87.049,26.600],[86.776,26.466],[86.395,26.630],[86.071,26.697],[85.900,26.593],[85.759,26.704],[85.775,26.853],[85.634,26.883],[85.371,26.757],[85.093,26.876],[84.964,27.002],[84.666,27.069],[84.711,27.270],[84.647,27.374],[84.358,27.404],[84.136,27.538],[83.874,27.382],[83.657,27.501],[83.430,27.501],[83.391,27.404],[83.324,27.374],[83.187,27.463],[82.811,27.538],[82.729,27.716],[82.487,27.687],[82.025,27.954],[81.921,27.880],[81.362,28.185],[81.225,28.423],[80.908,28.490],[80.609,28.706],[80.399,28.669],[80.115,28.840],[80.098,28.951],[80.335,29.323],[80.317,29.502],[80.416,29.621],[80.412,29.785],[80.539,29.837],[81.021,30.246],[81.129,30.053],[81.263,30.030],[81.388,30.172]]]}},{"type":"Feature","properties":{"name":"Netherlands Indies","name_zh":"","focus":false,"label":[95.54,5.36],"area":0.6,"color":"#8a6f9e"},"geometry":{"type":"Polygon","coordinates":[[[95.205,5.245],[95.216,5.499],[95.283,5.550],[95.464,5.569],[95.740,5.468],[96.024,5.215],[96.187,5.145],[96.752,5.064],[97.384,5.180],[97.561,5.0],[95.293,5.0],[95.205,5.245]]]}},{"type":"Feature","properties":{"name":"Persia","name_zh":"","focus":false,"label":[60.88,31.0],"area":14.9,"color":"#a07d5a"},"geometry":{"type":"Polygon","coordinates":[[[60.858,25.095],[60.479,25.298],[60.0,25.322],[60.0,36.873],[60.346,36.607],[61.014,36.636],[61.096,36.541],[61.118,35.905],[61.221,35.581],[60.787,34.384],[60.687,34.250],[60.419,34.078],[60.412,34.014],[60.465,33.716],[60.841,33.566],[60.853,33.483],[60.540,32.993],[60.793,31.578],[60.880,31.484],[61.693,31.266],[61.758,31.101],[61.779,30.905],[60.820,29.833],[61.042,29.060],[61.598,28.736],[61.659,28.656],[62.085,28.442],[62.171,27.585],[62.605,27.585],[62.605,26.977],[62.258,26.977],[61.737,26.543],[61.680,25.645],[61.569,25.039],[61.343,25.026],[60.858,25.095]]]}},{"type":"Feature","properties":{"name":"central Asian khanates","name_zh":"","focus":false,"label":[62.77,37.37],"area":21.6,"color":"#b0805f"},"geometry":{"type":"MultiPolygon","coordinates":[[[[65.336,37.239],[64.825,37.147],[64.632,36.784],[64.494,36.280],[63.116,35.789],[63.062,35.700],[63.062,35.490],[62.677,35.265],[62.179,35.288],[61.308,35.531],[61.186,35.594],[61.118,35.905],[61.096,36.541],[61.014,36.636],[60.346,36.607],[60.0,36.873],[60.0,39.181],[61.589,39.349],[63.339,38.888],[64.813,38.243],[65.724,37.490],[65.336,37.239]]],[[[73.764,39.451],[73.770,38.955],[73.676,38.855],[73.712,38.718],[73.858,38.541],[74.066,38.561],[74.169,38.634],[74.579,38.590],[74.702,38.520],[74.835,38.298],[74.844,38.060],[74.912,38.054],[74.934,37.999],[74.878,37.807],[74.988,37.700],[74.920,37.538],[75.010,37.465],[74.892,37.270],[74.733,37.209],[74.255,37.302],[74.137,37.370],[73.882,37.268],[73.444,37.201],[73.383,37.228],[73.441,37.307],[73.351,37.341],[73.047,37.328],[72.714,37.186],[72.067,39.130],[71.459,39.130],[71.459,39.738],[72.241,39.911],[72.848,40.606],[73.195,40.519],[73.884,39.879],[73.764,39.451]]]]}},{"type":"Feature","properties":{"name":"India","name_zh":"","focus":false,"label":[62.93,27.04],"area":1.7,"color":"#4f8f86"},"geometry":{"type":"MultiPolygon","coordinates":[[[[62.605,27.585],[62.171,27.585],[62.085,28.442],[62.670,28.205],[62.746,28.034],[62.796,27.431],[62.879,27.254],[63.173,27.230],[63.257,27.103],[63.240,26.665],[63.156,26.550],[62.612,26.484],[62.298,26.367],[61.941,26.156],[61.812,25.984],[61.680,25.645],[61.737,26.543],[62.258,26.977],[62.605,26.977],[62.605,27.585]]],[[[60.820,29.833],[61.598,28.736],[61.042,29.060],[60.820,29.833]]]]}},{"type":"Feature","properties":{"name":"British Raj","name_zh":"英属印度","focus":false,"label":[80.1,22.51],"area":419.6,"color":"#a07d5a"},"geometry":{"type":"Polygon","coordinates":[[[91.571,22.543],[91.410,22.720],[91.081,22.561],[90.0,22.560],[90.0,21.930],[89.869,22.133],[89.796,21.832],[89.670,21.719],[89.578,21.700],[89.456,21.941],[89.233,21.655],[89.072,21.774],[88.994,21.629],[89.025,21.546],[88.723,21.539],[88.656,21.857],[88.567,21.895],[88.377,21.577],[88.299,21.551],[88.053,21.938],[87.867,21.696],[87.640,21.563],[86.937,21.288],[86.796,21.135],[86.926,20.691],[86.637,20.319],[86.632,20.203],[86.119,19.806],[85.379,19.605],[85.113,19.442],[84.262,18.455],[83.987,18.207],[83.684,18.083],[83.381,17.710],[82.353,17.085],[82.234,16.647],[82.081,16.462],[81.788,16.328],[81.596,16.302],[81.369,16.346],[81.253,16.225],[81.087,15.826],[80.963,15.723],[80.735,15.837],[80.459,15.773],[80.300,15.645],[80.089,15.175],[80.169,13.891],[80.075,13.669],[80.319,13.333],[80.313,13.104],[79.769,11.730],[79.710,11.444],[79.826,10.358],[79.789,10.250],[79.306,10.255],[79.222,10.192],[79.072,9.759],[78.926,9.492],[78.937,9.435],[79.159,9.277],[78.313,8.995],[78.181,8.811],[78.135,8.499],[78.064,8.385],[77.899,8.257],[77.419,8.028],[77.341,8.053],[76.703,8.706],[76.537,9.118],[76.385,9.747],[76.075,10.553],[75.651,11.423],[75.210,12.102],[74.733,13.683],[74.401,14.419],[73.841,15.390],[73.572,16.037],[73.064,18.031],[72.853,19.244],[72.759,20.057],[72.864,20.311],[73.109,20.687],[73.112,20.827],[72.931,20.953],[72.765,21.150],[72.665,21.848],[72.695,22.128],[72.319,22.115],[72.232,22.019],[72.127,21.828],[72.131,21.746],[72.288,21.549],[72.256,21.352],[72.120,21.155],[71.894,20.989],[71.528,20.823],[71.024,20.657],[70.855,20.650],[70.467,20.777],[70.209,20.947],[69.126,21.968],[68.894,22.285],[69.492,22.248],[69.968,22.351],[70.176,22.478],[70.410,22.752],[70.380,22.860],[70.045,22.777],[69.664,22.789],[69.107,22.898],[68.790,23.028],[68.372,23.326],[68.072,23.675],[68.046,23.764],[67.692,23.814],[67.486,23.928],[67.315,24.092],[67.204,24.588],[67.153,24.651],[66.654,24.783],[66.700,25.114],[66.620,25.317],[66.432,25.488],[66.300,25.494],[65.768,25.309],[64.851,25.205],[64.424,25.173],[64.238,25.210],[64.059,25.401],[63.650,25.336],[63.403,25.164],[62.449,25.162],[61.569,25.039],[61.673,25.627],[61.812,25.984],[61.941,26.156],[62.298,26.367],[62.612,26.484],[63.156,26.550],[63.240,26.665],[63.257,27.103],[63.173,27.230],[62.879,27.254],[62.796,27.431],[62.746,28.034],[62.670,28.205],[61.972,28.480],[61.659,28.656],[60.820,29.833],[61.503,29.601],[62.368,29.384],[62.946,29.356],[63.479,29.454],[64.089,29.394],[64.644,29.448],[66.090,29.736],[66.201,29.806],[66.232,29.889],[66.277,30.295],[66.381,30.690],[66.466,30.842],[66.920,31.207],[67.048,31.239],[67.569,31.185],[67.683,31.224],[67.828,31.536],[68.242,31.767],[68.496,31.755],[68.946,31.587],[69.053,31.625],[69.206,31.798],[69.277,32.382],[69.507,32.948],[69.639,33.050],[70.199,33.168],[70.289,33.283],[70.191,33.606],[69.869,33.940],[70.029,33.998],[70.792,33.926],[71.023,34.023],[71.153,34.138],[71.038,34.493],[71.096,34.620],[71.512,34.933],[71.658,35.125],[71.569,35.339],[71.623,35.557],[71.518,35.634],[71.514,35.785],[71.328,35.907],[71.324,36.051],[71.533,36.237],[71.649,36.333],[71.760,36.323],[72.372,36.717],[72.889,36.786],[73.494,36.791],[73.786,36.726],[73.938,36.807],[74.087,36.804],[74.292,36.938],[74.453,36.940],[74.520,37.004],[74.709,36.891],[74.835,36.986],[75.218,36.912],[75.219,36.707],[75.346,36.765],[75.627,36.768],[75.891,36.512],[75.894,36.286],[75.754,36.054],[75.889,36.023],[76.092,35.798],[76.433,35.886],[76.480,35.797],[76.815,35.560],[77.417,35.513],[77.620,35.406],[77.846,35.474],[77.846,35.243],[78.144,34.547],[78.508,34.497],[78.806,34.199],[78.574,34.017],[78.624,33.504],[78.757,33.404],[79.079,33.361],[79.140,33.244],[79.446,33.200],[79.400,33.014],[79.565,32.701],[79.136,32.411],[78.970,32.389],[78.818,32.508],[78.803,32.672],[78.450,32.582],[78.521,32.270],[78.781,32.002],[78.734,31.801],[78.857,31.637],[78.760,31.541],[78.805,31.347],[78.894,31.317],[79.108,31.459],[79.281,31.347],[79.628,30.968],[79.792,31.020],[80.277,30.759],[80.225,30.596],[80.565,30.484],[80.634,30.514],[81.021,30.246],[80.539,29.837],[80.412,29.785],[80.416,29.621],[80.317,29.502],[80.335,29.323],[80.098,28.951],[80.115,28.840],[80.399,28.669],[80.609,28.706],[80.908,28.490],[81.225,28.423],[81.362,28.185],[81.921,27.880],[82.025,27.954],[82.487,27.687],[82.729,27.716],[82.811,27.538],[83.187,27.463],[83.324,27.374],[83.391,27.404],[83.430,27.501],[83.657,27.501],[83.874,27.382],[84.136,27.538],[84.358,27.404],[84.647,27.374],[84.711,27.270],[84.666,27.069],[84.964,27.002],[85.093,26.876],[85.371,26.757],[85.634,26.883],[85.775,26.853],[85.759,26.704],[85.900,26.593],[86.071,26.697],[86.395,26.630],[86.776,26.466],[87.049,26.600],[87.169,26.437],[87.349,26.384],[87.510,26.444],[87.632,26.407],[87.940,26.466],[88.092,26.444],[88.231,26.757],[88.038,27.129],[88.070,27.523],[88.197,27.875],[88.564,27.979],[88.668,27.948],[88.730,27.866],[88.707,27.478],[88.802,27.180],[88.761,27.129],[88.867,26.908],[89.834,26.685],[90.0,26.718],[90.0,26.778],[91.161,26.750],[91.908,26.805],[92.006,27.066],[91.998,27.193],[91.594,27.463],[91.607,27.641],[91.692,27.686],[92.046,27.701],[92.367,27.798],[93.051,28.417],[93.295,28.584],[93.668,28.700],[94.411,29.161],[94.571,29.200],[95.139,28.981],[95.308,29.001],[95.928,29.379],[96.455,28.881],[96.475,28.710],[96.254,28.385],[97.340,28.182],[97.340,28.239],[97.478,28.392],[97.603,28.412],[97.829,28.286],[98.008,28.090],[98.118,27.685],[98.216,27.546],[98.571,27.541],[98.637,27.478],[98.733,26.343],[98.575,25.955],[98.382,25.630],[97.887,25.271],[97.524,24.799],[97.631,24.273],[97.530,24.012],[97.530,23.892],[97.695,23.879],[98.196,21.608],[97.773,21.366],[97.372,20.779],[97.274,18.503],[97.392,18.453],[97.706,18.051],[97.787,17.575],[98.393,17.083],[98.823,16.317],[98.735,16.209],[98.532,16.106],[98.475,16.004],[98.579,15.471],[98.502,15.382],[98.137,15.189],[98.486,14.372],[99.003,13.886],[99.094,13.670],[99.133,13.372],[99.097,12.972],[99.581,11.888],[99.546,11.755],[98.637,10.288],[98.593,10.120],[98.431,10.201],[98.397,10.563],[98.605,10.862],[98.738,11.435],[98.867,11.645],[98.590,11.695],[98.588,11.822],[98.676,12.051],[98.596,12.737],[98.485,13.111],[98.198,13.644],[97.822,14.616],[97.573,16.445],[97.351,16.527],[97.214,16.939],[96.881,17.345],[96.770,17.332],[96.734,16.887],[96.662,16.697],[96.469,16.512],[95.713,16.155],[95.552,15.875],[95.329,15.677],[95.222,15.804],[95.220,16.001],[95.124,15.995],[94.972,15.835],[94.828,15.842],[94.753,15.937],[94.819,16.210],[94.415,16.076],[94.304,15.948],[94.144,16.005],[94.143,16.215],[94.392,16.908],[94.464,17.264],[94.420,18.140],[93.965,19.194],[93.839,18.952],[93.457,19.174],[93.814,19.257],[93.723,19.594],[93.334,20.025],[93.065,19.992],[92.894,20.113],[92.921,20.373],[92.827,20.424],[92.662,20.404],[92.403,20.613],[92.176,20.886],[91.946,21.362],[91.845,21.908],[91.571,22.543]]]}},{"type":"Feature","properties":{"name":"Rattanakosin Kingdom","name_zh":"暹罗","focus":false,"label":[101.86,14.94],"area":51.1,"color":"#b0805f"},"geometry":{"type":"Polygon","coordinates":[[[103.621,14.410],[103.083,14.291],[102.848,14.093],[102.360,13.507],[102.346,12.946],[102.444,12.655],[102.688,12.260],[102.612,12.095],[102.323,12.186],[101.918,12.585],[101.723,12.654],[101.586,12.661],[101.329,12.558],[101.023,12.672],[100.871,12.678],[100.956,13.364],[100.908,13.447],[100.473,13.509],[100.239,13.490],[100.040,13.394],[99.930,13.261],[100.023,12.994],[99.833,12.523],[99.895,12.079],[99.186,10.489],[99.071,9.898],[99.118,9.371],[99.298,9.161],[99.724,9.257],[99.837,9.226],[99.898,9.067],[99.865,8.711],[100.009,8.490],[100.131,8.532],[100.301,7.886],[100.344,7.440],[100.539,7.048],[100.614,6.978],[100.975,6.852],[101.217,6.802],[101.427,6.828],[101.559,6.739],[101.679,6.464],[102.073,6.154],[102.034,6.002],[101.812,5.845],[101.762,5.586],[101.472,5.546],[101.450,5.761],[101.311,5.834],[101.076,5.531],[100.984,5.568],[100.931,5.676],[101.027,5.855],[100.984,6.051],[100.866,6.159],[100.665,6.212],[100.617,6.422],[100.360,6.416],[100.158,6.340],[100.221,6.520],[100.154,6.603],[99.969,6.507],[99.833,6.538],[99.662,6.710],[99.610,6.938],[99.639,7.065],[99.571,7.262],[99.468,7.338],[99.293,7.319],[99.024,7.871],[98.544,8.264],[98.292,8.155],[98.195,8.327],[98.177,8.600],[98.250,8.937],[98.632,10.100],[98.593,10.120],[98.637,10.288],[99.546,11.755],[99.581,11.888],[99.097,12.972],[99.133,13.372],[99.094,13.670],[99.003,13.886],[98.486,14.372],[98.137,15.189],[98.502,15.382],[98.579,15.471],[98.475,16.004],[98.532,16.106],[98.735,16.209],[98.823,16.317],[98.393,17.083],[97.787,17.575],[97.706,18.051],[97.392,18.453],[97.274,18.503],[97.372,20.779],[97.773,21.366],[98.196,21.608],[97.695,23.879],[98.136,24.098],[98.698,24.146],[98.769,24.089],[98.893,23.296],[98.984,23.151],[99.233,23.184],[99.468,23.141],[99.483,23.020],[99.155,22.307],[99.208,22.149],[99.310,22.105],[99.755,22.127],[99.886,21.956],[100.040,21.620],[100.320,21.463],[100.612,21.535],[100.894,21.721],[101.013,21.442],[100.787,21.282],[100.350,20.746],[100.001,20.458],[100.244,20.383],[100.430,20.226],[100.387,19.673],[100.417,19.508],[100.500,19.439],[100.690,19.440],[101.097,19.550],[101.117,19.500],[101.229,18.910],[100.900,17.822],[100.888,17.600],[100.953,17.454],[101.170,17.392],[101.864,18.107],[102.019,18.121],[102.661,17.845],[102.761,17.877],[103.005,17.993],[103.224,18.439],[103.406,18.433],[103.807,18.347],[103.927,18.278],[104.079,17.910],[104.388,17.614],[104.584,17.329],[104.610,16.643],[104.658,16.479],[105.214,15.694],[105.402,15.378],[105.473,15.150],[105.474,14.724],[105.419,14.527],[105.056,14.239],[104.920,14.314],[104.651,14.364],[104.156,14.350],[103.621,14.410]]]}},{"type":"Feature","properties":{"name":"Korea","name_zh":"朝鲜","focus":false,"label":[126.64,38.66],"area":23.2,"color":"#b0805f"},"geometry":{"type":"MultiPolygon","coordinates":[[[[126.843,33.308],[126.266,33.190],[126.158,33.314],[126.317,33.452],[126.633,33.531],[126.821,33.550],[126.941,33.453],[126.843,33.308]]],[[[126.106,34.387],[126.243,34.573],[126.380,34.494],[126.342,34.401],[126.186,34.351],[126.106,34.387]]],[[[125.914,34.685],[125.981,34.716],[126.008,34.691],[125.971,34.647],[125.914,34.685]]],[[[126.005,34.768],[125.932,34.718],[125.888,34.732],[125.908,34.772],[126.005,34.768]]],[[[125.986,34.860],[126.062,34.928],[126.094,34.909],[126.063,34.854],[125.986,34.860]]],[[[126.059,35.090],[126.137,35.142],[126.162,35.143],[126.106,35.046],[126.059,35.090]]],[[[126.335,36.438],[126.324,36.565],[126.376,36.590],[126.431,36.403],[126.335,36.438]]],[[[126.166,36.839],[126.163,36.824],[126.158,36.833],[126.166,36.839]]],[[[124.615,37.968],[124.718,37.983],[124.746,37.954],[124.651,37.914],[124.615,37.968]]],[[[126.648,34.320],[126.694,34.389],[126.774,34.286],[126.700,34.284],[126.648,34.320]]],[[[127.114,34.463],[127.213,34.485],[127.245,34.465],[127.160,34.414],[127.114,34.463]]],[[[127.711,34.526],[127.770,34.538],[127.798,34.484],[127.780,34.474],[127.711,34.526]]],[[[127.739,34.604],[127.768,34.664],[127.812,34.641],[127.799,34.572],[127.739,34.604]]],[[[128.055,34.813],[128.060,34.701],[127.977,34.697],[127.860,34.719],[127.822,34.843],[127.898,34.933],[127.956,34.800],[128.055,34.813]]],[[[128.741,34.781],[128.585,34.703],[128.597,34.834],[128.526,34.805],[128.490,34.868],[128.711,34.976],[128.741,34.781]]],[[[127.997,34.835],[128.024,34.913],[128.085,34.830],[127.997,34.835]]],[[[130.805,37.513],[130.919,37.545],[130.922,37.481],[130.868,37.450],[130.805,37.513]]],[[[126.375,37.617],[126.209,37.754],[125.909,37.511],[125.741,37.784],[125.561,37.835],[125.269,37.484],[125.076,37.770],[124.769,37.935],[124.693,38.139],[124.736,38.279],[124.929,38.464],[125.268,38.567],[125.293,38.688],[125.027,38.815],[125.296,39.364],[125.206,39.485],[124.922,39.618],[124.688,39.605],[124.548,39.541],[124.442,39.573],[124.133,39.843],[124.491,40.279],[124.725,40.427],[125.415,40.699],[125.879,40.945],[126.165,41.189],[126.474,41.651],[126.849,41.717],[126.972,41.539],[127.422,41.356],[127.861,41.377],[128.098,41.449],[127.849,41.844],[127.860,41.998],[127.984,42.107],[128.160,42.134],[128.309,42.077],[128.755,42.060],[129.034,42.177],[129.464,42.416],[129.568,42.737],[129.740,42.898],[129.965,42.957],[130.225,42.651],[130.435,42.276],[129.824,41.861],[129.641,41.655],[129.590,41.469],[129.631,41.277],[129.477,40.682],[129.177,40.630],[128.446,40.065],[128.236,39.969],[127.931,39.956],[127.671,39.866],[127.440,39.623],[127.276,39.221],[127.404,39.075],[127.956,38.694],[128.260,38.411],[128.303,38.583],[128.363,38.625],[128.634,38.125],[129.049,37.685],[129.342,37.257],[129.433,37.058],[129.416,36.942],[129.474,36.774],[129.416,36.616],[129.438,36.400],[129.381,36.314],[129.388,36.025],[129.463,35.994],[129.557,36.078],[129.588,36.007],[129.466,35.537],[129.237,35.189],[129.136,35.112],[128.978,35.084],[128.973,35.134],[128.810,35.084],[128.572,35.169],[128.378,35.036],[128.372,35.004],[128.477,35.053],[128.501,35.008],[128.434,34.834],[128.335,34.871],[128.329,34.949],[128.216,34.930],[128.203,34.888],[128.066,34.924],[128.020,34.986],[127.767,34.960],[127.643,34.900],[127.593,34.941],[127.576,34.886],[127.638,34.814],[127.773,34.843],[127.747,34.727],[127.634,34.614],[127.554,34.656],[127.567,34.766],[127.522,34.856],[127.418,34.818],[127.363,34.751],[127.514,34.591],[127.389,34.471],[127.315,34.443],[127.124,34.537],[127.201,34.633],[127.192,34.569],[127.242,34.569],[127.328,34.652],[127.328,34.743],[127.009,34.602],[126.889,34.412],[126.800,34.463],[126.783,34.587],[126.600,34.300],[126.478,34.345],[126.463,34.484],[126.288,34.590],[126.289,34.742],[126.451,34.578],[126.451,34.648],[126.618,34.619],[126.476,34.724],[126.659,34.812],[126.539,34.873],[126.510,34.775],[126.375,34.785],[126.433,34.963],[126.318,34.932],[126.249,35.116],[126.344,35.151],[126.359,35.069],[126.431,35.023],[126.458,35.090],[126.360,35.180],[126.421,35.406],[126.523,35.524],[126.687,35.533],[126.664,35.591],[126.498,35.578],[126.474,35.635],[126.751,35.778],[126.801,35.861],[126.788,35.894],[126.615,35.890],[126.631,35.967],[126.761,35.995],[126.872,36.054],[126.685,35.999],[126.544,36.136],[126.464,36.574],[126.527,36.592],[126.497,36.723],[126.347,36.739],[126.293,36.581],[126.272,36.717],[126.172,36.672],[126.128,36.751],[126.191,36.819],[126.184,36.878],[126.291,36.962],[126.321,36.884],[126.289,36.785],[126.401,36.851],[126.413,36.933],[126.348,36.952],[126.355,36.996],[126.442,36.999],[126.483,36.842],[126.502,37.052],[126.619,36.972],[126.781,36.963],[126.838,36.753],[127.000,36.929],[126.908,36.919],[126.752,37.048],[126.776,37.123],[126.869,37.176],[126.694,37.121],[126.661,37.156],[126.661,37.253],[126.865,37.266],[126.722,37.328],[126.741,37.386],[126.656,37.411],[126.621,37.481],[126.674,37.488],[126.652,37.566],[126.539,37.681],[126.513,37.597],[126.375,37.617]]]]}},{"type":"Feature","properties":{"name":"Russian Empire","name_zh":"俄罗斯帝国","focus":false,"label":[72.86,47.39],"area":878.3,"color":"#6f9460"},"geometry":{"type":"MultiPolygon","coordinates":[[[[139.293,57.336],[138.345,56.804],[137.229,55.982],[136.521,55.589],[135.269,55.028],[134.985,54.853],[134.893,54.719],[134.902,54.559],[135.094,54.432],[135.312,54.413],[135.725,54.407],[136.196,54.474],[136.491,54.455],[136.343,53.887],[136.350,53.701],[136.487,53.654],[136.770,53.695],[137.040,53.862],[137.382,53.809],[137.121,53.589],[137.071,53.489],[137.239,53.456],[137.979,53.464],[138.234,53.571],[138.409,53.805],[138.416,54.091],[139.378,54.080],[139.805,53.961],[140.102,53.801],[140.321,53.535],[141.121,53.051],[141.089,52.985],[140.828,52.825],[141.031,52.726],[141.090,52.586],[140.939,52.261],[141.160,52.209],[141.257,52.103],[141.126,51.871],[140.730,51.441],[140.404,50.827],[140.323,50.517],[140.456,50.103],[140.328,49.357],[140.081,48.502],[139.213,47.810],[139.046,47.615],[138.949,47.322],[138.351,46.873],[137.984,46.269],[137.720,45.996],[136.494,44.966],[136.033,44.398],[135.414,44.036],[134.962,43.515],[134.568,43.212],[134.138,42.992],[132.952,42.669],[132.827,42.861],[132.484,42.880],[132.333,42.963],[132.181,43.194],[131.674,43.026],[131.865,43.290],[131.584,43.212],[131.064,42.749],[130.435,42.276],[130.225,42.651],[130.839,42.885],[131.069,43.078],[131.139,43.226],[131.089,43.360],[131.132,43.418],[131.146,43.867],[131.118,44.163],[130.969,44.566],[130.990,44.817],[131.739,45.259],[132.777,44.987],[132.988,45.143],[133.384,45.648],[133.666,46.134],[133.908,46.614],[134.165,47.334],[134.717,47.694],[134.709,47.921],[134.628,48.213],[134.517,48.264],[134.111,48.249],[133.580,48.155],[132.969,48.015],[132.268,47.778],[130.924,47.732],[130.807,47.932],[130.475,48.899],[130.383,48.964],[129.186,49.342],[128.501,49.455],[127.940,49.609],[127.711,49.699],[127.515,49.874],[127.099,50.730],[126.675,51.445],[126.186,52.518],[125.852,52.946],[125.509,53.156],[124.643,53.112],[124.336,53.197],[123.869,53.413],[123.352,53.510],[121.187,53.319],[120.702,53.184],[119.996,52.703],[119.942,52.591],[120.563,52.614],[120.773,52.476],[120.821,52.364],[120.745,52.007],[120.128,51.733],[119.859,51.488],[119.182,50.701],[119.136,50.589],[119.321,50.367],[119.346,50.230],[119.291,50.124],[118.940,49.972],[117.842,49.633],[117.490,49.586],[116.566,50.005],[116.286,49.997],[115.733,49.864],[115.346,49.940],[114.855,50.225],[114.522,50.296],[114.098,50.274],[113.574,50.055],[113.033,49.653],[112.524,49.462],[111.378,49.319],[110.199,49.241],[109.424,49.295],[108.423,49.518],[108.058,49.686],[107.549,49.827],[106.668,50.313],[106.322,50.416],[105.155,50.443],[104.796,50.408],[103.680,50.166],[103.377,50.217],[102.639,50.456],[102.449,50.606],[102.265,50.808],[102.184,51.025],[102.182,51.269],[102.117,51.361],[101.772,51.425],[101.011,51.671],[99.758,51.902],[98.917,52.036],[97.610,52.148],[97.319,52.826],[95.865,53.795],[95.187,53.795],[93.567,52.348],[94.210,51.320],[93.323,50.620],[92.159,50.755],[91.101,50.460],[90.0,50.306],[90.0,50.127],[89.796,49.816],[89.462,49.639],[89.190,49.572],[88.566,49.536],[87.758,49.199],[87.152,49.176],[86.908,49.110],[86.782,48.992],[86.762,48.653],[86.624,48.554],[85.954,48.486],[85.761,48.361],[85.609,48.100],[85.748,47.444],[85.678,47.268],[85.477,47.092],[84.967,47.018],[84.336,47.054],[83.251,47.294],[83.059,47.066],[82.439,45.735],[82.719,45.504],[82.776,45.375],[82.601,45.200],[82.425,45.166],[81.690,45.356],[80.236,45.122],[80.059,45.037],[79.932,44.805],[80.036,44.722],[80.201,44.748],[80.419,44.685],[80.432,44.074],[80.718,43.594],[80.772,43.382],[80.672,43.234],[80.355,42.988],[80.210,42.808],[80.255,42.083],[80.109,41.999],[78.870,41.678],[78.401,41.228],[78.110,41.072],[77.689,41.019],[77.020,41.111],[76.810,40.899],[76.602,40.546],[76.481,40.436],[75.855,40.312],[75.700,40.336],[75.591,40.623],[75.429,40.610],[74.648,40.279],[73.884,39.879],[73.195,40.519],[72.848,40.606],[72.241,39.911],[71.459,39.738],[71.459,39.130],[72.067,39.130],[72.714,37.186],[72.448,36.967],[72.182,36.938],[71.847,36.716],[71.524,36.714],[71.466,36.752],[71.303,37.170],[71.386,37.370],[71.444,37.834],[71.367,37.918],[71.149,37.875],[71.219,38.144],[70.891,38.372],[70.718,38.364],[70.590,38.291],[70.529,38.128],[70.334,37.936],[70.315,37.630],[70.221,37.528],[70.022,37.456],[69.698,37.531],[69.567,37.505],[69.537,37.282],[69.307,37.083],[69.136,37.076],[68.852,37.183],[68.706,37.182],[68.184,36.899],[67.965,36.834],[67.855,36.852],[67.621,37.157],[67.515,37.213],[66.676,37.240],[65.979,37.357],[65.724,37.490],[64.813,38.243],[63.339,38.888],[61.589,39.349],[60.0,39.181],[60.0,58.0],[140.347,58.0],[140.028,57.644],[139.293,57.336]],[[109.760,55.773],[109.575,55.771],[109.193,55.535],[109.171,55.193],[109.052,55.027],[108.916,54.951],[108.932,54.897],[108.785,54.672],[108.592,54.492],[108.223,53.976],[107.626,53.611],[107.534,53.438],[106.851,53.102],[106.773,53.022],[106.873,53.029],[106.880,52.973],[106.537,52.705],[106.059,52.511],[105.859,52.386],[105.569,52.108],[105.165,51.905],[103.713,51.694],[104.156,51.535],[104.655,51.482],[105.797,51.701],[105.967,51.774],[106.186,51.956],[106.313,52.323],[106.497,52.383],[106.806,52.328],[106.938,52.474],[107.098,52.541],[107.947,52.780],[108.287,52.989],[108.334,53.037],[108.302,53.109],[108.391,53.163],[108.661,53.301],[108.767,53.281],[108.931,53.344],[108.989,53.450],[108.920,53.565],[108.841,53.586],[108.532,53.513],[108.943,53.862],[109.060,53.830],[109.030,53.638],[109.177,53.637],[109.210,53.827],[109.537,54.116],[109.489,54.380],[109.523,54.558],[109.764,55.039],[109.75,55.185],[109.857,55.445],[109.860,55.574],[109.955,55.672],[109.760,55.773]],[[78.868,46.798],[78.630,46.746],[78.476,46.624],[78.367,46.642],[78.347,46.512],[78.297,46.468],[78.136,46.594],[77.859,46.647],[77.266,46.611],[77.174,46.555],[77.082,46.624],[76.668,46.673],[76.450,46.640],[76.203,46.780],[75.825,46.818],[75.338,46.729],[75.088,46.813],[74.625,46.752],[74.374,46.518],[74.023,46.369],[73.949,46.288],[74.020,46.204],[73.679,46.183],[73.662,46.062],[73.737,46.012],[73.559,45.816],[73.440,45.805],[73.531,45.734],[73.436,45.609],[73.614,45.513],[73.839,45.263],[73.999,45.188],[74.017,45.012],[74.1,44.988],[74.155,45.270],[74.082,45.352],[74.089,45.509],[74.312,45.670],[74.242,45.751],[74.303,45.789],[74.253,45.941],[74.278,46.004],[74.549,46.005],[74.771,46.107],[74.911,46.404],[75.093,46.460],[75.212,46.426],[75.304,46.519],[75.405,46.470],[75.448,46.498],[75.404,46.609],[75.463,46.670],[75.552,46.672],[75.491,46.596],[75.611,46.507],[76.238,46.554],[76.741,46.531],[77.103,46.454],[77.429,46.499],[77.652,46.415],[77.865,46.428],[78.075,46.328],[78.317,46.349],[78.445,46.297],[78.465,46.392],[78.889,46.369],[79.022,46.447],[79.094,46.581],[79.245,46.645],[79.221,46.720],[79.084,46.810],[78.990,46.748],[78.868,46.798]]],[[[143.444,46.571],[143.303,46.011],[143.004,46.577],[142.614,46.712],[142.513,46.699],[142.327,46.563],[141.898,45.914],[141.708,46.139],[141.622,46.558],[141.909,47.073],[141.731,47.471],[141.810,47.675],[142.036,47.959],[141.977,48.284],[141.739,48.807],[141.921,48.943],[142.049,49.354],[142.152,50.890],[142.112,51.219],[142.016,51.430],[141.643,51.813],[141.598,52.216],[141.811,52.628],[141.840,52.960],[141.689,53.165],[141.767,53.272],[142.214,53.299],[142.674,53.540],[143.056,53.061],[143.138,52.856],[143.143,52.511],[143.033,52.312],[142.944,51.961],[142.943,51.617],[143.074,51.267],[143.340,50.885],[143.633,50.234],[144.038,49.508],[144.539,48.753],[143.598,49.233],[143.152,49.258],[142.853,49.127],[142.646,48.657],[142.489,47.901],[142.614,47.459],[142.993,46.953],[143.236,46.863],[143.444,46.571]]],[[[106.960,53.078],[107.584,53.283],[107.795,53.392],[107.766,53.267],[107.437,53.102],[106.962,53.023],[106.960,53.078]]]]}},{"type":"Feature","properties":{"name":"Hong Kong","name_zh":"","focus":false,"label":[114.2,22.35],"area":0.1,"color":"#7272a8"},"geometry":{"type":"MultiPolygon","coordinates":[[[[114.046,22.340],[114.022,22.228],[113.836,22.213],[113.901,22.290],[114.046,22.340]]],[[[114.166,22.560],[114.309,22.553],[114.413,22.436],[114.263,22.204],[114.207,22.221],[114.133,22.171],[114.098,22.216],[114.144,22.331],[113.925,22.367],[113.901,22.406],[114.166,22.560]]]]}},{"type":"Feature","properties":{"name":"French Indochina","name_zh":"法属印度支那","focus":false,"label":[106.69,15.85],"area":63.1,"color":"#7d6b5a"},"geometry":{"type":"Polygon","coordinates":[[[102.185,22.636],[102.570,22.689],[102.985,22.469],[103.397,22.707],[104.478,22.783],[105.179,23.250],[105.313,23.296],[105.593,23.037],[105.941,22.931],[106.588,22.928],[106.694,22.834],[106.719,22.662],[106.507,22.325],[106.550,22.090],[106.673,21.926],[107.098,21.649],[107.786,21.526],[107.875,21.462],[107.417,21.185],[107.465,20.976],[107.374,20.880],[106.807,20.905],[106.746,20.815],[106.771,20.638],[106.380,20.110],[105.964,19.880],[105.843,19.702],[105.532,18.844],[106.364,18.007],[106.433,17.550],[106.622,17.328],[107.114,16.954],[107.809,16.282],[108.095,16.251],[108.236,16.080],[108.363,15.623],[108.498,15.363],[108.786,15.090],[108.917,14.792],[109.071,14.170],[109.307,12.906],[109.068,12.486],[109.073,11.635],[108.897,11.342],[108.695,11.145],[108.164,10.966],[107.938,10.806],[107.672,10.526],[107.412,10.367],[107.265,10.347],[107.035,10.436],[106.773,10.639],[106.704,10.448],[106.748,10.067],[106.656,9.743],[106.482,9.552],[106.335,9.520],[106.229,9.551],[106.118,9.335],[105.926,9.188],[105.503,9.029],[105.208,8.653],[104.907,8.474],[104.742,8.493],[104.822,9.472],[104.890,9.694],[104.987,9.822],[104.978,9.980],[104.764,10.177],[104.427,10.284],[104.160,10.519],[104.003,10.537],[103.830,10.473],[103.606,10.473],[103.524,10.524],[103.670,10.765],[103.652,10.880],[103.524,11.057],[103.400,11.038],[103.192,10.904],[103.039,10.897],[102.962,11.367],[102.670,12.037],[102.735,12.116],[102.664,12.332],[102.444,12.655],[102.346,12.946],[102.334,13.232],[102.434,13.538],[102.848,14.093],[103.083,14.291],[103.782,14.378],[104.141,14.348],[104.392,14.381],[104.920,14.314],[105.056,14.239],[105.419,14.527],[105.474,14.724],[105.473,15.150],[105.402,15.378],[104.658,16.479],[104.610,16.643],[104.584,17.329],[104.388,17.614],[104.079,17.910],[103.927,18.278],[103.807,18.347],[103.224,18.439],[103.005,17.993],[102.661,17.845],[102.019,18.121],[101.864,18.107],[101.170,17.392],[100.953,17.454],[100.888,17.600],[100.900,17.822],[101.229,18.910],[101.117,19.500],[101.097,19.550],[100.690,19.440],[100.500,19.439],[100.417,19.508],[100.387,19.673],[100.430,20.226],[100.244,20.383],[100.001,20.458],[100.350,20.746],[100.787,21.282],[101.013,21.442],[101.238,21.259],[101.584,21.223],[101.703,21.319],[101.752,21.472],[101.699,21.706],[101.596,21.871],[101.535,22.137],[101.554,22.283],[101.662,22.392],[102.185,22.636]]]}},{"type":"Feature","properties":{"name":"Qing","name_zh":"清","focus":true,"label":[98.42,37.02],"area":1147.0},"geometry":{"type":"MultiPolygon","coordinates":[[[[109.198,19.684],[109.420,19.659],[109.550,19.913],[109.915,19.800],[110.060,19.940],[110.617,20.017],[110.885,19.706],[110.612,19.471],[110.427,19.229],[110.298,18.898],[110.361,18.765],[110.262,18.625],[109.669,18.414],[109.429,18.096],[108.651,18.482],[108.560,19.060],[108.576,19.187],[108.684,19.295],[109.198,19.684]]],[[[128.755,42.060],[128.309,42.077],[128.160,42.134],[127.984,42.107],[127.860,41.998],[127.849,41.844],[128.098,41.449],[127.861,41.377],[127.422,41.356],[127.194,41.425],[126.972,41.539],[126.849,41.717],[126.474,41.651],[126.165,41.189],[125.879,40.945],[125.415,40.699],[124.725,40.427],[124.491,40.279],[124.133,39.843],[124.104,39.884],[123.916,39.807],[123.039,39.672],[122.027,39.255],[121.488,38.878],[121.216,38.756],[121.065,38.750],[121.123,38.865],[121.660,39.331],[121.448,39.382],[121.282,39.349],[121.213,39.483],[121.239,39.553],[121.668,39.905],[121.788,40.078],[122.107,40.353],[122.082,40.488],[121.753,40.736],[121.426,40.864],[121.010,40.850],[120.788,40.683],[120.272,40.151],[120.112,40.081],[119.823,40.042],[119.385,39.843],[119.210,39.639],[119.090,39.339],[118.977,39.224],[118.781,39.166],[118.559,39.172],[118.274,38.999],[118.069,39.254],[117.910,39.260],[117.752,39.202],[117.439,38.602],[117.479,38.449],[117.589,38.284],[117.840,38.163],[118.200,38.043],[118.744,38.063],[118.875,37.949],[118.811,37.446],[118.837,37.204],[118.954,37.077],[119.284,37.045],[119.598,37.116],[119.940,37.352],[120.169,37.576],[120.658,37.736],[120.787,37.704],[121.189,37.425],[121.434,37.336],[121.894,37.375],[122.392,37.300],[122.281,36.982],[122.255,36.733],[121.846,36.860],[121.609,36.834],[120.855,36.584],[120.537,36.386],[120.504,36.055],[120.269,35.985],[120.139,36.194],[119.913,36.143],[119.975,35.933],[119.907,35.768],[119.060,35.041],[119.003,34.939],[119.020,34.691],[119.299,34.590],[119.973,34.135],[120.149,33.894],[120.340,33.336],[120.640,33.044],[120.719,32.847],[120.660,32.543],[120.738,32.460],[121.050,32.328],[121.230,32.061],[121.483,31.948],[121.605,31.827],[121.623,31.618],[121.268,31.452],[121.498,31.281],[121.640,30.926],[121.631,30.792],[121.568,30.710],[121.328,30.690],[121.035,30.594],[120.608,30.346],[120.226,30.250],[119.943,30.116],[120.437,29.996],[120.862,30.187],[121.082,30.213],[121.155,30.188],[121.391,29.922],[121.565,29.846],[121.770,29.834],[121.774,29.764],[121.670,29.624],[121.361,29.414],[121.411,29.344],[121.649,29.319],[121.432,28.836],[121.345,28.544],[121.358,28.385],[121.259,28.182],[121.165,28.124],[121.008,28.276],[120.942,28.213],[120.505,27.590],[120.351,27.177],[120.084,26.985],[119.971,26.788],[119.857,26.706],[119.600,26.692],[119.428,26.590],[119.554,26.267],[119.436,26.038],[119.470,25.771],[119.428,25.650],[119.335,25.530],[119.095,25.440],[118.812,24.849],[118.531,24.690],[118.345,24.467],[117.924,24.561],[117.796,24.421],[117.849,24.047],[117.405,23.690],[116.962,23.556],[116.709,23.346],[116.452,23.250],[116.403,23.199],[116.400,22.983],[116.340,22.913],[115.860,22.836],[115.706,22.638],[115.308,22.771],[115.185,22.745],[115.043,22.599],[114.847,22.510],[114.558,22.464],[114.537,22.674],[113.989,22.552],[113.845,22.463],[113.716,22.482],[113.462,22.773],[113.376,22.646],[113.419,22.570],[113.377,22.163],[113.283,22.030],[113.096,21.979],[112.871,22.061],[112.815,21.826],[112.749,21.756],[112.039,21.659],[111.831,21.754],[111.733,21.709],[111.536,21.493],[111.434,21.461],[111.085,21.479],[110.749,21.377],[110.566,21.230],[110.238,21.280],[110.202,21.096],[110.077,20.867],[110.293,20.582],[110.414,20.525],[110.433,20.436],[110.271,20.315],[109.928,20.244],[109.711,20.568],[109.602,20.879],[109.608,21.057],[109.786,21.406],[109.779,21.482],[109.516,21.596],[109.414,21.564],[109.321,21.431],[109.117,21.399],[108.813,21.493],[108.554,21.823],[108.466,21.785],[108.387,21.530],[108.265,21.473],[107.875,21.462],[107.786,21.526],[107.098,21.649],[106.673,21.926],[106.550,22.090],[106.507,22.325],[106.719,22.662],[106.694,22.834],[106.588,22.928],[105.941,22.931],[105.593,23.037],[105.313,23.296],[105.179,23.250],[104.478,22.783],[103.397,22.707],[102.985,22.469],[102.570,22.689],[102.416,22.695],[102.185,22.636],[101.662,22.392],[101.554,22.283],[101.535,22.137],[101.752,21.472],[101.703,21.319],[101.584,21.223],[101.238,21.259],[101.093,21.353],[100.944,21.549],[100.894,21.721],[100.612,21.535],[100.320,21.463],[100.209,21.501],[100.040,21.620],[99.886,21.956],[99.755,22.127],[99.310,22.105],[99.208,22.149],[99.155,22.307],[99.483,23.020],[99.468,23.141],[99.233,23.184],[98.984,23.151],[98.893,23.296],[98.769,24.089],[98.698,24.146],[98.136,24.098],[97.767,23.899],[97.628,23.860],[97.530,23.892],[97.530,24.012],[97.631,24.273],[97.524,24.799],[97.887,25.271],[98.382,25.630],[98.733,26.343],[98.637,27.478],[98.571,27.541],[98.216,27.546],[98.118,27.685],[98.008,28.090],[97.829,28.286],[97.603,28.412],[97.478,28.392],[97.340,28.239],[97.340,28.182],[96.254,28.385],[96.475,28.710],[96.455,28.881],[95.928,29.379],[95.308,29.001],[95.139,28.981],[94.571,29.200],[94.411,29.161],[93.668,28.700],[93.295,28.584],[93.051,28.417],[92.546,27.919],[92.367,27.798],[92.046,27.701],[91.692,27.686],[91.607,27.641],[91.459,27.919],[91.319,28.014],[90.0,28.053],[90.0,28.279],[89.863,28.272],[89.365,27.876],[88.802,27.180],[88.707,27.478],[88.730,27.866],[88.668,27.948],[88.564,27.979],[88.197,27.875],[87.902,27.947],[87.749,27.820],[87.596,27.873],[87.214,27.843],[87.070,28.006],[86.787,28.133],[86.603,28.133],[86.568,27.984],[86.445,27.947],[86.137,28.118],[86.142,27.954],[86.035,27.910],[85.972,28.118],[85.729,28.341],[85.144,28.341],[85.138,28.460],[85.216,28.639],[85.069,28.646],[84.920,28.535],[84.266,28.937],[84.298,29.063],[84.218,29.234],[84.088,29.309],[83.768,29.256],[83.697,29.182],[83.402,29.539],[83.197,29.666],[83.129,29.606],[82.917,29.703],[82.591,29.971],[82.200,30.090],[82.141,30.365],[81.655,30.454],[81.572,30.372],[81.448,30.402],[81.388,30.172],[81.263,30.030],[81.129,30.053],[81.021,30.246],[80.634,30.514],[80.565,30.484],[80.225,30.596],[80.277,30.759],[79.792,31.020],[79.628,30.968],[79.281,31.347],[79.108,31.459],[78.894,31.317],[78.805,31.347],[78.760,31.541],[78.857,31.637],[78.734,31.801],[78.781,32.002],[78.521,32.270],[78.450,32.582],[78.803,32.672],[78.818,32.508],[78.970,32.389],[79.136,32.411],[79.565,32.701],[79.400,33.014],[79.446,33.200],[79.140,33.244],[79.079,33.361],[78.757,33.404],[78.624,33.504],[78.574,34.017],[78.806,34.199],[78.508,34.497],[78.144,34.547],[77.846,35.243],[77.846,35.474],[77.620,35.406],[77.417,35.513],[76.815,35.560],[76.480,35.797],[76.433,35.886],[76.092,35.798],[75.889,36.023],[75.754,36.054],[75.894,36.286],[75.891,36.512],[75.627,36.768],[75.346,36.765],[75.219,36.707],[75.218,36.912],[74.835,36.986],[74.709,36.891],[74.499,37.044],[74.392,37.049],[74.388,37.170],[74.646,37.144],[74.892,37.270],[75.010,37.465],[74.920,37.538],[74.988,37.700],[74.878,37.807],[74.934,37.999],[74.912,38.054],[74.844,38.060],[74.835,38.298],[74.702,38.520],[74.579,38.590],[74.169,38.634],[74.066,38.561],[73.858,38.541],[73.712,38.718],[73.676,38.855],[73.770,38.955],[73.759,39.420],[73.827,39.783],[73.884,39.879],[74.648,40.279],[75.429,40.610],[75.591,40.623],[75.700,40.336],[75.855,40.312],[76.481,40.436],[76.602,40.546],[76.810,40.899],[77.020,41.111],[77.689,41.019],[78.110,41.072],[78.401,41.228],[78.870,41.678],[80.109,41.999],[80.255,42.083],[80.210,42.808],[80.355,42.988],[80.672,43.234],[80.772,43.382],[80.718,43.594],[80.432,44.074],[80.419,44.685],[80.201,44.748],[80.036,44.722],[79.932,44.805],[79.962,44.901],[80.059,45.037],[80.236,45.122],[81.690,45.356],[82.425,45.166],[82.706,45.265],[82.776,45.375],[82.719,45.504],[82.439,45.735],[83.059,47.066],[83.251,47.294],[84.336,47.054],[84.967,47.018],[85.477,47.092],[85.678,47.268],[85.748,47.444],[85.609,48.100],[85.761,48.361],[85.954,48.486],[86.624,48.554],[86.762,48.653],[86.782,48.992],[86.908,49.110],[87.152,49.176],[87.758,49.199],[88.566,49.536],[89.190,49.572],[89.462,49.639],[89.796,49.816],[90.0,50.127],[90.0,50.306],[91.101,50.460],[92.159,50.755],[93.323,50.620],[94.210,51.320],[93.567,52.348],[95.187,53.795],[95.865,53.795],[97.319,52.826],[97.610,52.148],[98.917,52.036],[99.758,51.902],[101.011,51.671],[101.772,51.425],[102.117,51.361],[102.182,51.269],[102.184,51.025],[102.265,50.808],[102.449,50.606],[102.639,50.456],[103.377,50.217],[103.680,50.166],[104.796,50.408],[105.155,50.443],[106.322,50.416],[106.668,50.313],[107.549,49.827],[108.058,49.686],[108.423,49.518],[109.424,49.295],[110.199,49.241],[111.378,49.319],[112.524,49.462],[113.033,49.653],[113.574,50.055],[114.098,50.274],[114.522,50.296],[114.855,50.225],[115.346,49.940],[115.733,49.864],[116.286,49.997],[116.566,50.005],[117.490,49.586],[117.842,49.633],[118.940,49.972],[119.291,50.124],[119.346,50.230],[119.321,50.367],[119.136,50.589],[119.182,50.701],[119.859,51.488],[120.128,51.733],[120.745,52.007],[120.821,52.364],[120.773,52.476],[120.563,52.614],[119.942,52.591],[119.996,52.703],[120.702,53.184],[121.187,53.319],[123.352,53.510],[123.869,53.413],[124.336,53.197],[124.643,53.112],[125.509,53.156],[125.852,52.946],[126.186,52.518],[126.675,51.445],[127.099,50.730],[127.515,49.874],[127.711,49.699],[127.940,49.609],[128.501,49.455],[129.186,49.342],[130.383,48.964],[130.475,48.899],[130.807,47.932],[130.924,47.732],[132.268,47.778],[132.969,48.015],[133.580,48.155],[134.111,48.249],[134.517,48.264],[134.628,48.213],[134.709,47.921],[134.717,47.694],[134.165,47.334],[133.908,46.614],[133.666,46.134],[133.384,45.648],[132.988,45.143],[132.777,44.987],[131.739,45.259],[130.990,44.817],[130.969,44.566],[131.118,44.163],[131.146,43.867],[131.132,43.418],[131.089,43.360],[131.139,43.226],[131.069,43.078],[130.839,42.885],[130.225,42.651],[129.965,42.957],[129.854,42.956],[129.568,42.737],[129.464,42.416],[128.755,42.060]]]]}}]}