{"type":"FeatureCollection","features":[{"type":"Feature","properties":{"name":"Tokugawa shogunate","name_zh":"日本 (德川)","focus":false,"label":[139.78,37.37],"area":36.9,"color":"#5f87a3"},"geometry":{"type":"MultiPolygon","coordinates":[[[[130.674,31.211],[130.732,31.478],[130.581,31.528],[130.474,31.439],[130.404,31.229],[130.232,31.026],[130.086,31.121],[130.06,31.216],[130.205,31.426],[130.219,31.559],[130.058,31.972],[130.481,32.347],[130.496,32.557],[130.257,32.912],[130.107,32.93],[129.845,32.587],[129.733,32.637],[129.63,32.866],[129.46,32.986],[129.343,33.151],[129.528,33.297],[129.858,33.26],[130.176,33.337],[130.426,33.674],[130.644,33.7],[130.859,33.675],[130.971,33.503],[131.092,33.427],[131.286,33.39],[131.568,33.486],[131.669,33.308],[131.413,33.111],[131.795,32.807],[131.83,32.693],[131.562,32.432],[131.453,32.247],[131.319,31.511],[131.21,31.352],[130.959,31.193],[130.744,30.887],[130.579,30.906],[130.554,30.969],[130.674,31.211]]],[[[132.467,32.757],[132.342,33.106],[132.121,33.347],[132.449,33.519],[132.784,33.907],[132.968,33.793],[133.245,33.8],[133.462,33.883],[133.805,34.176],[134.01,34.189],[134.54,34.012],[134.609,33.898],[134.519,33.65],[133.998,33.148],[133.726,33.376],[133.516,33.394],[133.24,33.299],[133.154,33.216],[132.969,32.765],[132.9,32.669],[132.698,32.548],[132.467,32.757]]],[[[137.334,37.273],[137.013,37.037],[136.983,36.833],[137.045,36.668],[137.176,36.643],[137.464,36.853],[138.492,37.301],[138.698,37.448],[138.856,37.735],[139.197,37.92],[139.353,38.067],[139.439,38.188],[139.503,38.417],[139.745,38.679],[139.741,38.743],[139.896,38.998],[140.03,39.483],[140.011,39.693],[139.862,39.782],[139.804,39.89],[139.985,40.114],[139.915,40.574],[140.159,40.729],[140.386,40.985],[140.472,40.985],[140.656,40.723],[141.152,40.865],[141.076,41.102],[140.936,41.114],[140.774,41.255],[141.087,41.441],[141.436,41.269],[141.467,40.514],[141.675,40.316],[141.998,39.671],[141.998,39.448],[141.887,39.129],[141.568,38.785],[141.467,38.587],[141.496,38.421],[141.024,38.21],[140.872,37.917],[140.982,37.268],[140.963,36.956],[140.655,36.618],[140.546,36.287],[140.555,35.969],[140.834,35.677],[140.394,35.409],[140.316,35.033],[139.83,34.835],[139.788,34.962],[140.002,35.497],[139.913,35.554],[139.682,35.445],[139.422,35.165],[139.208,35.165],[139.052,35.024],[139.022,34.688],[138.863,34.567],[138.779,34.579],[138.749,34.649],[138.751,34.922],[138.683,34.992],[138.45,34.902],[138.295,34.763],[138.149,34.527],[137.759,34.552],[137.248,34.481],[137.041,34.728],[136.733,34.874],[136.616,34.759],[136.507,34.518],[136.898,34.258],[136.766,34.169],[136.393,34.111],[136.199,34.003],[135.755,33.342],[135.062,33.69],[134.969,34.134],[135.236,34.35],[135.317,34.471],[135.286,34.598],[135.205,34.617],[134.935,34.54],[134.427,34.628],[133.825,34.385],[133.589,34.442],[132.481,34.129],[132.386,34.268],[132.183,34.287],[131.997,34.09],[131.994,33.804],[131.654,33.911],[130.899,33.903],[130.779,33.966],[130.892,34.246],[131.334,34.291],[131.672,34.501],[132.662,35.38],[132.98,35.444],[133.006,35.254],[133.804,35.427],[134.755,35.531],[135.156,35.646],[135.188,35.443],[135.357,35.322],[135.727,35.45],[135.928,35.603],[135.977,35.972],[136.668,36.667],[136.64,37.17],[136.721,37.265],[137.309,37.432],[137.334,37.273]]],[[[140.124,41.792],[140.099,41.945],[139.852,42.035],[139.777,42.112],[139.711,42.477],[139.973,42.651],[140.499,42.896],[140.516,43.057],[140.373,43.185],[140.498,43.32],[140.598,43.326],[140.896,43.134],[141.064,43.096],[141.303,43.187],[141.301,43.72],[141.709,43.914],[141.745,44.628],[141.566,44.969],[141.522,45.182],[141.597,45.279],[141.875,45.435],[143.02,44.463],[143.79,44.027],[144.613,43.842],[144.75,43.881],[145.139,44.178],[145.347,44.243],[145.059,43.785],[145.448,43.169],[144.994,42.937],[144.754,42.866],[144.59,42.859],[144.37,42.949],[144.166,42.942],[144.002,42.877],[143.508,42.42],[143.33,42.196],[143.213,41.926],[143.033,41.958],[141.928,42.501],[141.721,42.539],[141.396,42.519],[140.929,42.255],[140.86,42.39],[140.693,42.55],[140.54,42.537],[140.223,42.363],[140.245,42.228],[140.767,42.005],[141.155,41.749],[140.979,41.652],[140.588,41.677],[140.268,41.324],[140.112,41.273],[140.012,41.381],[139.977,41.503],[140.124,41.792]]]]}},{"type":"Feature","properties":{"name":"Philippines","name_zh":"吕宋","focus":false,"label":[120.59,15.69],"area":19.2,"color":"#7272a8"},"geometry":{"type":"MultiPolygon","coordinates":[[[[125.614,7.236],[125.28,6.593],[125.465,6.244],[125.532,5.939],[125.461,5.717],[125.289,5.488],[125.072,5.722],[125.163,5.907],[125.129,6.053],[124.965,6.084],[124.803,5.785],[124.224,6.089],[123.973,6.336],[123.88,6.565],[123.864,6.851],[124.073,7.258],[124.024,7.474],[123.815,7.658],[123.464,7.79],[123.333,7.771],[123.247,7.593],[123.022,7.478],[122.725,7.452],[122.713,7.674],[122.635,7.782],[122.455,7.693],[121.991,6.872],[121.839,6.967],[121.824,7.056],[122.093,7.775],[122.211,7.902],[122.384,7.985],[122.637,8.004],[122.736,8.062],[122.796,8.272],[122.888,8.342],[123.135,8.45],[123.485,8.496],[123.616,8.337],[123.662,8.013],[123.805,8.083],[124.023,8.109],[124.117,8.192],[124.21,8.446],[124.371,8.561],[124.67,8.428],[124.741,8.918],[124.872,8.924],[124.99,8.715],[125.224,8.995],[125.401,8.951],[125.46,9.053],[125.439,9.37],[125.362,9.624],[125.428,9.783],[125.933,9.174],[126.037,8.958],[126.074,8.812],[125.923,8.482],[126.029,8.38],[126.271,8.425],[126.306,8.235],[126.254,8.044],[126.279,7.733],[126.372,7.536],[126.321,7.148],[126.045,6.608],[125.954,6.652],[125.91,6.849],[125.747,7.185],[125.614,7.236]]],[[[117.535,9.048],[118.088,9.431],[118.508,9.921],[118.557,9.673],[118.504,9.482],[118.384,9.349],[117.967,9.113],[117.857,8.833],[117.71,8.712],[117.444,8.635],[117.27,8.45],[117.127,8.469],[117.224,8.685],[117.535,9.048]]],[[[122.347,9.815],[122.602,9.91],[122.7,10.031],[122.92,10.851],[123.117,10.934],[123.239,10.922],[123.312,10.738],[123.104,10.229],[122.962,9.594],[123.132,9.251],[123.037,9.066],[122.941,9.047],[122.395,9.478],[122.303,9.649],[122.347,9.815]]],[[[118.847,10.214],[119.108,10.627],[119.207,11.129],[119.353,11.212],[119.416,11.13],[119.344,11.002],[119.564,10.501],[118.864,10.023],[118.699,10.035],[118.756,10.169],[118.847,10.214]]],[[[122.21,11.58],[122.47,11.454],[122.635,11.442],[122.919,11.525],[122.896,11.15],[122.706,10.94],[122.297,10.647],[121.873,10.468],[121.993,11.758],[122.21,11.58]]],[[[124.854,11.491],[124.916,11.643],[124.875,11.834],[124.33,12.208],[124.264,12.417],[124.952,12.527],[125.119,12.476],[125.246,12.292],[125.333,11.562],[125.448,11.206],[125.323,11.123],[125.069,11.244],[124.854,11.491]]],[[[120.546,13.152],[120.34,13.387],[121.039,13.407],[121.18,13.332],[121.304,13.129],[121.316,12.741],[121.273,12.525],[121.094,12.201],[120.733,12.549],[120.546,13.152]]],[[[119.771,15.469],[119.812,15.978],[119.681,16.187],[119.762,16.359],[120.202,16.042],[120.293,16.233],[120.246,16.874],[120.311,17.071],[120.393,18.043],[120.564,18.431],[120.8,18.552],[121.036,18.527],[121.58,18.294],[121.839,18.275],[122.049,18.447],[122.139,18.384],[122.147,18.206],[122.027,18.009],[122.007,17.793],[122.07,17.437],[122.313,17.26],[122.395,17.114],[122.203,16.542],[122.063,16.332],[121.402,15.873],[121.368,15.498],[121.242,15.307],[121.456,14.882],[121.728,14.108],[121.973,13.949],[122.106,13.918],[122.397,14.306],[122.486,14.319],[122.674,14.269],[122.776,14.174],[122.856,13.888],[122.985,13.729],[123.131,13.692],[123.359,13.952],[123.701,13.82],[123.736,13.763],[123.397,13.527],[123.818,12.975],[123.676,12.892],[123.238,13.025],[123.196,13.241],[123.093,13.38],[122.485,13.881],[122.369,13.88],[122.325,13.779],[122.491,13.43],[122.394,13.302],[122.067,13.651],[121.624,13.898],[121.486,13.891],[121.331,13.827],[121.187,13.681],[121.009,13.655],[120.598,13.921],[120.51,14.112],[120.798,14.385],[121.104,14.253],[121.285,14.342],[121.217,14.418],[120.896,14.551],[120.706,14.728],[120.471,14.804],[120.363,14.53],[120.305,14.575],[119.971,14.904],[119.771,15.469]]]]}},{"type":"Feature","properties":{"name":"Malaya","name_zh":"","focus":false,"label":[116.73,6.0],"area":6.1,"color":"#7272a8"},"geometry":{"type":"MultiPolygon","coordinates":[[[[102.325,6.099],[102.802,5.56],[103.212,5.0],[100.379,5.021],[100.139,6.177],[100.158,6.34],[100.36,6.416],[100.617,6.422],[100.665,6.212],[100.866,6.159],[100.984,6.051],[101.027,5.855],[100.931,5.676],[100.984,5.568],[101.076,5.531],[101.311,5.834],[101.45,5.761],[101.472,5.546],[101.762,5.586],[101.812,5.845],[102.034,6.002],[102.073,6.154],[102.325,6.099]]],[[[115.417,5.111],[115.203,5.275],[115.291,5.453],[115.717,5.467],[115.787,5.74],[115.97,5.881],[116.098,6.097],[116.337,6.358],[116.595,6.899],[116.74,6.689],[116.889,6.645],[117.031,6.836],[117.168,6.614],[117.507,6.392],[117.54,6.24],[117.353,5.877],[117.37,5.788],[117.866,5.904],[117.918,5.802],[117.761,5.58],[118.256,5.663],[118.377,5.638],[118.997,5.277],[119.042,5.169],[118.908,5.0],[115.432,5.0],[115.417,5.111]]]]}},{"type":"Feature","properties":{"name":"Dutch East Indies","name_zh":"","focus":false,"label":[95.54,5.36],"area":0.6,"color":"#7d6b5a"},"geometry":{"type":"Polygon","coordinates":[[[95.205,5.245],[95.216,5.499],[95.283,5.55],[95.464,5.569],[95.74,5.468],[96.024,5.215],[96.187,5.145],[96.752,5.064],[97.384,5.18],[97.561,5.0],[95.293,5.0],[95.205,5.245]]]}},{"type":"Feature","properties":{"name":"Arakan","name_zh":"","focus":false,"label":[94.16,19.79],"area":5.3,"color":"#8a6f9e"},"geometry":{"type":"Polygon","coordinates":[[[92.892,21.979],[93.004,22.037],[93.127,22.202],[93.318,21.729],[94.702,20.015],[95.361,18.038],[95.163,17.642],[94.465,17.642],[94.42,18.14],[94.053,19.061],[93.965,19.194],[93.839,18.952],[93.457,19.174],[93.814,19.257],[93.723,19.594],[93.334,20.025],[93.065,19.992],[92.894,20.113],[92.921,20.373],[92.827,20.424],[92.662,20.404],[92.403,20.613],[92.176,20.886],[92.123,20.996],[92.236,21.149],[92.597,21.387],[92.509,22.11],[92.892,21.979]]]}},{"type":"Feature","properties":{"name":"Đại Việt","name_zh":"大越","focus":false,"label":[106.79,16.84],"area":23.6,"color":"#9a8a4a"},"geometry":{"type":"Polygon","coordinates":[[[102.185,22.636],[102.57,22.689],[102.985,22.469],[103.397,22.707],[104.478,22.783],[105.179,23.25],[105.313,23.296],[105.593,23.037],[105.941,22.931],[106.588,22.928],[106.694,22.834],[106.719,22.662],[106.507,22.325],[106.55,22.09],[106.673,21.926],[107.098,21.649],[107.786,21.526],[107.875,21.462],[107.417,21.185],[107.465,20.976],[107.374,20.88],[106.807,20.905],[106.746,20.815],[106.771,20.638],[106.38,20.11],[105.964,19.88],[105.843,19.702],[105.532,18.844],[106.364,18.007],[106.433,17.55],[106.622,17.328],[107.114,16.954],[107.692,16.371],[107.809,16.282],[108.095,16.251],[108.236,16.08],[108.363,15.623],[108.498,15.363],[108.786,15.09],[108.917,14.792],[109.071,14.17],[109.307,12.906],[109.068,12.486],[109.061,11.59],[108.897,11.342],[108.695,11.145],[108.164,10.966],[107.938,10.806],[107.672,10.526],[107.412,10.367],[107.265,10.347],[107.035,10.436],[106.853,10.575],[107.482,12.583],[107.457,13.065],[107.514,13.421],[107.309,13.878],[107.296,14.176],[107.463,14.996],[107.433,15.256],[107.338,15.453],[107.099,15.667],[107.067,15.794],[107.168,15.992],[107.107,16.169],[106.638,16.484],[106.426,16.718],[106.169,17.129],[105.412,18.083],[104.812,18.721],[103.899,19.313],[103.88,19.535],[104.004,19.701],[104.144,19.746],[104.487,19.741],[104.719,19.971],[104.715,20.2],[104.324,20.636],[104.129,20.939],[104.011,20.977],[103.836,20.9],[103.607,20.682],[103.477,20.656],[103.266,20.744],[102.992,20.939],[102.69,21.668],[102.17,22.198],[101.967,22.533],[102.185,22.636]]]}},{"type":"Feature","properties":{"name":"Cambodia","name_zh":"柬埔寨","focus":false,"label":[105.28,10.97],"area":13.8,"color":"#a3727a"},"geometry":{"type":"Polygon","coordinates":[[[106.704,10.448],[106.748,10.067],[106.656,9.743],[106.482,9.552],[106.335,9.52],[106.229,9.551],[106.118,9.335],[105.926,9.188],[105.503,9.029],[105.208,8.653],[105.025,8.519],[104.907,8.474],[104.742,8.493],[104.822,9.472],[104.89,9.694],[104.987,9.822],[104.978,9.98],[104.764,10.177],[104.427,10.284],[104.16,10.519],[104.003,10.537],[103.83,10.473],[103.606,10.473],[103.524,10.524],[103.67,10.765],[103.652,10.88],[103.524,11.057],[103.4,11.038],[103.192,10.904],[103.039,10.897],[102.962,11.367],[102.67,12.037],[103.656,12.846],[105.015,13.406],[107.48,13.256],[107.482,12.583],[106.853,10.575],[106.773,10.639],[106.704,10.448]]]}},{"type":"Feature","properties":{"name":"Laotian states","name_zh":"南掌 (老挝)","focus":false,"label":[104.84,17.88],"area":20.7,"color":"#a3727a"},"geometry":{"type":"Polygon","coordinates":[[[105.402,15.378],[104.658,16.479],[104.61,16.643],[104.584,17.329],[104.388,17.614],[104.079,17.91],[103.927,18.278],[103.807,18.347],[103.224,18.439],[103.005,17.993],[102.661,17.845],[102.019,18.121],[101.864,18.107],[101.17,17.392],[100.953,17.454],[100.888,17.6],[100.9,17.822],[101.229,18.91],[101.117,19.5],[101.097,19.55],[100.69,19.44],[100.5,19.439],[100.417,19.508],[100.387,19.673],[100.43,20.226],[100.244,20.383],[100.001,20.458],[100.35,20.746],[100.787,21.282],[101.013,21.442],[101.238,21.259],[101.584,21.223],[101.703,21.319],[101.752,21.472],[101.535,22.137],[101.554,22.283],[101.662,22.392],[101.967,22.533],[102.17,22.198],[102.69,21.668],[102.992,20.939],[103.266,20.744],[103.477,20.656],[103.607,20.682],[103.836,20.9],[104.011,20.977],[104.129,20.939],[104.324,20.636],[104.715,20.2],[104.719,19.971],[104.487,19.741],[104.144,19.746],[104.004,19.701],[103.88,19.535],[103.899,19.313],[104.812,18.721],[105.412,18.083],[106.169,17.129],[106.426,16.718],[106.638,16.484],[107.107,16.169],[107.168,15.992],[107.067,15.794],[107.099,15.667],[107.338,15.453],[107.433,15.256],[107.463,14.996],[107.296,14.176],[107.309,13.878],[107.514,13.421],[107.48,13.256],[106.06,13.342],[106.146,14.023],[105.473,15.15],[105.402,15.378]]]}},{"type":"Feature","properties":{"name":"Ayutthaya","name_zh":"暹罗","focus":false,"label":[99.7,11.96],"area":37.9,"color":"#a3727a"},"geometry":{"type":"Polygon","coordinates":[[[99.716,16.84],[100.913,17.544],[100.953,17.454],[101.17,17.392],[101.864,18.107],[102.019,18.121],[102.661,17.845],[103.005,17.993],[103.224,18.439],[103.807,18.347],[103.927,18.278],[104.079,17.91],[104.388,17.614],[104.584,17.329],[104.61,16.643],[104.658,16.479],[105.214,15.694],[105.402,15.378],[105.473,15.15],[106.146,14.023],[106.06,13.342],[105.015,13.406],[103.656,12.846],[102.67,12.037],[102.529,12.148],[102.323,12.186],[101.918,12.585],[101.586,12.661],[101.329,12.558],[101.023,12.672],[100.871,12.678],[100.956,13.364],[100.908,13.447],[100.473,13.509],[100.239,13.49],[100.04,13.394],[99.93,13.261],[100.023,12.994],[99.833,12.523],[99.895,12.079],[99.186,10.489],[99.071,9.898],[99.118,9.371],[99.298,9.161],[99.724,9.257],[99.837,9.226],[99.898,9.067],[99.865,8.711],[100.009,8.49],[100.131,8.532],[100.301,7.886],[100.344,7.44],[100.539,7.048],[100.614,6.978],[100.975,6.852],[101.217,6.802],[101.427,6.828],[101.559,6.739],[101.679,6.464],[102.073,6.154],[102.034,6.002],[101.812,5.845],[101.762,5.586],[101.472,5.546],[101.45,5.761],[101.311,5.834],[101.076,5.531],[100.984,5.568],[100.931,5.676],[101.027,5.855],[100.984,6.051],[100.866,6.159],[100.665,6.212],[100.617,6.422],[100.36,6.416],[100.158,6.34],[100.221,6.52],[100.154,6.603],[99.969,6.507],[99.833,6.538],[99.662,6.71],[99.61,6.938],[99.639,7.065],[99.571,7.262],[99.468,7.338],[99.293,7.319],[99.024,7.871],[98.544,8.264],[98.292,8.155],[98.195,8.327],[98.177,8.6],[98.25,8.937],[98.632,10.1],[98.593,10.12],[98.637,10.288],[99.546,11.755],[99.581,11.888],[99.097,12.972],[99.133,13.372],[99.094,13.67],[99.003,13.886],[98.486,14.372],[98.137,15.189],[98.502,15.382],[98.579,15.471],[98.475,16.004],[98.532,16.106],[98.735,16.209],[98.823,16.317],[98.638,16.649],[99.716,16.84]]]}},{"type":"Feature","properties":{"name":"Shan states","name_zh":"掸邦","focus":false,"label":[94.56,24.57],"area":32.2,"color":"#9a8a4a"},"geometry":{"type":"Polygon","coordinates":[[[97.478,28.392],[97.603,28.412],[97.829,28.286],[98.008,28.09],[98.118,27.685],[98.216,27.546],[98.571,27.541],[98.637,27.478],[98.733,26.343],[98.382,25.63],[97.887,25.271],[97.524,24.799],[97.631,24.273],[97.53,24.012],[97.53,23.892],[97.628,23.86],[97.767,23.899],[98.136,24.098],[98.698,24.146],[98.769,24.089],[98.893,23.296],[98.984,23.151],[99.233,23.184],[99.468,23.141],[99.483,23.02],[99.155,22.307],[99.208,22.149],[99.31,22.105],[99.755,22.127],[99.886,21.956],[100.04,21.62],[99.099,21.24],[97.26,20.92],[96.621,21.32],[95.742,24.038],[95.342,24.118],[94.382,24.198],[92.047,23.689],[91.915,23.514],[91.828,23.558],[91.828,23.733],[91.478,24.083],[91.259,24.127],[91.302,24.346],[91.565,24.346],[91.521,25.003],[91.74,25.003],[91.434,25.265],[91.565,25.703],[91.434,25.791],[91.565,26.053],[91.434,26.097],[90.0,25.966],[90.0,26.36],[91.546,26.285],[92.401,26.584],[94.324,26.883],[94.837,27.567],[95.478,27.908],[97.34,28.182],[97.34,28.239],[97.478,28.392]]]}},{"type":"Feature","properties":{"name":"Ava","name_zh":"缅甸 (东吁)","focus":false,"label":[95.6,17.17],"area":33.2,"color":"#8a6f9e"},"geometry":{"type":"Polygon","coordinates":[[[100.32,21.463],[100.612,21.535],[100.894,21.721],[101.013,21.442],[100.787,21.282],[100.35,20.746],[99.965,20.42],[99.407,20.283],[99.17,20.129],[98.993,19.862],[98.508,19.719],[98.015,19.748],[97.852,19.563],[97.788,19.398],[97.711,18.508],[97.373,18.449],[97.706,18.051],[97.787,17.575],[98.393,17.083],[98.823,16.317],[98.735,16.209],[98.532,16.106],[98.475,16.004],[98.579,15.471],[98.502,15.382],[98.137,15.189],[98.486,14.372],[99.003,13.886],[99.094,13.67],[99.133,13.372],[99.097,12.972],[99.581,11.888],[99.546,11.755],[98.637,10.288],[98.593,10.12],[98.431,10.201],[98.397,10.563],[98.605,10.862],[98.738,11.435],[98.867,11.645],[98.59,11.695],[98.588,11.822],[98.676,12.051],[98.596,12.737],[98.485,13.111],[98.198,13.644],[97.822,14.616],[97.573,16.445],[97.351,16.527],[97.214,16.939],[96.881,17.345],[96.77,17.332],[96.734,16.887],[96.662,16.697],[96.469,16.512],[95.713,16.155],[95.552,15.875],[95.329,15.677],[95.222,15.804],[95.22,16.001],[95.124,15.995],[94.972,15.835],[94.828,15.842],[94.753,15.937],[94.819,16.21],[94.415,16.076],[94.304,15.948],[94.144,16.005],[94.143,16.215],[94.392,16.908],[94.464,17.264],[94.465,17.642],[95.163,17.642],[95.361,18.038],[94.702,20.015],[93.318,21.729],[93.127,22.202],[93.004,22.037],[92.892,21.979],[92.509,22.11],[92.528,22.595],[92.266,22.945],[92.178,23.427],[92.047,23.689],[94.382,24.198],[95.342,24.118],[95.742,24.038],[96.621,21.32],[97.26,20.92],[99.099,21.24],[100.04,21.62],[100.32,21.463]]]}},{"type":"Feature","properties":{"name":"Islamic and Hindu states","name_zh":"","focus":false,"label":[82.1,20.75],"area":44.7,"color":"#6f9460"},"geometry":{"type":"Polygon","coordinates":[[[82.377,23.657],[84.288,24.224],[85.634,23.87],[85.704,23.162],[85.209,22.383],[85.35,21.533],[86.844,20.875],[86.926,20.691],[86.637,20.319],[86.632,20.203],[86.119,19.806],[85.379,19.605],[85.113,19.442],[84.324,18.53],[83.226,18.418],[80.635,17.431],[79.955,17.603],[79.416,17.285],[79.304,17.285],[78.867,18.269],[79.212,18.845],[78.752,19.19],[78.533,19.123],[78.572,20.438],[77.052,20.811],[76.995,21.108],[77.279,22.029],[77.066,22.808],[77.491,23.657],[82.377,23.657]]]}},{"type":"Feature","properties":{"name":"Ainu","name_zh":"","focus":false,"label":[142.96,49.87],"area":9.3,"color":"#7272a8"},"geometry":{"type":"MultiPolygon","coordinates":[[[[146.137,43.458],[146.076,43.513],[146.226,43.525],[146.205,43.481],[146.137,43.458]]],[[[146.904,43.839],[146.663,43.703],[146.596,43.736],[146.61,43.806],[146.842,43.874],[146.904,43.839]]],[[[146.344,44.421],[146.568,44.438],[146.508,44.358],[146.102,44.243],[145.93,44.119],[145.779,43.928],[145.595,43.858],[145.554,43.65],[145.437,43.716],[145.409,43.835],[145.744,44.051],[146.127,44.507],[146.344,44.421]]],[[[148.582,45.316],[148.265,45.213],[147.868,44.971],[147.762,44.938],[147.62,44.966],[147.585,44.918],[147.622,44.897],[147.548,44.812],[147.291,44.666],[147.209,44.55],[147.021,44.507],[146.948,44.408],[146.84,44.415],[146.846,44.476],[147.153,44.673],[147.111,44.793],[147.479,44.974],[147.504,45.043],[147.656,45.075],[147.763,45.189],[147.894,45.223],[147.856,45.356],[147.932,45.421],[148.0,45.273],[148.069,45.248],[148.321,45.27],[148.7,45.52],[148.856,45.474],[148.825,45.334],[148.582,45.316]]],[[[149.44,45.58],[149.667,45.85],[149.856,45.923],[150.0,46.045],[150.0,45.831],[149.684,45.633],[149.44,45.58]]],[[[143.033,52.312],[142.944,51.961],[142.943,51.617],[143.074,51.267],[143.34,50.885],[143.633,50.234],[144.038,49.508],[144.539,48.753],[143.598,49.233],[143.152,49.258],[142.853,49.127],[142.646,48.657],[142.489,47.901],[142.614,47.459],[142.993,46.953],[143.236,46.863],[143.444,46.571],[143.303,46.011],[143.004,46.577],[142.614,46.712],[142.513,46.699],[142.327,46.563],[141.898,45.914],[141.708,46.139],[141.622,46.558],[141.909,47.073],[141.731,47.471],[141.81,47.675],[142.036,47.959],[141.977,48.284],[141.739,48.807],[141.921,48.943],[142.049,49.354],[142.152,50.89],[142.112,51.219],[142.016,51.43],[141.643,51.813],[141.598,52.216],[141.811,52.628],[141.84,52.96],[141.689,53.165],[141.767,53.272],[142.214,53.299],[142.674,53.54],[143.056,53.061],[143.138,52.856],[143.143,52.511],[143.033,52.312]]]]}},{"type":"Feature","properties":{"name":"Ceylon","name_zh":"","focus":false,"label":[81.28,8.02],"area":1.9,"color":"#b0805f"},"geometry":{"type":"Polygon","coordinates":[[[79.981,7.905],[79.838,7.815],[79.832,8.103],[79.724,8.416],[79.808,8.647],[79.674,8.804],[79.705,8.93],[79.896,8.92],[80.052,9.113],[80.076,9.279],[80.178,9.445],[80.109,9.686],[80.347,9.47],[80.662,9.299],[81.093,8.626],[81.06,8.41],[81.326,8.258],[81.445,7.928],[81.804,7.313],[81.866,7.084],[81.779,6.753],[81.476,6.316],[81.056,6.473],[81.345,6.607],[81.396,7.276],[81.165,7.584],[81.139,8.175],[80.728,8.175],[80.728,8.792],[80.522,8.869],[80.419,8.432],[80.291,8.303],[80.111,8.329],[80.034,8.124],[80.078,7.744],[79.981,7.905]]]}},{"type":"Feature","properties":{"name":"Kandy","name_zh":"","focus":false,"label":[80.64,7.66],"area":1.8,"color":"#6f9460"},"geometry":{"type":"Polygon","coordinates":[[[80.786,6.574],[80.078,7.744],[80.034,8.124],[80.111,8.329],[80.291,8.303],[80.419,8.432],[80.522,8.869],[80.728,8.792],[80.728,8.175],[81.139,8.175],[81.165,7.584],[81.396,7.276],[81.345,6.607],[81.056,6.473],[80.786,6.574]]]}},{"type":"Feature","properties":{"name":"Ceylon (Dutch)","name_zh":"","focus":false,"label":[80.28,6.82],"area":1.3,"color":"#4f8f86"},"geometry":{"type":"Polygon","coordinates":[[[79.981,7.905],[80.786,6.574],[81.476,6.316],[81.202,6.079],[80.851,5.951],[80.562,5.931],[80.341,5.969],[80.222,6.058],[80.016,6.495],[79.854,7.061],[79.838,7.815],[79.981,7.905]]]}},{"type":"Feature","properties":{"name":"Dzungar Khanate","name_zh":"准噶尔汗国","focus":false,"label":[85.69,42.64],"area":308.8,"approx":true,"color":"#6f9460"},"geometry":{"type":"MultiPolygon","coordinates":[[[[102.118,39.756],[100.537,40.331],[99.388,39.756],[99.244,38.75],[89.616,36.882],[80.131,36.882],[79.329,35.628],[75.245,38.031],[73.808,38.031],[69.497,35.876],[66.335,36.307],[69.231,37.367],[70.095,37.907],[69.816,41.21],[80.939,44.077],[85.535,47.181],[85.605,48.233],[90.0,51.569],[91.965,51.569],[92.115,51.768],[94.987,50.935],[96.0,51.504],[96.0,40.5],[104.299,40.5],[103.555,39.9],[102.118,39.756]]],[[[136.521,55.589],[134.985,54.853],[134.893,54.719],[134.902,54.559],[135.094,54.432],[135.312,54.413],[135.725,54.407],[136.196,54.474],[136.491,54.455],[136.343,53.887],[136.35,53.701],[136.487,53.654],[136.77,53.695],[137.04,53.862],[137.382,53.809],[137.121,53.589],[137.071,53.489],[137.239,53.456],[136.16,53.02],[135.273,53.02],[134.681,52.946],[134.237,53.464],[133.423,52.65],[133.127,52.65],[132.387,52.354],[132.017,52.428],[131.13,53.908],[130.538,53.908],[130.908,55.239],[130.39,56.053],[129.206,56.867],[128.836,56.645],[128.171,56.719],[127.58,56.615],[127.146,56.0],[117.479,56.0],[120.818,58.0],[137.227,58.0],[139.364,57.365],[138.345,56.804],[137.229,55.982],[136.521,55.589]]]]}},{"type":"Feature","properties":{"name":"Tsardom of Muscovy","name_zh":"沙俄","focus":false,"label":[87.4,52.91],"area":315.9,"color":"#4f8f86"},"geometry":{"type":"MultiPolygon","coordinates":[[[[64.457,53.581],[63.038,51.176],[60.82,50.859],[60.0,50.883],[60.0,58.0],[120.818,58.0],[111.197,52.236],[101.822,54.779],[94.987,50.935],[92.115,51.768],[91.965,51.569],[90.0,51.569],[85.601,48.23],[85.382,48.147],[83.115,48.283],[84.267,49.204],[81.479,50.291],[78.649,50.805],[74.92,54.149],[72.991,55.306],[64.687,54.272],[64.457,53.581]]],[[[139.364,57.365],[137.227,58.0],[140.347,58.0],[140.028,57.644],[139.364,57.365]]]]}},{"type":"Feature","properties":{"name":"Korea","name_zh":"朝鲜","focus":false,"label":[126.64,38.66],"area":23.2,"color":"#b0805f"},"geometry":{"type":"MultiPolygon","coordinates":[[[[126.843,33.308],[126.266,33.19],[126.158,33.314],[126.317,33.452],[126.633,33.531],[126.821,33.55],[126.941,33.453],[126.843,33.308]]],[[[126.106,34.387],[126.243,34.573],[126.38,34.494],[126.342,34.401],[126.186,34.351],[126.106,34.387]]],[[[125.914,34.685],[125.981,34.716],[126.008,34.691],[125.971,34.647],[125.914,34.685]]],[[[126.005,34.768],[125.932,34.718],[125.888,34.732],[125.908,34.772],[126.005,34.768]]],[[[125.986,34.86],[126.062,34.928],[126.094,34.909],[126.063,34.854],[125.986,34.86]]],[[[126.059,35.09],[126.137,35.142],[126.162,35.143],[126.106,35.046],[126.059,35.09]]],[[[126.335,36.438],[126.324,36.565],[126.376,36.59],[126.431,36.403],[126.335,36.438]]],[[[126.166,36.839],[126.163,36.824],[126.158,36.833],[126.166,36.839]]],[[[124.615,37.968],[124.718,37.983],[124.746,37.954],[124.651,37.914],[124.615,37.968]]],[[[126.648,34.32],[126.694,34.389],[126.774,34.286],[126.7,34.284],[126.648,34.32]]],[[[127.114,34.463],[127.213,34.485],[127.245,34.465],[127.16,34.414],[127.114,34.463]]],[[[127.711,34.526],[127.77,34.538],[127.798,34.484],[127.78,34.474],[127.711,34.526]]],[[[127.739,34.604],[127.768,34.664],[127.812,34.641],[127.799,34.572],[127.739,34.604]]],[[[128.055,34.813],[128.06,34.701],[127.977,34.697],[127.86,34.719],[127.822,34.843],[127.898,34.933],[127.956,34.8],[128.055,34.813]]],[[[128.741,34.781],[128.585,34.703],[128.597,34.834],[128.526,34.805],[128.49,34.868],[128.711,34.976],[128.741,34.781]]],[[[127.997,34.835],[128.024,34.913],[128.085,34.83],[127.997,34.835]]],[[[130.805,37.513],[130.919,37.545],[130.922,37.481],[130.868,37.45],[130.805,37.513]]],[[[126.375,37.617],[126.209,37.754],[125.909,37.511],[125.741,37.784],[125.561,37.835],[125.269,37.484],[125.076,37.77],[124.769,37.935],[124.693,38.139],[124.736,38.279],[124.929,38.464],[125.268,38.567],[125.293,38.688],[125.027,38.815],[125.296,39.364],[125.206,39.485],[124.922,39.618],[124.688,39.605],[124.548,39.541],[124.442,39.573],[124.133,39.843],[124.491,40.279],[124.725,40.427],[125.415,40.699],[125.879,40.945],[126.165,41.189],[126.474,41.651],[126.849,41.717],[126.972,41.539],[127.422,41.356],[127.861,41.377],[128.098,41.449],[127.849,41.844],[127.86,41.998],[127.984,42.107],[128.16,42.134],[128.309,42.077],[128.755,42.06],[129.034,42.177],[129.464,42.416],[129.568,42.737],[129.74,42.898],[129.965,42.957],[130.225,42.651],[130.435,42.276],[129.824,41.861],[129.641,41.655],[129.59,41.469],[129.631,41.277],[129.477,40.682],[129.177,40.63],[128.446,40.065],[128.236,39.969],[127.931,39.956],[127.671,39.866],[127.44,39.623],[127.276,39.221],[127.404,39.075],[127.956,38.694],[128.26,38.411],[128.303,38.583],[128.363,38.625],[128.634,38.125],[129.049,37.685],[129.342,37.257],[129.433,37.058],[129.416,36.942],[129.474,36.774],[129.416,36.616],[129.438,36.4],[129.381,36.314],[129.388,36.025],[129.463,35.994],[129.557,36.078],[129.588,36.007],[129.466,35.537],[129.237,35.189],[129.136,35.112],[128.978,35.084],[128.973,35.134],[128.81,35.084],[128.572,35.169],[128.378,35.036],[128.372,35.004],[128.477,35.053],[128.501,35.008],[128.434,34.834],[128.335,34.871],[128.329,34.949],[128.216,34.93],[128.203,34.888],[128.066,34.924],[128.02,34.986],[127.767,34.96],[127.643,34.9],[127.593,34.941],[127.576,34.886],[127.638,34.814],[127.773,34.843],[127.747,34.727],[127.634,34.614],[127.554,34.656],[127.567,34.766],[127.522,34.856],[127.418,34.818],[127.363,34.751],[127.514,34.591],[127.389,34.471],[127.315,34.443],[127.124,34.537],[127.201,34.633],[127.192,34.569],[127.242,34.569],[127.328,34.652],[127.328,34.743],[127.009,34.602],[126.889,34.412],[126.8,34.463],[126.783,34.587],[126.6,34.3],[126.478,34.345],[126.463,34.484],[126.288,34.59],[126.289,34.742],[126.451,34.578],[126.451,34.648],[126.618,34.619],[126.476,34.724],[126.659,34.812],[126.539,34.873],[126.51,34.775],[126.375,34.785],[126.433,34.963],[126.318,34.932],[126.249,35.116],[126.344,35.151],[126.359,35.069],[126.431,35.023],[126.458,35.09],[126.36,35.18],[126.421,35.406],[126.523,35.524],[126.687,35.533],[126.664,35.591],[126.498,35.578],[126.474,35.635],[126.751,35.778],[126.801,35.861],[126.788,35.894],[126.615,35.89],[126.631,35.967],[126.761,35.995],[126.872,36.054],[126.685,35.999],[126.544,36.136],[126.464,36.574],[126.527,36.592],[126.497,36.723],[126.347,36.739],[126.293,36.581],[126.272,36.717],[126.172,36.672],[126.128,36.751],[126.191,36.819],[126.184,36.878],[126.291,36.962],[126.321,36.884],[126.289,36.785],[126.401,36.851],[126.413,36.933],[126.348,36.952],[126.355,36.996],[126.442,36.999],[126.483,36.842],[126.502,37.052],[126.619,36.972],[126.781,36.963],[126.838,36.753],[127.0,36.929],[126.908,36.919],[126.752,37.048],[126.776,37.123],[126.869,37.176],[126.694,37.121],[126.661,37.156],[126.661,37.253],[126.865,37.266],[126.722,37.328],[126.741,37.386],[126.656,37.411],[126.621,37.481],[126.674,37.488],[126.652,37.566],[126.54,37.679],[126.513,37.597],[126.375,37.617]]]]}},{"type":"Feature","properties":{"name":"Nogai Horde","name_zh":"","focus":false,"label":[60.15,45.95],"area":0.5,"color":"#a3727a"},"geometry":{"type":"Polygon","coordinates":[[[60.0,45.064],[60.0,46.457],[60.61,45.433],[60.953,45.245],[60.0,45.064]]]}},{"type":"Feature","properties":{"name":"Khiva Khanate","name_zh":"","focus":false,"label":[64.96,40.08],"area":52.8,"color":"#5f87a3"},"geometry":{"type":"Polygon","coordinates":[[[69.231,37.367],[66.335,36.307],[64.683,36.525],[64.346,37.872],[62.662,39.22],[60.977,39.22],[60.0,39.15],[60.0,45.064],[60.953,45.245],[68.782,40.944],[69.816,41.21],[70.095,37.907],[69.231,37.367]]]}},{"type":"Feature","properties":{"name":"Quazaq Khanate","name_zh":"哈萨克汗国","focus":false,"label":[72.78,47.66],"area":232.7,"color":"#7d6b5a"},"geometry":{"type":"Polygon","coordinates":[[[85.535,47.181],[80.939,44.077],[68.782,40.944],[60.61,45.433],[60.0,46.457],[60.0,50.883],[60.82,50.859],[63.038,51.176],[64.457,53.581],[64.687,54.272],[72.991,55.306],[74.92,54.149],[78.649,50.805],[81.479,50.291],[84.267,49.204],[83.115,48.283],[85.382,48.147],[85.605,48.233],[85.535,47.181]]]}},{"type":"Feature","properties":{"name":"Safavid Empire","name_zh":"","focus":false,"label":[63.78,31.78],"area":89.5,"color":"#a3727a"},"geometry":{"type":"Polygon","coordinates":[[[64.238,25.21],[64.059,25.401],[63.65,25.336],[63.403,25.164],[62.449,25.162],[61.813,25.053],[61.343,25.026],[60.858,25.095],[60.479,25.298],[60.0,25.322],[60.0,39.15],[60.977,39.22],[62.662,39.22],[64.346,37.872],[64.683,36.525],[66.335,36.307],[65.473,35.014],[67.054,35.588],[67.772,33.433],[67.485,32.427],[67.629,31.133],[66.767,30.415],[66.928,28.111],[66.3,25.494],[65.768,25.309],[64.424,25.173],[64.238,25.21]]]}},{"type":"Feature","properties":{"name":"Mughal Empire","name_zh":"莫卧儿帝国","focus":false,"label":[73.84,28.61],"area":251.8,"color":"#b0805f"},"geometry":{"type":"Polygon","coordinates":[[[81.107,30.191],[80.103,29.015],[83.079,27.277],[84.509,27.311],[85.876,28.206],[85.972,28.118],[86.035,27.91],[86.142,27.954],[86.137,28.118],[86.445,27.947],[86.568,27.984],[86.603,28.133],[86.787,28.133],[87.07,28.006],[87.214,27.843],[87.596,27.873],[87.749,27.82],[87.902,27.947],[88.197,27.875],[88.07,27.523],[88.038,27.129],[88.231,26.757],[88.601,26.64],[88.867,26.908],[89.834,26.685],[90.0,26.718],[90.0,26.778],[91.161,26.75],[90.0,26.36],[90.0,25.966],[91.434,26.097],[91.565,26.053],[91.434,25.791],[91.565,25.703],[91.434,25.265],[91.74,25.003],[91.521,25.003],[91.565,24.346],[91.302,24.346],[91.259,24.127],[91.478,24.083],[91.828,23.733],[91.828,23.558],[91.915,23.514],[92.047,23.689],[92.178,23.427],[92.266,22.945],[92.528,22.595],[92.509,22.11],[92.597,21.387],[92.236,21.149],[92.123,20.996],[91.946,21.362],[91.845,21.908],[91.571,22.543],[91.41,22.72],[91.081,22.561],[90.0,22.56],[90.0,21.93],[89.869,22.133],[89.796,21.832],[89.67,21.719],[89.578,21.7],[89.456,21.941],[89.233,21.655],[89.072,21.774],[88.994,21.629],[89.025,21.546],[88.723,21.539],[88.656,21.857],[88.567,21.895],[88.377,21.577],[88.299,21.551],[88.053,21.938],[87.867,21.696],[87.64,21.563],[86.937,21.288],[86.818,21.186],[86.844,20.875],[85.35,21.533],[85.209,22.383],[85.704,23.162],[85.634,23.87],[84.288,24.224],[82.377,23.657],[77.491,23.657],[77.066,22.808],[77.279,22.029],[76.995,21.108],[77.279,19.622],[75.296,19.409],[74.801,21.108],[74.093,21.108],[72.782,19.949],[72.759,20.057],[72.864,20.311],[73.109,20.687],[73.112,20.827],[72.931,20.953],[72.765,21.15],[72.665,21.848],[72.695,22.128],[72.319,22.115],[72.232,22.019],[72.127,21.828],[72.131,21.746],[72.288,21.549],[72.256,21.352],[72.12,21.155],[71.894,20.989],[71.024,20.657],[70.855,20.65],[70.467,20.777],[70.209,20.947],[69.126,21.968],[68.894,22.285],[69.492,22.248],[69.968,22.351],[70.176,22.478],[70.41,22.752],[70.38,22.86],[70.045,22.777],[69.664,22.789],[69.107,22.898],[68.79,23.028],[68.372,23.326],[68.072,23.675],[68.046,23.764],[67.692,23.814],[67.486,23.928],[67.315,24.092],[67.204,24.588],[66.999,24.714],[66.654,24.783],[66.7,25.114],[66.62,25.317],[66.432,25.488],[66.3,25.494],[66.928,28.111],[66.767,30.415],[67.629,31.133],[67.485,32.427],[67.772,33.433],[67.054,35.588],[65.473,35.014],[66.335,36.307],[69.497,35.876],[73.808,38.031],[75.245,38.031],[79.329,35.628],[80.174,31.573],[81.407,30.44],[81.343,30.191],[81.107,30.191]]]}},{"type":"Feature","properties":{"name":"Nepal","name_zh":"尼泊尔","focus":false,"label":[82.53,28.8],"area":9.3,"color":"#9a8a4a"},"geometry":{"type":"Polygon","coordinates":[[[83.197,29.666],[83.402,29.539],[83.656,29.231],[83.717,29.203],[83.768,29.256],[84.088,29.309],[84.218,29.234],[84.298,29.063],[84.269,28.945],[85.007,28.6],[85.069,28.646],[85.216,28.639],[85.166,28.525],[85.082,28.565],[85.607,28.319],[85.729,28.341],[85.876,28.206],[84.509,27.311],[83.079,27.277],[80.103,29.015],[81.107,30.191],[81.343,30.191],[81.407,30.44],[81.572,30.372],[81.655,30.454],[82.141,30.365],[82.2,30.092],[82.591,29.971],[82.917,29.703],[83.129,29.606],[83.197,29.666]]]}},{"type":"Feature","properties":{"name":"Tibet","name_zh":"西藏","focus":false,"label":[90.99,32.65],"area":198.2,"color":"#a3727a"},"geometry":{"type":"Polygon","coordinates":[[[91.3,27.997],[89.784,28.022],[89.671,28.197],[88.161,27.741],[88.213,27.865],[87.902,27.947],[87.749,27.82],[87.596,27.873],[87.214,27.843],[87.07,28.006],[86.787,28.133],[86.603,28.133],[86.568,27.984],[86.445,27.947],[86.137,28.118],[86.142,27.954],[86.035,27.91],[85.972,28.118],[85.729,28.341],[85.607,28.319],[85.166,28.525],[85.216,28.639],[85.069,28.646],[85.007,28.6],[84.269,28.945],[84.298,29.063],[84.218,29.234],[84.088,29.309],[83.768,29.256],[83.717,29.203],[83.402,29.539],[83.197,29.666],[83.129,29.606],[82.917,29.703],[82.591,29.971],[82.2,30.092],[82.141,30.365],[81.655,30.454],[81.572,30.372],[81.448,30.402],[80.174,31.573],[79.619,34.136],[79.329,35.628],[80.131,36.882],[89.616,36.882],[99.244,38.75],[100.394,37.744],[101.687,36.307],[102.406,33.72],[100.681,28.69],[98.637,27.478],[98.571,27.541],[98.216,27.546],[98.118,27.685],[98.008,28.09],[97.829,28.286],[97.603,28.412],[97.478,28.392],[97.34,28.239],[97.34,28.182],[95.478,27.908],[94.837,27.567],[94.324,26.883],[92.401,26.584],[91.546,26.285],[90.0,26.36],[91.161,26.75],[91.064,26.752],[92.17,26.987],[91.3,27.997]]]}},{"type":"Feature","properties":{"name":"Bhutan","name_zh":"不丹","focus":false,"label":[89.97,27.33],"area":4.4,"color":"#8a6f9e"},"geometry":{"type":"Polygon","coordinates":[[[91.3,27.997],[92.17,26.987],[91.064,26.752],[90.0,26.778],[90.0,26.718],[89.834,26.685],[88.867,26.908],[88.601,26.64],[88.231,26.757],[88.038,27.129],[88.07,27.523],[88.161,27.741],[89.671,28.197],[89.784,28.022],[91.3,27.997]]]}},{"type":"Feature","properties":{"name":"Bidar","name_zh":"","focus":false,"label":[77.75,18.09],"area":2.4,"color":"#a07d5a"},"geometry":{"type":"Polygon","coordinates":[[[77.071,17.361],[77.387,18.77],[78.173,19.012],[78.321,17.415],[77.997,16.465],[77.173,16.658],[77.071,17.361]]]}},{"type":"Feature","properties":{"name":"Bijapur","name_zh":"","focus":false,"label":[76.0,17.93],"area":7.5,"color":"#7272a8"},"geometry":{"type":"Polygon","coordinates":[[[77.997,16.465],[77.922,16.245],[77.485,16.311],[76.909,16.311],[76.103,15.966],[75.066,15.966],[74.375,16.311],[73.494,16.287],[73.395,16.616],[75.412,18.499],[77.387,18.77],[77.071,17.361],[77.173,16.658],[77.997,16.465]]]}},{"type":"Feature","properties":{"name":"Ahmadnagar","name_zh":"","focus":false,"label":[75.43,18.95],"area":11.6,"color":"#9a8a4a"},"geometry":{"type":"Polygon","coordinates":[[[77.387,18.77],[75.412,18.499],[73.395,16.616],[73.064,18.031],[72.853,19.244],[72.782,19.949],[74.093,21.108],[74.801,21.108],[75.296,19.409],[77.279,19.622],[77.052,20.811],[78.572,20.438],[78.533,19.123],[77.387,18.77]]]}},{"type":"Feature","properties":{"name":"Golkonda","name_zh":"","focus":false,"label":[78.89,15.41],"area":17.5,"color":"#4f8f86"},"geometry":{"type":"Polygon","coordinates":[[[84.324,18.53],[83.987,18.207],[83.684,18.083],[83.381,17.71],[82.353,17.085],[82.234,16.647],[82.081,16.462],[81.788,16.328],[81.596,16.302],[81.369,16.346],[81.253,16.225],[81.087,15.826],[80.963,15.723],[80.735,15.837],[80.459,15.773],[80.3,15.645],[80.089,15.175],[80.169,13.891],[80.075,13.669],[80.319,13.333],[80.313,13.104],[79.769,11.73],[78.412,12.895],[77.916,13.532],[77.845,14.878],[77.349,15.869],[77.309,16.311],[77.922,16.245],[78.321,17.415],[78.173,19.012],[78.752,19.19],[79.212,18.845],[78.867,18.269],[79.304,17.285],[79.416,17.285],[79.955,17.603],[80.635,17.431],[83.226,18.418],[84.324,18.53]]]}},{"type":"Feature","properties":{"name":"Vijayanagara","name_zh":"","focus":false,"label":[76.98,12.5],"area":26.1,"color":"#8a6f9e"},"geometry":{"type":"Polygon","coordinates":[[[73.841,15.39],[73.494,16.287],[74.375,16.311],[75.066,15.966],[76.103,15.966],[76.909,16.311],[77.309,16.311],[77.349,15.869],[77.845,14.878],[77.916,13.532],[78.412,12.895],[79.769,11.73],[79.71,11.444],[79.826,10.358],[79.789,10.25],[79.306,10.255],[79.222,10.192],[79.072,9.759],[78.926,9.492],[78.937,9.435],[79.159,9.277],[78.313,8.995],[78.181,8.811],[78.135,8.499],[78.064,8.385],[77.484,8.028],[77.341,8.053],[76.703,8.706],[76.537,9.118],[76.385,9.747],[76.075,10.553],[75.651,11.423],[75.21,12.102],[74.733,13.683],[74.401,14.419],[73.841,15.39]]]}},{"type":"Feature","properties":{"name":"Middag Kingdom","name_zh":"","focus":false,"label":[120.62,24.23],"area":0.2,"color":"#7272a8"},"geometry":{"type":"Polygon","coordinates":[[[120.936,24.04],[120.67,23.864],[120.352,24.027],[120.582,24.414],[120.936,24.04]]]}},{"type":"Feature","properties":{"name":"Lan Na","name_zh":"八百媳妇 (兰纳)","focus":false,"label":[99.45,18.71],"area":9.6,"color":"#8a6f9e"},"geometry":{"type":"Polygon","coordinates":[[[99.716,16.84],[98.638,16.649],[98.393,17.083],[97.787,17.575],[97.706,18.051],[97.373,18.449],[97.711,18.508],[97.788,19.398],[97.852,19.563],[98.015,19.748],[98.508,19.719],[98.993,19.862],[99.17,20.129],[99.407,20.283],[99.603,20.361],[99.894,20.388],[100.001,20.458],[100.244,20.383],[100.43,20.226],[100.387,19.673],[100.417,19.508],[100.5,19.439],[100.69,19.44],[101.097,19.55],[101.229,18.91],[100.9,17.822],[100.913,17.544],[99.716,16.84]]]}},{"type":"Feature","properties":{"name":"Hong Kong","name_zh":"","focus":false,"label":[114.2,22.35],"area":0.1,"color":"#7272a8"},"geometry":{"type":"MultiPolygon","coordinates":[[[[114.046,22.34],[114.022,22.228],[113.836,22.213],[113.901,22.29],[114.046,22.34]]],[[[114.166,22.56],[114.309,22.553],[114.413,22.436],[114.263,22.204],[114.207,22.221],[114.133,22.171],[114.098,22.216],[114.144,22.331],[113.925,22.367],[113.901,22.406],[114.166,22.56]]]]}},{"type":"Feature","properties":{"name":"Khalkha Mongols","name_zh":"喀尔喀","focus":false,"label":[109.09,48.96],"area":298.8,"approx":true,"color":"#7d6b5a"},"geometry":{"type":"Polygon","coordinates":[[[120.386,46.423],[107.713,43.254],[104.299,40.5],[96.0,40.5],[96.0,51.504],[101.822,54.779],[111.197,52.236],[117.479,56.0],[127.146,56.0],[120.386,46.423]]]}},{"type":"Feature","properties":{"name":"Dutch Formosa","name_zh":"荷属台湾","focus":false,"approx":true,"label":[121.0,22.95],"area":1.4,"color":"#6a8aa0"},"geometry":{"type":"Polygon","coordinates":[[[120.049,23.060],[120.088,23.087],[120.055,23.153],[120.147,23.329],[120.111,23.619],[120.352,24.026],[120.669,23.863],[120.490,22.885],[120.643,22.730],[121.007,23.635],[121.560,23.784],[121.354,23.087],[121.167,22.762],[120.953,22.531],[120.873,22.322],[120.881,22.039],[120.823,21.927],[120.699,21.940],[120.618,22.295],[120.504,22.421],[120.307,22.540],[120.240,22.649],[120.136,23.016],[120.049,23.060]]]}},{"type":"Feature","properties":{"name":"Qing","name_zh":"清","focus":true,"approx":true,"label":[117.12,42.09],"area":448.1},"geometry":{"type":"MultiPolygon","coordinates":[[[[99.244,38.750],[99.388,39.755],[100.537,40.330],[102.117,39.756],[103.556,39.901],[107.713,43.253],[120.384,46.423],[127.580,56.614],[128.171,56.718],[128.834,56.645],[129.205,56.866],[130.389,56.052],[130.907,55.238],[130.545,53.920],[131.129,53.907],[132.023,52.426],[132.388,52.355],[133.127,52.649],[133.422,52.651],[134.236,53.463],[134.689,52.947],[135.273,53.02],[136.159,53.020],[137.239,53.455],[137.980,53.464],[138.234,53.572],[138.405,53.799],[138.416,54.090],[139.377,54.079],[139.804,53.960],[140.101,53.800],[140.322,53.534],[141.120,53.050],[141.088,52.985],[140.849,52.824],[141.030,52.725],[141.089,52.586],[140.950,52.264],[141.159,52.208],[141.256,52.102],[141.125,51.871],[140.729,51.440],[140.404,50.826],[140.323,50.517],[140.455,50.102],[140.327,49.356],[140.080,48.502],[139.213,47.809],[139.046,47.614],[138.948,47.322],[138.351,46.872],[137.983,46.269],[137.720,45.996],[136.494,44.965],[136.032,44.398],[135.415,44.036],[134.961,43.515],[134.567,43.212],[134.137,42.992],[132.952,42.669],[132.824,42.859],[132.484,42.880],[132.333,42.963],[132.178,43.189],[131.674,43.026],[131.832,43.245],[131.809,43.274],[131.581,43.210],[131.063,42.748],[130.435,42.276],[130.224,42.650],[129.971,42.949],[129.855,42.955],[129.568,42.736],[129.463,42.416],[129.033,42.176],[128.754,42.060],[128.309,42.077],[128.158,42.133],[127.979,42.103],[127.861,41.997],[127.849,41.846],[128.097,41.449],[127.860,41.377],[127.422,41.356],[126.972,41.539],[126.845,41.714],[126.478,41.651],[126.164,41.189],[125.879,40.945],[125.414,40.698],[124.723,40.425],[124.490,40.278],[124.133,39.843],[124.092,39.879],[123.915,39.806],[123.036,39.671],[122.027,39.254],[121.487,38.878],[121.215,38.756],[121.065,38.750],[121.123,38.864],[121.637,39.319],[121.450,39.381],[121.282,39.349],[121.213,39.483],[121.239,39.552],[121.667,39.904],[121.788,40.077],[122.105,40.358],[122.078,40.490],[121.755,40.734],[121.425,40.863],[121.008,40.848],[120.788,40.682],[120.271,40.151],[120.111,40.081],[119.822,40.041],[119.385,39.842],[119.210,39.639],[119.089,39.339],[118.976,39.224],[118.780,39.166],[118.557,39.170],[118.274,38.999],[118.065,39.253],[117.910,39.259],[117.751,39.199],[117.441,38.607],[117.479,38.448],[117.590,38.283],[117.841,38.162],[118.200,38.043],[118.743,38.062],[118.874,37.949],[118.811,37.443],[118.837,37.204],[118.955,37.077],[119.282,37.045],[119.597,37.116],[119.939,37.352],[120.169,37.575],[120.658,37.735],[120.786,37.703],[121.189,37.424],[121.431,37.336],[121.893,37.374],[122.391,37.299],[122.281,36.981],[122.254,36.733],[121.847,36.859],[121.609,36.833],[120.855,36.583],[120.543,36.390],[120.503,36.055],[120.269,35.985],[120.138,36.189],[119.926,36.144],[119.974,35.933],[119.906,35.768],[119.062,35.043],[119.003,34.936],[119.025,34.690],[119.298,34.589],[119.972,34.135],[120.148,33.894],[120.339,33.337],[120.639,33.043],[120.718,32.847],[120.665,32.536],[120.740,32.459],[121.049,32.327],[121.230,32.061],[121.482,31.947],[121.604,31.826],[121.644,31.688],[121.622,31.618],[121.286,31.447],[121.497,31.280],[121.639,30.925],[121.630,30.792],[121.567,30.710],[121.325,30.689],[121.035,30.593],[120.886,30.507],[120.675,30.626],[120.506,30.354],[120.529,30.326],[120.226,30.249],[119.990,30.138],[119.996,30.103],[120.310,30.026],[120.063,29.615],[119.254,29.958],[119.114,29.729],[118.167,29.149],[117.269,29.370],[117.128,29.311],[116.983,29.085],[116.793,27.390],[116.759,27.340],[116.464,27.293],[114.434,28.475],[114.395,28.645],[112.487,28.841],[112.314,29.551],[113.203,30.395],[111.590,31.155],[110.961,31.138],[109.123,32.632],[108.679,32.552],[107.760,31.443],[104.556,33.656],[103.935,33.360],[102.632,33.297],[102.149,32.973],[102.404,33.724],[101.686,36.305],[100.394,37.743],[99.244,38.750]]],[[[121.637,29.311],[121.648,29.318],[121.637,29.293],[121.637,29.311]]],[[[106.694,22.833],[106.716,22.841],[106.698,22.804],[106.694,22.833]]],[[[100.962,29.510],[100.975,29.548],[100.987,29.522],[100.962,29.510]]],[[[99.389,22.108],[99.755,22.157],[100.122,22.263],[100.390,21.813],[100.633,21.549],[100.320,21.463],[100.040,21.620],[99.885,21.955],[99.757,22.122],[99.389,22.108]]],[[[99.239,22.135],[99.266,22.156],[99.272,22.121],[99.271,22.121],[99.239,22.135]]],[[[99.223,22.453],[99.222,22.453],[99.224,22.459],[99.223,22.453]]],[[[98.638,26.111],[98.668,26.184],[98.677,26.107],[98.638,26.111]]],[[[98.731,25.746],[99.115,23.168],[99.115,23.168],[99.095,23.165],[99.112,23.188],[98.731,25.746]]]]}},{"type":"Feature","properties":{"name":"Lu regency","name_zh":"鲁监国","focus":true,"approx":true,"label":[120.95,29.04],"area":2.0,"color":"#b07090"},"geometry":{"type":"MultiPolygon","coordinates":[[[[120.063,29.615],[120.310,30.026],[120.441,29.998],[120.862,30.187],[121.081,30.212],[121.154,30.188],[121.393,29.921],[121.565,29.846],[121.769,29.833],[121.773,29.764],[121.669,29.624],[121.369,29.414],[121.416,29.343],[121.648,29.318],[121.431,28.834],[121.345,28.545],[121.357,28.385],[121.294,28.254],[120.335,28.712],[120.407,29.248],[120.063,29.615]]],[[[120.482,30.314],[120.675,30.634],[120.886,30.507],[120.607,30.346],[120.482,30.314]]]]}},{"type":"Feature","properties":{"name":"Southern Ming","name_zh":"南明","focus":true,"approx":true,"label":[108.32,25.06],"area":142.2,"color":"#c9a050"},"geometry":{"type":"MultiPolygon","coordinates":[[[[97.524,24.798],[97.887,25.270],[98.381,25.630],[98.575,25.956],[98.732,26.345],[98.637,27.477],[100.677,28.688],[100.968,29.529],[103.799,28.547],[104.163,29.312],[105.117,30.048],[105.570,29.897],[106.413,28.563],[108.060,28.900],[108.438,29.432],[109.118,29.372],[110.407,29.802],[110.724,30.154],[112.314,29.551],[112.493,28.842],[114.406,28.644],[114.440,28.472],[116.469,27.294],[116.752,27.339],[116.792,27.391],[116.983,29.088],[117.126,29.310],[117.265,29.371],[118.169,29.151],[119.111,29.727],[119.248,29.963],[120.063,29.615],[120.409,29.250],[120.343,28.709],[121.294,28.254],[121.258,28.182],[121.165,28.124],[120.995,28.259],[120.505,27.590],[120.350,27.177],[120.084,26.984],[119.970,26.788],[119.856,26.706],[119.601,26.691],[119.436,26.593],[119.553,26.267],[119.436,26.037],[119.469,25.771],[119.428,25.650],[119.334,25.530],[119.093,25.436],[118.811,24.849],[118.531,24.689],[118.344,24.467],[117.919,24.555],[117.797,24.417],[117.848,24.047],[117.404,23.690],[116.963,23.556],[116.708,23.346],[116.451,23.249],[116.403,23.194],[116.399,22.983],[116.339,22.913],[115.863,22.836],[115.705,22.638],[115.311,22.769],[115.190,22.746],[115.042,22.599],[114.847,22.510],[114.558,22.464],[114.518,22.669],[113.990,22.552],[113.844,22.463],[113.716,22.482],[113.456,22.758],[113.379,22.646],[113.418,22.569],[113.376,22.162],[113.282,22.030],[113.096,21.979],[112.874,22.051],[112.814,21.826],[112.748,21.756],[112.039,21.659],[111.828,21.751],[111.731,21.707],[111.535,21.493],[111.434,21.461],[111.081,21.477],[110.749,21.376],[110.565,21.230],[110.242,21.273],[110.201,21.096],[110.081,20.863],[110.291,20.584],[110.413,20.524],[110.432,20.436],[110.270,20.315],[109.928,20.244],[109.711,20.568],[109.602,20.879],[109.608,21.056],[109.784,21.402],[109.771,21.484],[109.512,21.594],[109.413,21.562],[109.320,21.431],[109.116,21.399],[108.813,21.493],[108.549,21.818],[108.464,21.779],[108.386,21.530],[108.264,21.473],[107.875,21.462],[107.783,21.526],[107.098,21.649],[106.673,21.926],[106.550,22.090],[106.507,22.324],[106.716,22.659],[106.688,22.838],[106.584,22.927],[105.941,22.931],[105.593,23.036],[105.311,23.292],[105.176,23.248],[104.477,22.783],[103.398,22.706],[102.984,22.469],[102.572,22.687],[102.415,22.694],[102.185,22.635],[101.665,22.393],[101.555,22.283],[101.535,22.137],[101.751,21.471],[101.702,21.319],[101.583,21.223],[101.238,21.259],[101.013,21.442],[100.892,21.709],[100.620,21.540],[100.390,21.813],[100.117,22.248],[99.464,22.114],[99.310,22.105],[99.208,22.149],[99.155,22.306],[99.481,23.016],[99.466,23.135],[99.234,23.183],[98.984,23.151],[98.893,23.296],[98.769,24.083],[98.699,24.143],[98.138,24.098],[97.766,23.898],[97.628,23.860],[97.530,23.892],[97.530,24.011],[97.630,24.274],[97.524,24.798]]],[[[108.576,19.186],[109.198,19.683],[109.419,19.663],[109.550,19.912],[109.911,19.802],[110.060,19.939],[110.616,20.016],[110.884,19.706],[110.612,19.470],[110.427,19.229],[110.300,18.902],[110.360,18.765],[110.261,18.625],[109.671,18.414],[109.428,18.096],[108.651,18.482],[108.576,19.186]]]]}},{"type":"Feature","properties":{"name":"Shun","name_zh":"大顺","focus":true,"approx":true,"label":[111.92,30.27],"area":2.4,"color":"#8a4f6e"},"geometry":{"type":"Polygon","coordinates":[[[110.724,30.154],[110.961,31.138],[111.587,31.157],[113.224,30.387],[112.314,29.551],[110.724,30.154]]]}},{"type":"Feature","properties":{"name":"Great Xi","name_zh":"大西","focus":true,"approx":true,"label":[106.1,30.65],"area":31.4,"color":"#7d6b4a"},"geometry":{"type":"Polygon","coordinates":[[[100.968,29.529],[102.149,32.972],[102.631,33.297],[103.933,33.360],[104.554,33.659],[107.748,31.451],[108.681,32.555],[109.121,32.635],[110.961,31.138],[110.724,30.154],[110.410,29.803],[109.114,29.371],[108.442,29.431],[108.064,28.900],[106.402,28.560],[105.571,29.894],[105.125,30.045],[104.164,29.313],[103.806,28.542],[100.968,29.529]]]}}]}