{"type":"FeatureCollection","features":[{"type":"Feature","properties":{"focus":false,"kind":"state","approx":true,"color":"#4f8f86","name":"Di peoples","name_zh":"狄","label":[111.33,38.77],"area":28.4},"geometry":{"type":"MultiPolygon","coordinates":[[[[117.7,37.375],[117.525,37.45],[117.275,37.45],[116.975,37.6],[116.8,37.75],[116.6,37.875],[116.45,37.925],[116.175,38.225],[116.175,38.35],[116.35,38.725],[116.55,38.875],[116.825,38.875],[117.0,38.775],[117.5,38.775],[117.594,38.794],[117.554,38.691],[117.558,38.625],[117.656,38.424],[117.767,38.312],[118.015,38.184],[118.035,38.18],[118.056,38.176],[117.9,37.825],[117.8,37.675],[117.775,37.5],[117.7,37.375]]],[[[108.525,36.375],[108.3,36.525],[108.3,36.775],[108.4,36.9],[108.425,37.175],[108.075,37.225],[107.875,37.3],[107.95,37.575],[107.825,37.775],[107.775,37.95],[107.7,38.05],[107.7,38.225],[107.65,38.3],[107.65,38.55],[107.475,38.7],[107.5,39.075],[107.575,39.3],[107.7,39.475],[107.725,39.6],[107.75,39.6],[107.925,39.525],[107.925,39.575],[108.225,39.65],[108.3,39.7],[108.65,39.7],[108.85,39.825],[109.275,39.825],[109.525,39.675],[109.625,39.675],[109.75,39.775],[110.0,39.775],[110.075,39.725],[110.425,39.775],[110.575,39.725],[110.7,39.875],[111.025,40.0],[111.275,40.025],[111.325,40.15],[111.525,40.325],[111.75,40.85],[111.75,41.075],[111.825,41.175],[111.975,41.225],[112.075,41.375],[112.15,41.375],[112.225,41.325],[112.5,41.325],[112.575,41.225],[112.675,41.25],[112.75,41.35],[112.875,41.375],[113.0,41.6],[113.05,41.6],[113.175,41.775],[113.5,41.825],[113.5,41.65],[113.55,41.625],[113.575,41.3],[113.7,41.3],[113.85,41.175],[113.95,41.15],[113.95,40.95],[113.875,40.925],[113.9,40.7],[113.825,40.6],[114.025,40.575],[114.075,40.625],[114.25,40.6],[114.3,40.5],[114.3,40.3],[114.775,40.275],[114.825,40.15],[115.025,40.15],[115.1,40.05],[115.125,40.05],[115.075,39.95],[114.7,39.625],[114.55,39.6],[114.525,39.525],[114.675,39.35],[114.75,39.2],[114.775,38.875],[114.9,38.525],[114.95,38.475],[114.95,38.0],[115.025,37.85],[114.85,37.7],[114.675,37.6],[114.425,37.55],[114.175,37.55],[114.025,37.5],[113.825,37.375],[113.4,37.4],[113.35,37.35],[113.375,37.125],[113.275,37.0],[113.225,36.7],[113.175,36.7],[113.0,36.525],[112.975,36.35],[112.85,36.175],[112.725,36.375],[112.5,36.55],[112.425,36.85],[112.225,36.775],[112.075,36.775],[111.95,36.925],[111.725,37.05],[111.3,37.175],[111.15,37.025],[111.15,36.75],[111.0,36.65],[110.775,36.575],[110.775,36.325],[110.65,36.275],[110.6,36.175],[110.45,36.175],[110.325,36.175],[110.25,36.1],[110.25,35.975],[110.15,35.825],[109.925,35.725],[109.875,35.725],[109.825,35.85],[109.625,35.825],[109.55,35.725],[109.4,35.65],[108.975,35.825],[108.55,35.75],[108.55,35.925],[108.475,35.975],[108.45,36.225],[108.525,36.375]]]]}},{"type":"Feature","properties":{"focus":false,"kind":"state","approx":true,"color":"#a07d5a","name":"Shanrong","name_zh":"山戎","label":[114.75,41.31],"area":12.4},"geometry":{"type":"Polygon","coordinates":[[[114.275,42.05],[114.3,42.15],[114.45,42.275],[114.475,42.5],[114.7,42.725],[115.05,42.6],[115.125,42.5],[115.2,42.625],[115.35,42.675],[115.55,42.675],[115.75,42.625],[115.95,42.725],[116.025,42.875],[116.275,43.075],[116.325,43.025],[116.525,43.025],[116.75,42.975],[116.95,42.975],[117.025,43.15],[117.2,43.35],[117.3,43.375],[117.45,43.575],[117.55,43.575],[117.675,43.375],[117.775,43.35],[117.875,43.225],[117.85,43.025],[117.775,42.975],[117.775,42.825],[117.85,42.75],[117.825,42.6],[117.875,42.275],[118.025,42.25],[118.15,42.05],[118.3,42.05],[118.35,41.925],[118.325,41.75],[118.475,41.65],[118.5,41.325],[118.925,41.225],[118.95,41.15],[119.1,41.125],[119.2,40.975],[119.2,40.8],[119.3,40.65],[119.55,40.575],[119.625,40.425],[119.6,40.35],[119.825,40.3],[120.075,40.1],[120.075,40.074],[119.839,39.983],[119.592,39.902],[119.391,39.752],[119.265,39.566],[119.261,39.561],[119.225,39.408],[119.04,39.222],[118.977,39.183],[118.976,39.182],[118.975,39.182],[118.912,39.166],[118.826,39.172],[118.752,39.16],[118.632,39.176],[118.625,39.176],[118.618,39.174],[118.472,39.118],[118.298,39.067],[118.297,39.067],[118.149,39.193],[118.043,39.225],[117.901,39.198],[117.9,39.2],[117.775,39.3],[117.65,39.65],[117.55,39.775],[117.45,40.075],[117.45,40.35],[117.5,40.425],[117.45,40.55],[117.5,40.675],[117.275,40.7],[117.0,40.925],[116.95,41.075],[116.85,41.1],[116.775,41.2],[116.625,41.2],[116.625,41.325],[116.725,41.4],[116.725,41.5],[116.55,41.6],[116.45,41.525],[116.175,41.55],[116.125,41.4],[116.025,41.4],[115.9,41.3],[115.575,41.275],[115.45,41.225],[115.475,40.925],[115.55,40.925],[115.625,40.8],[115.625,40.625],[115.5,40.575],[115.5,40.375],[115.25,40.3],[115.225,40.05],[115.1,40.05],[115.025,40.15],[114.825,40.15],[114.775,40.275],[114.3,40.3],[114.3,40.5],[114.25,40.6],[114.075,40.625],[114.025,40.575],[113.825,40.6],[113.9,40.7],[113.875,40.925],[113.95,40.95],[113.95,41.15],[113.85,41.175],[113.7,41.3],[113.575,41.3],[113.55,41.625],[113.5,41.65],[113.5,41.825],[113.85,41.975],[114.0,41.975],[114.15,42.05],[114.275,42.05]]]}},{"type":"Feature","properties":{"focus":false,"kind":"state","approx":true,"color":"#6f9460","name":"Donghu","name_zh":"东胡","label":[121.93,41.49],"area":22.5},"geometry":{"type":"Polygon","coordinates":[[[119.625,40.425],[119.55,40.575],[119.3,40.65],[119.2,40.8],[119.2,40.975],[119.1,41.125],[118.95,41.15],[118.925,41.225],[118.5,41.325],[118.475,41.65],[118.325,41.75],[118.35,41.925],[118.3,42.05],[118.15,42.05],[118.025,42.25],[117.875,42.275],[117.825,42.6],[117.85,42.75],[117.775,42.825],[117.775,42.975],[117.85,43.025],[117.875,43.225],[117.775,43.35],[118.075,43.625],[118.175,43.65],[118.375,43.875],[118.475,43.9],[118.625,44.025],[118.725,44.175],[118.725,44.375],[118.95,44.45],[118.975,44.55],[119.075,44.55],[119.225,44.375],[119.425,44.325],[119.475,44.15],[119.6,44.125],[119.725,44.0],[119.8,44.0],[119.875,43.875],[120.075,43.775],[120.275,43.6],[120.375,43.45],[120.55,43.475],[120.575,43.425],[120.775,43.425],[120.975,43.525],[121.25,43.525],[121.275,43.375],[121.55,43.175],[121.575,43.1],[121.85,43.075],[122.4,43.075],[122.45,43.15],[122.625,43.2],[122.675,43.275],[122.875,43.375],[123.075,43.325],[123.55,43.3],[123.525,43.125],[123.725,43.125],[123.9,43.225],[124.1,43.175],[124.325,42.925],[124.55,42.95],[124.625,42.85],[124.625,42.725],[124.75,42.6],[124.8,42.475],[124.875,42.475],[124.875,42.275],[124.975,42.225],[125.1,41.925],[125.2,41.9],[125.275,41.8],[125.275,41.675],[125.125,41.55],[125.125,41.475],[124.925,41.325],[124.9,41.2],[124.95,41.1],[124.925,40.85],[125.15,40.7],[125.15,40.575],[125.025,40.525],[125.0,40.2],[124.825,40.075],[124.725,39.95],[124.612,39.702],[124.608,39.717],[124.557,39.791],[124.527,39.805],[124.522,39.808],[124.404,39.866],[124.355,39.902],[124.348,39.906],[124.37,39.982],[124.345,40.002],[124.273,39.93],[124.267,39.924],[124.106,39.841],[124.085,39.84],[123.76,39.822],[123.65,39.876],[123.582,39.789],[123.581,39.786],[123.49,39.768],[123.362,39.763],[123.348,39.762],[123.226,39.686],[123.032,39.672],[122.96,39.619],[122.839,39.6],[122.481,39.434],[122.335,39.366],[122.225,39.267],[122.121,39.152],[122.048,39.094],[121.982,39.053],[121.864,38.996],[121.86,38.996],[121.805,38.991],[121.784,38.998],[121.674,39.0],[121.673,38.999],[121.637,38.955],[121.664,38.902],[121.67,38.892],[121.67,38.891],[121.666,38.886],[121.65,38.865],[121.517,38.831],[121.326,38.809],[121.321,38.808],[121.236,38.766],[121.207,38.744],[121.165,38.732],[121.163,38.731],[121.162,38.735],[121.122,38.813],[121.108,38.915],[121.106,38.92],[121.107,38.92],[121.107,38.921],[121.163,38.939],[121.651,39.098],[121.662,39.102],[121.627,39.22],[121.629,39.222],[121.665,39.269],[121.75,39.341],[121.779,39.396],[121.72,39.395],[121.513,39.375],[121.356,39.377],[121.282,39.384],[121.275,39.384],[121.299,39.454],[121.267,39.544],[121.268,39.544],[121.267,39.545],[121.406,39.621],[121.47,39.64],[121.491,39.64],[121.513,39.649],[121.474,39.754],[121.474,39.755],[121.517,39.845],[121.608,39.878],[121.801,39.952],[121.805,39.956],[121.869,40.046],[121.96,40.118],[122.187,40.355],[122.195,40.369],[122.203,40.396],[122.261,40.495],[122.264,40.501],[122.268,40.544],[122.178,40.602],[122.137,40.689],[121.858,40.842],[121.824,40.964],[121.783,40.913],[121.766,40.876],[121.729,40.846],[121.728,40.846],[121.599,40.843],[121.568,40.861],[121.17,40.898],[121.061,40.814],[121.003,40.749],[120.922,40.683],[120.856,40.655],[120.777,40.594],[120.771,40.589],[120.627,40.413],[120.479,40.23],[120.075,40.074],[120.075,40.1],[119.825,40.3],[119.6,40.35],[119.625,40.425]]]}},{"type":"Feature","properties":{"focus":false,"kind":"state","approx":true,"color":"#b0805f","name":"Rong peoples","name_zh":"戎","label":[103.2,35.78],"area":16.4},"geometry":{"type":"MultiPolygon","coordinates":[[[[109.65,34.125],[109.675,34.225],[109.8,34.25],[109.85,34.325],[110.075,34.4],[110.25,34.4],[110.475,34.375],[110.575,34.2],[110.725,34.15],[110.675,33.85],[110.85,33.75],[111.025,33.8],[111.2,33.8],[111.15,33.675],[111.225,33.6],[111.15,33.3],[111.05,33.15],[110.95,33.125],[110.95,32.825],[110.7,32.825],[110.7,32.775],[110.525,32.8],[110.475,32.75],[110.3,32.75],[110.1,32.8],[110.075,32.85],[109.775,32.925],[109.675,33.0],[109.625,33.2],[109.425,33.2],[109.375,33.425],[109.275,33.525],[109.325,33.825],[109.5,33.825],[109.55,33.9],[109.55,34.075],[109.65,34.125]]],[[[109.7,35.475],[109.9,35.625],[109.9,35.725],[109.925,35.725],[110.15,35.825],[110.25,35.975],[110.25,36.1],[110.325,36.175],[110.45,36.175],[110.475,36.0],[110.6,35.75],[110.625,35.55],[110.45,35.275],[110.375,35.225],[110.275,34.925],[110.275,34.675],[110.2,34.675],[109.875,35.025],[109.7,35.35],[109.7,35.475]]],[[[104.925,37.325],[105.075,37.2],[105.025,36.825],[105.275,36.65],[105.225,36.525],[105.25,36.425],[105.575,36.25],[105.55,36.25],[105.425,36.1],[105.225,36.025],[105.15,35.925],[105.175,35.725],[105.1,35.675],[104.975,35.475],[105.0,35.425],[104.8,35.225],[104.725,35.0],[104.575,35.025],[104.525,34.875],[104.4,34.775],[104.2,34.7],[104.225,34.575],[104.325,34.45],[104.275,34.275],[104.2,34.175],[104.05,34.15],[103.925,34.025],[103.8,34.025],[103.725,34.15],[103.55,34.15],[103.375,34.2],[103.3,34.0],[103.125,33.875],[103.075,33.875],[102.9,34.025],[102.575,34.05],[102.525,34.1],[101.925,34.125],[101.9,34.225],[101.7,34.3],[101.475,34.525],[101.475,34.75],[101.325,34.95],[101.45,35.125],[101.55,35.175],[101.475,35.5],[101.3,35.6],[101.35,35.8],[101.35,36.05],[101.4,36.05],[101.35,36.325],[101.175,36.35],[101.075,36.45],[101.025,36.6],[101.175,36.725],[101.2,36.925],[101.25,37.0],[101.225,37.275],[101.175,37.425],[101.025,37.475],[101.025,37.8],[101.125,37.75],[101.425,37.75],[101.55,37.625],[101.775,37.55],[102.125,37.55],[102.3,37.45],[102.425,37.3],[102.675,37.2],[102.775,37.325],[102.775,37.45],[102.85,37.6],[103.05,37.775],[103.1,37.925],[103.55,38.3],[103.7,38.4],[104.0,38.4],[104.2,38.325],[104.4,38.175],[104.5,38.05],[105.0,37.825],[105.05,37.75],[105.375,37.6],[105.375,37.5],[105.125,37.5],[104.975,37.45],[104.925,37.325]]]]}},{"type":"Feature","properties":{"focus":false,"kind":"state","approx":true,"color":"#a3727a","name":"Yiqu","name_zh":"义渠","label":[106.84,37.19],"area":9.3},"geometry":{"type":"Polygon","coordinates":[[[105.275,36.65],[105.025,36.825],[105.075,37.2],[104.925,37.325],[104.975,37.45],[105.125,37.5],[105.375,37.5],[105.375,37.6],[105.5,37.75],[105.625,37.825],[105.625,38.075],[105.725,38.1],[105.775,38.3],[105.85,38.425],[105.85,38.625],[105.9,38.8],[106.025,38.975],[106.15,39.075],[106.375,38.85],[106.55,38.8],[106.65,38.825],[106.85,39.0],[106.875,39.15],[106.825,39.175],[106.775,39.5],[106.875,39.6],[107.075,39.625],[107.15,39.725],[107.2,39.675],[107.475,39.675],[107.7,39.6],[107.725,39.6],[107.7,39.475],[107.575,39.3],[107.5,39.075],[107.475,38.7],[107.65,38.55],[107.65,38.3],[107.7,38.225],[107.7,38.05],[107.775,37.95],[107.825,37.775],[107.95,37.575],[107.875,37.3],[108.075,37.225],[108.425,37.175],[108.4,36.9],[108.3,36.775],[108.3,36.525],[108.525,36.375],[108.45,36.225],[108.475,35.975],[108.55,35.925],[108.55,35.75],[108.525,35.625],[108.6,35.475],[108.25,35.45],[108.125,35.375],[107.975,35.35],[107.95,35.275],[107.75,35.3],[107.7,35.375],[107.3,35.375],[107.125,35.45],[106.825,35.5],[106.725,35.55],[106.525,35.55],[106.4,35.5],[106.225,35.55],[106.2,35.775],[106.125,35.9],[105.85,36.1],[105.7,36.125],[105.6,36.25],[105.575,36.25],[105.25,36.425],[105.225,36.525],[105.275,36.65]]]}},{"type":"Feature","properties":{"focus":false,"kind":"state","approx":true,"color":"#9a8a4a","name":"Linhu and Loufan","name_zh":"林胡 · 楼烦","label":[110.33,41.17],"area":8.8},"geometry":{"type":"Polygon","coordinates":[[[107.15,39.725],[107.15,40.0],[107.2,40.1],[107.2,40.275],[107.15,40.475],[107.225,40.5],[107.225,40.625],[107.425,40.725],[107.45,40.925],[107.55,41.125],[107.55,41.25],[107.375,41.25],[107.35,41.35],[107.475,41.525],[107.725,41.575],[108.225,41.55],[108.4,41.625],[108.475,41.725],[108.6,41.775],[108.95,41.8],[109.2,41.725],[109.35,41.725],[109.475,41.65],[109.85,41.825],[110.1,41.85],[110.25,42.025],[110.5,42.075],[110.65,42.0],[110.8,41.85],[111.05,41.85],[111.1,41.8],[111.5,41.8],[111.575,41.75],[111.875,41.75],[111.975,41.65],[112.125,41.6],[112.125,41.375],[112.075,41.375],[111.975,41.225],[111.825,41.175],[111.75,41.075],[111.75,40.85],[111.525,40.325],[111.325,40.15],[111.275,40.025],[111.025,40.0],[110.7,39.875],[110.575,39.725],[110.425,39.775],[110.075,39.725],[110.0,39.775],[109.75,39.775],[109.625,39.675],[109.525,39.675],[109.275,39.825],[108.85,39.825],[108.65,39.7],[108.3,39.7],[108.225,39.65],[107.925,39.575],[107.925,39.525],[107.75,39.6],[107.7,39.6],[107.475,39.675],[107.2,39.675],[107.15,39.725]]]}},{"type":"Feature","properties":{"focus":false,"kind":"state","approx":true,"color":"#9a8a4a","name":"Man peoples","name_zh":"蛮","label":[111.15,27.63],"area":27.9},"geometry":{"type":"Polygon","coordinates":[[[107.675,26.175],[107.5,26.225],[107.4,26.45],[107.375,26.65],[107.45,26.725],[107.45,26.95],[107.55,27.225],[107.4,27.4],[107.425,27.55],[107.4,27.9],[107.5,28.05],[107.5,28.15],[107.65,28.3],[107.775,28.325],[107.8,28.4],[107.975,28.425],[108.025,28.575],[107.85,28.65],[107.85,28.8],[107.95,28.825],[108.075,28.975],[108.025,29.175],[108.15,29.275],[108.175,29.525],[108.15,29.65],[108.3,29.825],[108.4,29.875],[108.4,29.975],[108.525,30.05],[108.6,30.175],[108.9,30.15],[109.1,30.3],[109.1,30.375],[109.325,30.55],[109.45,30.575],[109.6,30.7],[109.85,30.625],[110.0,30.75],[110.075,30.75],[110.125,30.625],[109.95,30.475],[109.975,30.3],[110.05,30.2],[110.3,30.175],[110.425,30.1],[110.55,30.15],[110.75,30.15],[110.825,29.95],[111.025,29.825],[111.075,29.725],[111.225,29.725],[111.35,29.55],[111.5,29.525],[111.6,29.425],[111.75,29.425],[111.975,29.55],[112.25,29.575],[112.375,29.75],[112.725,29.75],[112.9,29.775],[112.925,29.525],[113.125,29.475],[113.4,29.8],[113.625,29.9],[113.775,29.75],[113.875,29.575],[113.95,29.575],[114.175,29.425],[114.25,29.275],[114.35,29.325],[114.4,29.325],[114.4,29.2],[114.475,29.075],[114.45,28.875],[114.35,28.8],[114.425,28.675],[114.35,28.575],[114.35,28.45],[114.45,28.375],[114.55,28.175],[114.575,27.7],[114.475,27.525],[114.25,27.525],[114.175,27.4],[114.3,27.325],[114.35,27.125],[114.35,26.9],[114.2,26.75],[114.2,26.625],[114.0,26.35],[113.975,26.125],[113.925,26.1],[113.925,25.9],[113.875,25.85],[113.75,25.5],[113.575,25.475],[113.375,25.225],[113.275,25.15],[113.225,25.15],[113.0,24.925],[112.775,24.925],[112.775,25.075],[112.7,25.125],[112.45,25.125],[112.425,25.175],[112.0,25.15],[111.775,25.425],[111.375,25.625],[111.3,25.475],[111.15,25.55],[111.0,25.55],[110.85,25.875],[110.75,26.0],[110.4,26.025],[110.375,26.075],[110.1,26.1],[110.075,25.95],[109.975,25.825],[109.85,25.825],[109.625,25.9],[109.55,25.975],[109.4,25.975],[109.3,25.9],[109.1,25.9],[109.025,25.975],[108.95,25.9],[108.675,25.9],[108.575,25.95],[108.6,26.05],[108.5,26.05],[108.35,26.15],[108.225,26.325],[108.1,26.325],[107.975,26.4],[107.825,26.425],[107.8,26.325],[107.675,26.175]]]}},{"type":"Feature","properties":{"focus":false,"kind":"state","approx":true,"color":"#7272a8","name":"Huai Yi","name_zh":"淮夷","label":[116.65,31.74],"area":11.0},"geometry":{"type":"Polygon","coordinates":[[[115.95,30.9],[116.05,30.975],[115.875,31.05],[115.75,31.225],[115.5,31.275],[115.4,31.425],[115.425,31.525],[115.575,31.7],[115.575,31.95],[115.75,32.275],[115.75,32.425],[115.925,32.6],[116.125,32.55],[116.175,32.8],[116.275,32.8],[116.525,32.825],[116.725,32.75],[116.9,32.75],[117.1,32.8],[117.175,32.95],[117.6,32.95],[117.75,33.05],[117.9,33.05],[117.925,33.15],[118.175,33.15],[118.25,33.35],[118.475,33.55],[118.6,33.7],[118.8,34.175],[118.95,34.3],[119.05,34.5],[119.275,34.6],[119.388,34.732],[119.427,34.714],[119.521,34.635],[119.584,34.582],[119.587,34.58],[119.954,34.45],[119.964,34.448],[120.201,34.326],[120.267,34.274],[120.323,34.169],[120.357,34.068],[120.494,33.727],[120.5,33.716],[120.502,33.681],[120.506,33.637],[120.616,33.491],[120.623,33.475],[120.827,33.087],[120.871,33.017],[120.897,32.843],[120.889,32.829],[120.853,32.762],[120.853,32.761],[120.857,32.659],[120.882,32.642],[120.99,32.567],[121.293,32.457],[121.342,32.425],[121.398,32.375],[120.85,32.375],[120.575,32.3],[120.225,32.275],[120.075,32.3],[119.575,32.3],[119.5,32.425],[119.275,32.375],[119.075,32.575],[118.975,32.6],[118.925,32.7],[118.675,32.925],[118.425,32.95],[118.125,32.625],[118.075,32.375],[118.0,32.25],[117.925,31.975],[117.925,31.65],[117.975,31.45],[118.025,31.45],[117.975,31.1],[117.75,31.1],[117.725,30.875],[117.825,30.825],[117.85,30.475],[117.775,30.275],[117.85,30.225],[117.95,30.025],[118.15,30.025],[118.225,29.7],[118.175,29.65],[117.975,29.65],[117.825,29.7],[117.775,29.775],[117.6,29.875],[117.325,29.85],[117.225,29.925],[117.1,29.775],[116.925,29.8],[116.875,29.875],[116.625,29.8],[116.575,29.9],[116.375,29.9],[116.25,29.85],[116.175,29.975],[116.0,30.05],[115.85,30.25],[115.9,30.475],[115.825,30.55],[115.825,30.7],[115.95,30.9]]]}},{"type":"Feature","properties":{"focus":false,"kind":"state","approx":true,"color":"#7272a8","name":"Baiyue","name_zh":"百越","label":[119.04,27.21],"area":42.1},"geometry":{"type":"MultiPolygon","coordinates":[[[[113.875,25.85],[113.925,25.9],[113.925,26.1],[113.975,26.125],[114.0,26.35],[114.2,26.625],[114.2,26.75],[114.35,26.9],[114.35,27.125],[114.3,27.325],[114.175,27.4],[114.25,27.525],[114.475,27.525],[114.575,27.7],[114.55,28.175],[114.45,28.375],[114.35,28.45],[114.35,28.575],[114.425,28.675],[114.35,28.8],[114.45,28.875],[114.475,29.075],[114.4,29.2],[114.4,29.325],[114.525,29.325],[114.65,29.4],[114.775,29.4],[114.825,29.6],[114.9,29.65],[115.05,29.9],[115.25,30.0],[115.3,30.075],[115.5,29.875],[115.675,30.15],[115.85,30.25],[116.0,30.05],[116.175,29.975],[116.25,29.85],[116.375,29.9],[116.575,29.9],[116.625,29.8],[116.875,29.875],[116.925,29.8],[117.1,29.775],[117.225,29.925],[117.325,29.85],[117.6,29.875],[117.775,29.775],[117.825,29.7],[117.975,29.65],[118.175,29.65],[118.225,29.7],[118.35,29.75],[118.55,29.725],[118.65,29.9],[118.85,29.95],[118.9,29.875],[118.875,29.7],[118.975,29.575],[119.075,29.55],[119.05,29.4],[119.175,29.3],[119.25,28.875],[119.45,28.675],[119.475,28.5],[119.35,28.4],[119.25,28.4],[119.35,28.25],[119.45,28.225],[119.45,27.925],[119.35,27.875],[119.475,27.75],[119.5,27.65],[119.6,27.65],[119.65,27.75],[119.85,27.825],[119.9,27.75],[120.025,27.75],[120.075,27.45],[120.25,27.325],[120.4,27.3],[120.453,27.234],[120.388,27.159],[120.385,27.156],[120.384,27.155],[120.276,27.092],[120.164,26.924],[120.139,26.886],[120.136,26.879],[120.087,26.676],[120.087,26.672],[120.043,26.634],[119.968,26.586],[119.967,26.586],[119.882,26.61],[119.852,26.688],[119.842,26.689],[119.821,26.737],[119.817,26.777],[119.804,26.811],[119.769,26.78],[119.767,26.775],[119.715,26.732],[119.71,26.728],[119.593,26.761],[119.62,26.682],[119.624,26.676],[119.63,26.65],[119.639,26.625],[119.714,26.611],[119.726,26.609],[119.785,26.547],[119.831,26.45],[119.835,26.434],[119.849,26.404],[119.876,26.371],[119.881,26.334],[119.692,26.236],[119.567,26.127],[119.47,26.059],[119.463,26.054],[119.452,26.055],[119.37,26.054],[119.319,26.062],[119.313,26.062],[119.192,26.111],[119.171,26.091],[119.248,25.993],[119.262,25.976],[119.332,25.949],[119.418,25.955],[119.5,26.009],[119.501,26.009],[119.619,26.004],[119.648,25.919],[119.617,25.823],[119.556,25.704],[119.553,25.698],[119.54,25.595],[119.549,25.574],[119.619,25.437],[119.622,25.391],[119.593,25.368],[119.592,25.368],[119.588,25.37],[119.499,25.409],[119.444,25.445],[119.419,25.458],[119.41,25.458],[119.344,25.446],[119.319,25.453],[119.177,25.446],[119.149,25.411],[119.159,25.381],[119.169,25.357],[119.171,25.355],[119.244,25.307],[119.286,25.232],[119.281,25.23],[119.235,25.205],[118.974,25.205],[118.966,25.194],[118.917,25.128],[118.946,25.034],[118.956,25.005],[118.942,24.983],[118.909,24.928],[118.726,24.859],[118.708,24.85],[118.69,24.846],[118.644,24.829],[118.681,24.788],[118.692,24.782],[118.719,24.746],[118.657,24.621],[118.655,24.621],[118.56,24.58],[118.412,24.6],[118.295,24.572],[118.195,24.625],[118.093,24.626],[118.021,24.567],[118.014,24.56],[118.006,24.482],[117.935,24.474],[117.897,24.48],[117.843,24.474],[117.848,24.432],[117.879,24.396],[118.024,24.38],[118.051,24.327],[118.056,24.246],[117.904,24.106],[117.839,24.012],[117.742,24.015],[117.668,23.939],[117.628,23.837],[117.579,23.857],[117.466,23.841],[117.433,23.792],[117.46,23.771],[117.462,23.736],[117.417,23.621],[117.368,23.589],[117.347,23.636],[117.331,23.709],[117.291,23.714],[117.225,23.647],[117.148,23.599],[117.083,23.579],[117.033,23.623],[116.911,23.647],[116.861,23.453],[116.76,23.383],[116.712,23.36],[116.629,23.354],[116.682,23.327],[116.699,23.278],[116.669,23.228],[116.586,23.218],[116.538,23.18],[116.52,23.007],[116.471,22.946],[116.346,22.941],[116.252,22.981],[116.222,22.95],[116.206,22.919],[116.157,22.887],[116.063,22.879],[115.852,22.802],[115.756,22.824],[115.64,22.853],[115.579,22.831],[115.55,22.85],[115.5,22.975],[115.325,23.15],[115.225,23.2],[115.075,23.15],[114.825,23.175],[114.7,23.325],[114.6,23.35],[114.7,23.45],[114.625,23.625],[114.375,23.65],[114.3,23.8],[114.3,23.975],[114.175,24.025],[114.15,24.1],[114.3,24.325],[114.425,24.375],[114.425,24.5],[114.325,24.525],[114.175,24.675],[113.95,24.575],[113.9,24.65],[113.75,24.625],[113.575,24.725],[113.575,24.85],[113.275,25.15],[113.375,25.225],[113.575,25.475],[113.75,25.5],[113.875,25.85]]],[[[119.816,25.52],[119.813,25.51],[119.829,25.483],[119.832,25.48],[119.821,25.457],[119.748,25.411],[119.746,25.41],[119.7,25.432],[119.7,25.434],[119.699,25.495],[119.719,25.54],[119.72,25.548],[119.696,25.59],[119.696,25.591],[119.717,25.629],[119.722,25.638],[119.723,25.639],[119.772,25.652],[119.777,25.653],[119.778,25.653],[119.78,25.65],[119.815,25.614],[119.829,25.607],[119.838,25.591],[119.839,25.56],[119.816,25.52]]],[[[118.089,24.489],[118.077,24.501],[118.093,24.541],[118.102,24.551],[118.103,24.552],[118.104,24.552],[118.171,24.519],[118.183,24.496],[118.15,24.436],[118.091,24.446],[118.089,24.489]]],[[[104.85,27.3],[105.025,27.4],[105.15,27.325],[105.2,27.4],[105.375,27.375],[105.65,27.4],[105.7,27.3],[105.875,27.3],[105.875,27.35],[106.05,27.425],[106.1,27.575],[106.325,27.6],[106.425,27.575],[106.55,27.725],[106.8,27.8],[106.85,27.975],[106.925,28.05],[107.125,28.0],[107.275,27.9],[107.4,27.9],[107.425,27.55],[107.4,27.4],[107.55,27.225],[107.45,26.95],[107.45,26.725],[107.375,26.65],[107.4,26.45],[107.5,26.225],[107.675,26.175],[107.8,26.325],[107.825,26.425],[107.975,26.4],[108.1,26.325],[108.175,26.3],[108.175,26.0],[107.85,26.0],[107.7,25.825],[107.7,25.525],[107.625,25.4],[107.625,25.225],[107.7,25.175],[107.7,25.0],[107.525,24.85],[107.525,24.5],[107.425,24.525],[107.3,24.65],[107.3,24.8],[107.225,24.875],[107.1,24.825],[107.075,24.725],[106.95,24.675],[106.875,24.525],[106.75,24.525],[106.7,24.425],[106.55,24.475],[106.175,24.475],[106.075,24.35],[105.7,24.3],[105.475,24.35],[105.325,24.45],[105.225,24.625],[104.95,24.625],[104.9,24.75],[104.8,24.7],[104.75,24.85],[104.6,24.925],[104.525,25.05],[104.525,25.225],[104.375,25.35],[104.2,25.325],[104.125,25.375],[104.175,25.675],[104.35,25.875],[104.35,26.175],[104.425,26.35],[104.475,26.575],[104.7,26.9],[104.475,26.975],[104.5,27.2],[104.625,27.2],[104.75,27.3],[104.85,27.3]]]]}},{"type":"Feature","properties":{"focus":true,"kind":"state","approx":true,"color":"#c9a227","name":"Zhou royal domain","name_zh":"周","label":[112.55,34.45],"area":2.3},"geometry":{"type":"Polygon","coordinates":[[[111.825,34.275],[111.8,34.575],[111.85,34.675],[111.875,34.975],[111.825,35.075],[111.925,35.1],[111.975,35.225],[111.975,35.45],[112.05,35.45],[112.15,35.6],[112.375,35.6],[112.45,35.7],[112.675,35.6],[112.7,35.425],[112.95,35.15],[113.075,35.05],[113.375,35.075],[113.4,34.975],[113.475,34.975],[113.45,34.775],[113.375,34.6],[113.2,34.6],[112.975,34.45],[113.0,34.3],[113.075,34.275],[113.05,34.15],[112.9,33.825],[112.65,33.875],[112.5,33.825],[112.45,33.875],[112.275,33.85],[112.225,33.75],[111.95,33.75],[111.725,33.675],[111.525,33.775],[111.5,33.775],[111.5,34.075],[111.725,34.15],[111.825,34.275]]]}},{"type":"Feature","properties":{"focus":true,"kind":"state","approx":true,"color":"#7a5195","name":"Jin","name_zh":"晋","label":[111.5,35.86],"area":3.8},"geometry":{"type":"Polygon","coordinates":[[[110.775,36.575],[111.0,36.65],[111.15,36.75],[111.15,37.025],[111.3,37.175],[111.725,37.05],[111.95,36.925],[112.075,36.775],[112.225,36.775],[112.425,36.85],[112.5,36.55],[112.725,36.375],[112.85,36.175],[112.775,36.0],[112.775,35.85],[112.675,35.6],[112.45,35.7],[112.375,35.6],[112.15,35.6],[112.05,35.45],[111.975,35.45],[111.975,35.225],[111.925,35.1],[111.825,35.075],[111.675,35.025],[111.65,35.1],[111.475,35.125],[111.35,35.0],[111.3,34.85],[111.05,34.75],[110.9,34.75],[110.875,34.675],[110.7,34.625],[110.275,34.625],[110.275,34.675],[110.275,34.925],[110.375,35.225],[110.45,35.275],[110.625,35.55],[110.6,35.75],[110.475,36.0],[110.45,36.175],[110.6,36.175],[110.65,36.275],[110.775,36.325],[110.775,36.575]]]}},{"type":"Feature","properties":{"focus":true,"kind":"state","approx":true,"color":"#8f8f8f","minor":true,"name":"Guo","name_zh":"虢","label":[111.26,34.14],"area":1.3},"geometry":{"type":"Polygon","coordinates":[[[110.875,34.675],[110.9,34.75],[111.05,34.75],[111.3,34.85],[111.35,35.0],[111.475,35.125],[111.65,35.1],[111.675,35.025],[111.825,35.075],[111.875,34.975],[111.85,34.675],[111.8,34.575],[111.825,34.275],[111.725,34.15],[111.5,34.075],[111.5,33.775],[111.25,33.775],[111.25,33.8],[111.025,33.8],[110.85,33.75],[110.675,33.85],[110.725,34.15],[110.575,34.2],[110.475,34.375],[110.25,34.4],[110.15,34.4],[110.275,34.625],[110.7,34.625],[110.875,34.675]]]}},{"type":"Feature","properties":{"focus":true,"kind":"state","approx":true,"color":"#8f8f8f","minor":true,"name":"Xing","name_zh":"邢","label":[114.46,37.01],"area":1.4},"geometry":{"type":"Polygon","coordinates":[[[114.025,37.5],[114.175,37.55],[114.425,37.55],[114.675,37.6],[114.85,37.7],[115.025,37.85],[115.05,37.825],[115.175,37.825],[115.325,37.5],[115.4,37.15],[115.25,36.775],[115.025,36.775],[114.775,36.85],[114.05,36.85],[114.0,36.9],[113.675,36.925],[113.575,37.05],[113.375,37.125],[113.35,37.35],[113.4,37.4],[113.825,37.375],[114.025,37.5]]]}},{"type":"Feature","properties":{"focus":true,"kind":"state","approx":true,"color":"#8a6f9e","minor":true,"name":"Wey","name_zh":"卫","label":[114.65,35.82],"area":4.6},"geometry":{"type":"Polygon","coordinates":[[[112.95,35.15],[112.7,35.425],[112.675,35.6],[112.775,35.85],[112.775,36.0],[112.85,36.175],[112.975,36.35],[113.0,36.525],[113.175,36.7],[113.225,36.7],[113.275,37.0],[113.375,37.125],[113.575,37.05],[113.675,36.925],[114.0,36.9],[114.05,36.85],[114.775,36.85],[115.025,36.775],[115.225,36.775],[115.325,36.6],[115.275,36.425],[115.4,36.325],[115.525,36.0],[115.675,35.875],[115.675,35.8],[115.7,35.8],[115.525,35.725],[115.4,35.625],[115.35,35.5],[115.225,35.4],[115.075,35.4],[115.05,35.325],[114.85,35.1],[114.75,34.925],[114.2,34.925],[114.0,34.95],[113.975,34.9],[113.7,34.9],[113.6,34.975],[113.4,34.975],[113.375,35.075],[113.075,35.05],[112.95,35.15]]]}},{"type":"Feature","properties":{"focus":true,"kind":"state","approx":true,"color":"#2f8f83","name":"Qi","name_zh":"齐","label":[117.5,36.99],"area":7.3},"geometry":{"type":"Polygon","coordinates":[[[115.175,37.825],[115.25,37.825],[115.475,37.95],[115.575,37.95],[115.75,38.05],[116.05,38.15],[116.175,38.225],[116.45,37.925],[116.6,37.875],[116.8,37.75],[116.975,37.6],[117.275,37.45],[117.525,37.45],[117.7,37.375],[117.775,37.5],[117.8,37.675],[117.9,37.825],[118.056,38.176],[118.542,38.095],[118.546,38.096],[118.667,38.126],[118.8,38.127],[118.94,38.043],[119.028,37.904],[119.036,37.809],[119.038,37.78],[119.042,37.773],[119.07,37.749],[119.089,37.701],[119.089,37.7],[119.075,37.69],[119.033,37.661],[119.025,37.657],[118.989,37.633],[118.956,37.327],[119.106,37.205],[119.112,37.201],[119.287,37.138],[119.29,37.138],[119.626,37.142],[119.76,37.155],[119.804,37.189],[119.95,37.0],[119.85,37.0],[119.75,36.875],[119.7,36.625],[119.7,36.0],[119.625,36.0],[119.2,35.975],[119.15,36.025],[118.925,36.075],[118.775,36.175],[118.575,36.175],[118.525,36.125],[118.375,36.15],[118.2,36.275],[118.05,36.2],[117.75,36.25],[117.7,36.15],[117.6,36.15],[117.35,36.4],[117.225,36.4],[117.1,36.275],[116.925,36.225],[116.85,36.125],[116.7,36.175],[116.575,36.15],[116.2,36.175],[116.1,36.1],[116.05,35.975],[115.9,35.925],[115.875,35.85],[115.725,35.8],[115.675,35.8],[115.675,35.875],[115.525,36.0],[115.4,36.325],[115.275,36.425],[115.325,36.6],[115.225,36.775],[115.25,36.775],[115.4,37.15],[115.325,37.5],[115.175,37.825]]]}},{"type":"Feature","properties":{"focus":true,"kind":"state","approx":true,"color":"#8f8f8f","minor":true,"name":"Lai","name_zh":"莱","label":[120.67,36.84],"area":2.9},"geometry":{"type":"Polygon","coordinates":[[[119.85,37.0],[119.95,37.0],[119.804,37.189],[119.829,37.208],[119.877,37.245],[119.882,37.35],[119.883,37.35],[119.883,37.351],[120.004,37.415],[120.155,37.495],[120.299,37.613],[120.257,37.678],[120.258,37.678],[120.257,37.679],[120.285,37.692],[120.31,37.695],[120.732,37.828],[120.75,37.834],[121.049,37.725],[121.218,37.601],[121.287,37.592],[121.388,37.579],[121.401,37.572],[121.633,37.463],[121.64,37.46],[121.816,37.457],[121.952,37.446],[121.959,37.446],[121.986,37.469],[122.01,37.496],[122.057,37.529],[122.11,37.522],[122.129,37.501],[122.172,37.455],[122.338,37.405],[122.34,37.405],[122.598,37.426],[122.602,37.426],[122.667,37.403],[122.664,37.4],[122.575,37.317],[122.585,37.204],[122.587,37.181],[122.454,37.072],[122.521,37.004],[122.523,37.003],[122.52,36.947],[122.519,36.946],[122.346,36.836],[122.341,36.832],[122.34,36.832],[122.338,36.832],[122.274,36.834],[122.245,36.848],[122.242,36.849],[122.16,36.958],[121.936,36.959],[121.909,36.948],[121.67,36.836],[121.413,36.738],[121.274,36.698],[121.053,36.611],[121.052,36.611],[120.99,36.598],[120.917,36.622],[120.814,36.631],[120.805,36.601],[120.822,36.587],[120.883,36.539],[120.905,36.485],[120.896,36.444],[120.858,36.43],[120.847,36.426],[120.774,36.453],[120.712,36.412],[120.682,36.339],[120.681,36.168],[120.638,36.13],[120.542,36.113],[120.393,36.053],[120.39,36.055],[120.348,36.079],[120.331,36.109],[120.33,36.11],[120.325,36.224],[120.183,36.202],[120.101,36.111],[120.126,36.082],[120.18,36.019],[120.186,36.017],[120.265,36.007],[120.285,35.984],[120.219,35.935],[120.174,35.915],[120.09,35.862],[120.075,35.95],[119.825,35.95],[119.8,36.0],[119.7,36.0],[119.7,36.625],[119.75,36.875],[119.85,37.0]]]}},{"type":"Feature","properties":{"focus":true,"kind":"state","approx":true,"color":"#8f8f8f","minor":true,"name":"Ju","name_zh":"莒","label":[118.94,35.21],"area":1.7},"geometry":{"type":"Polygon","coordinates":[[[118.625,34.725],[118.65,35.025],[118.55,35.15],[118.475,35.375],[118.3,35.525],[118.325,35.775],[118.275,35.925],[118.125,36.05],[118.05,36.2],[118.2,36.275],[118.375,36.15],[118.525,36.125],[118.575,36.175],[118.775,36.175],[118.925,36.075],[119.15,36.025],[119.2,35.975],[119.625,36.0],[119.8,36.0],[119.825,35.95],[120.075,35.95],[120.09,35.862],[120.042,35.831],[120.041,35.83],[120.027,35.799],[119.979,35.74],[119.915,35.696],[119.866,35.643],[119.859,35.64],[119.811,35.618],[119.746,35.597],[119.717,35.586],[119.715,35.584],[119.526,35.358],[119.431,35.301],[119.372,35.16],[119.353,35.114],[119.352,35.113],[119.215,35.009],[119.167,34.843],[119.172,34.831],[119.206,34.75],[119.32,34.749],[119.351,34.749],[119.388,34.732],[119.275,34.6],[119.05,34.5],[118.925,34.55],[118.825,34.675],[118.7,34.725],[118.625,34.725]]]}},{"type":"Feature","properties":{"focus":true,"kind":"state","approx":true,"color":"#9a7b4f","minor":true,"name":"Lu","name_zh":"鲁","label":[117.24,35.34],"area":3.3},"geometry":{"type":"Polygon","coordinates":[[[116.025,35.7],[115.9,35.925],[116.05,35.975],[116.1,36.1],[116.2,36.175],[116.575,36.15],[116.7,36.175],[116.85,36.125],[116.925,36.225],[117.1,36.275],[117.225,36.4],[117.35,36.4],[117.6,36.15],[117.7,36.15],[117.75,36.25],[118.05,36.2],[118.125,36.05],[118.275,35.925],[118.325,35.775],[118.3,35.525],[118.475,35.375],[118.55,35.15],[118.65,35.025],[118.625,34.725],[118.6,34.725],[118.475,34.65],[118.075,34.575],[117.775,34.575],[117.7,34.75],[117.6,34.85],[117.55,35.075],[117.4,35.075],[117.175,35.0],[116.925,34.85],[116.7,34.75],[116.4,34.75],[116.225,34.85],[116.2,34.85],[116.175,35.075],[116.025,35.45],[116.025,35.7]]]}},{"type":"Feature","properties":{"focus":true,"kind":"state","approx":true,"color":"#a08f6a","minor":true,"name":"Cao","name_zh":"曹","label":[115.67,35.44],"area":1.1},"geometry":{"type":"Polygon","coordinates":[[[115.35,35.5],[115.4,35.625],[115.525,35.725],[115.7,35.8],[115.725,35.8],[115.875,35.85],[115.9,35.925],[116.025,35.7],[116.025,35.45],[116.175,35.075],[116.2,34.85],[116.175,34.85],[116.125,34.8],[115.875,34.75],[115.7,34.75],[115.525,34.675],[115.4,34.675],[115.15,34.55],[114.975,34.875],[114.9,35.075],[114.85,35.1],[115.05,35.325],[115.075,35.4],[115.225,35.4],[115.35,35.5]]]}},{"type":"Feature","properties":{"focus":true,"kind":"state","approx":true,"color":"#b08a2e","name":"Song","name_zh":"宋","label":[116.47,33.91],"area":4.5},"geometry":{"type":"Polygon","coordinates":[[[115.475,33.3],[115.45,33.35],[115.425,33.35],[115.425,33.625],[115.275,34.075],[115.175,34.25],[115.125,34.475],[115.15,34.55],[115.4,34.675],[115.525,34.675],[115.7,34.75],[115.875,34.75],[116.125,34.8],[116.175,34.85],[116.225,34.85],[116.4,34.75],[116.7,34.75],[116.925,34.85],[117.175,35.0],[117.4,35.075],[117.55,35.075],[117.6,34.85],[117.7,34.75],[117.775,34.575],[117.775,34.3],[117.7,34.175],[117.575,33.725],[117.65,33.55],[117.65,33.4],[117.75,33.225],[117.8,33.05],[117.75,33.05],[117.6,32.95],[117.175,32.95],[117.1,32.8],[116.9,32.75],[116.725,32.75],[116.525,32.825],[116.275,32.8],[116.15,32.8],[115.85,33.075],[115.75,33.2],[115.475,33.3]]]}},{"type":"Feature","properties":{"focus":true,"kind":"state","approx":true,"color":"#5f9a9a","minor":true,"name":"Zheng","name_zh":"郑","label":[113.97,34.31],"area":2.2},"geometry":{"type":"Polygon","coordinates":[[[112.975,34.45],[113.2,34.6],[113.375,34.6],[113.45,34.775],[113.475,34.975],[113.6,34.975],[113.7,34.9],[113.975,34.9],[114.0,34.95],[114.2,34.925],[114.75,34.925],[114.85,35.1],[114.9,35.075],[114.975,34.875],[115.15,34.55],[115.125,34.475],[114.95,34.4],[114.775,34.375],[114.6,34.25],[114.5,34.225],[114.35,33.925],[114.325,33.725],[114.2,33.725],[113.925,33.6],[113.9,33.55],[113.625,33.45],[113.475,33.3],[113.4,33.3],[113.3,33.425],[113.15,33.45],[113.05,33.65],[112.9,33.825],[113.05,34.15],[113.075,34.275],[113.0,34.3],[112.975,34.45]]]}},{"type":"Feature","properties":{"focus":true,"kind":"state","approx":true,"color":"#9c6b6b","minor":true,"name":"Chen","name_zh":"陈","label":[114.84,33.92],"area":0.9},"geometry":{"type":"Polygon","coordinates":[[[115.425,33.35],[115.35,33.35],[115.075,33.25],[114.9,33.25],[114.725,33.3],[114.5,33.6],[114.35,33.725],[114.325,33.725],[114.35,33.925],[114.5,34.225],[114.6,34.25],[114.775,34.375],[114.95,34.4],[115.125,34.475],[115.175,34.25],[115.275,34.075],[115.425,33.625],[115.425,33.35]]]}},{"type":"Feature","properties":{"focus":true,"kind":"state","approx":true,"color":"#7f9c5a","minor":true,"name":"Cai","name_zh":"蔡","label":[115.16,32.54],"area":3.4},"geometry":{"type":"Polygon","coordinates":[[[113.4,32.975],[113.45,33.125],[113.425,33.3],[113.475,33.3],[113.625,33.45],[113.9,33.55],[113.925,33.6],[114.2,33.725],[114.35,33.725],[114.5,33.6],[114.725,33.3],[114.9,33.25],[115.075,33.25],[115.35,33.35],[115.45,33.35],[115.475,33.3],[115.75,33.2],[115.85,33.075],[116.15,32.8],[116.175,32.8],[116.125,32.55],[115.925,32.6],[115.75,32.425],[115.75,32.275],[115.575,31.95],[115.575,31.7],[115.425,31.525],[115.4,31.425],[115.3,31.45],[115.175,31.6],[115.0,31.6],[114.925,31.675],[114.8,31.675],[114.675,31.75],[114.675,31.9],[114.5,32.125],[114.25,32.2],[114.125,32.35],[114.025,32.225],[113.925,32.225],[113.825,32.4],[113.55,32.325],[113.55,32.475],[113.625,32.525],[113.6,32.8],[113.4,32.975]]]}},{"type":"Feature","properties":{"focus":true,"kind":"state","approx":true,"color":"#4f6db8","name":"Yan","name_zh":"燕","label":[116.36,39.55],"area":7.0},"geometry":{"type":"Polygon","coordinates":[[[115.5,40.575],[115.625,40.625],[115.625,40.8],[115.55,40.925],[115.475,40.925],[115.45,41.225],[115.575,41.275],[115.9,41.3],[116.025,41.4],[116.125,41.4],[116.175,41.55],[116.45,41.525],[116.55,41.6],[116.725,41.5],[116.725,41.4],[116.625,41.325],[116.625,41.2],[116.775,41.2],[116.85,41.1],[116.95,41.075],[117.0,40.925],[117.275,40.7],[117.5,40.675],[117.45,40.55],[117.5,40.425],[117.45,40.35],[117.45,40.075],[117.55,39.775],[117.65,39.65],[117.775,39.3],[117.9,39.2],[117.901,39.198],[117.867,39.191],[117.806,39.149],[117.801,39.146],[117.624,38.865],[117.617,38.853],[117.6,38.81],[117.594,38.794],[117.5,38.775],[117.0,38.775],[116.825,38.875],[116.55,38.875],[116.35,38.725],[116.175,38.35],[116.175,38.225],[116.05,38.15],[115.75,38.05],[115.575,37.95],[115.475,37.95],[115.25,37.825],[115.05,37.825],[115.025,37.85],[114.95,38.0],[114.95,38.475],[114.9,38.525],[114.775,38.875],[114.75,39.2],[114.675,39.35],[114.525,39.525],[114.55,39.6],[114.7,39.625],[115.075,39.95],[115.125,40.05],[115.225,40.05],[115.25,40.3],[115.5,40.375],[115.5,40.575]]]}},{"type":"Feature","properties":{"focus":true,"kind":"state","approx":true,"color":"#3d3d4f","name":"Qin","name_zh":"秦","label":[107.14,34.25],"area":11.9},"geometry":{"type":"Polygon","coordinates":[[[103.175,33.775],[103.125,33.875],[103.3,34.0],[103.375,34.2],[103.55,34.15],[103.725,34.15],[103.8,34.025],[103.925,34.025],[104.05,34.15],[104.2,34.175],[104.275,34.275],[104.325,34.45],[104.225,34.575],[104.2,34.7],[104.4,34.775],[104.525,34.875],[104.575,35.025],[104.725,35.0],[104.8,35.225],[105.0,35.425],[104.975,35.475],[105.1,35.675],[105.175,35.725],[105.15,35.925],[105.225,36.025],[105.425,36.1],[105.55,36.25],[105.6,36.25],[105.7,36.125],[105.85,36.1],[106.125,35.9],[106.2,35.775],[106.225,35.55],[106.4,35.5],[106.525,35.55],[106.725,35.55],[106.825,35.5],[107.125,35.45],[107.3,35.375],[107.7,35.375],[107.75,35.3],[107.95,35.275],[107.975,35.35],[108.125,35.375],[108.25,35.45],[108.6,35.475],[108.525,35.625],[108.55,35.75],[108.975,35.825],[109.4,35.65],[109.55,35.725],[109.625,35.825],[109.825,35.85],[109.875,35.725],[109.9,35.725],[109.9,35.625],[109.7,35.475],[109.7,35.35],[109.875,35.025],[110.2,34.675],[110.275,34.675],[110.275,34.625],[110.15,34.4],[110.075,34.4],[109.85,34.325],[109.8,34.25],[109.675,34.225],[109.65,34.125],[109.55,34.075],[109.55,33.9],[109.5,33.825],[109.3,33.825],[109.0,33.875],[108.95,33.825],[108.6,33.825],[108.475,33.75],[108.275,33.75],[108.225,33.7],[108.05,33.7],[107.925,33.75],[107.775,33.75],[107.675,33.875],[107.275,33.975],[107.125,34.125],[106.95,34.125],[106.775,34.05],[106.775,33.95],[106.65,33.85],[106.675,33.625],[106.4,33.625],[106.3,33.725],[106.025,33.525],[106.05,33.375],[106.125,33.25],[105.95,33.15],[105.775,32.975],[105.4,33.075],[105.175,33.1],[105.175,33.025],[105.025,33.0],[104.95,32.9],[104.525,33.1],[104.5,33.3],[104.3,33.275],[104.125,33.525],[104.025,33.525],[103.925,33.625],[103.675,33.4],[103.575,33.4],[103.525,33.2],[103.35,33.325],[103.275,33.5],[103.225,33.5],[103.175,33.775]]]}},{"type":"Feature","properties":{"focus":true,"kind":"state","approx":true,"color":"#8f8f8f","minor":true,"name":"Yong","name_zh":"庸","label":[109.0,32.89],"area":4.4},"geometry":{"type":"Polygon","coordinates":[[[108.075,32.95],[108.075,33.025],[107.9,33.225],[107.9,33.6],[107.825,33.75],[107.925,33.75],[108.05,33.7],[108.225,33.7],[108.275,33.75],[108.475,33.75],[108.6,33.825],[108.95,33.825],[109.0,33.875],[109.3,33.825],[109.325,33.825],[109.275,33.525],[109.375,33.425],[109.425,33.2],[109.625,33.2],[109.675,33.0],[109.775,32.925],[110.075,32.85],[110.1,32.8],[110.3,32.75],[110.325,32.75],[110.25,32.6],[110.45,32.6],[110.7,32.425],[110.65,32.25],[110.575,32.25],[110.575,31.775],[110.5,31.725],[110.475,31.6],[110.325,31.5],[109.925,31.475],[109.775,31.525],[109.775,31.625],[109.65,31.7],[109.35,31.725],[109.225,31.825],[109.1,31.85],[109.0,31.7],[108.75,31.7],[108.325,31.925],[108.15,32.125],[107.925,32.125],[107.725,32.05],[107.625,32.2],[107.65,32.6],[107.775,32.55],[107.925,32.425],[107.95,32.8],[108.075,32.95]]]}},{"type":"Feature","properties":{"focus":true,"kind":"state","approx":true,"color":"#a33e3e","name":"Chu","name_zh":"楚","label":[111.33,31.5],"area":15.9},"geometry":{"type":"Polygon","coordinates":[[[109.85,31.375],[109.925,31.475],[110.325,31.5],[110.475,31.6],[110.5,31.725],[110.575,31.775],[110.575,32.25],[110.65,32.25],[110.7,32.425],[110.45,32.6],[110.25,32.6],[110.325,32.75],[110.475,32.75],[110.525,32.8],[110.7,32.775],[110.7,32.825],[110.95,32.825],[110.95,33.125],[111.05,33.15],[111.15,33.3],[111.225,33.6],[111.15,33.675],[111.2,33.8],[111.25,33.8],[111.25,33.775],[111.525,33.775],[111.725,33.675],[111.95,33.75],[112.225,33.75],[112.275,33.85],[112.45,33.875],[112.5,33.825],[112.65,33.875],[112.9,33.825],[113.05,33.65],[113.15,33.45],[113.3,33.425],[113.4,33.3],[113.425,33.3],[113.45,33.125],[113.4,32.975],[113.6,32.8],[113.625,32.525],[113.55,32.475],[113.55,32.325],[113.375,32.375],[113.175,32.325],[113.0,32.325],[112.8,32.15],[112.7,31.85],[112.7,31.65],[112.8,31.525],[112.725,31.35],[112.725,31.175],[112.9,31.025],[113.05,31.1],[113.275,31.05],[113.45,31.25],[113.625,31.275],[113.975,31.575],[113.975,31.825],[114.025,31.925],[113.95,32.0],[113.825,32.0],[113.8,32.1],[113.925,32.225],[114.025,32.225],[114.125,32.35],[114.25,32.2],[114.5,32.125],[114.675,31.9],[114.675,31.75],[114.8,31.675],[114.925,31.675],[115.0,31.6],[115.175,31.6],[115.3,31.45],[115.4,31.425],[115.5,31.275],[115.75,31.225],[115.875,31.05],[116.05,30.975],[115.95,30.9],[115.825,30.7],[115.825,30.55],[115.9,30.475],[115.85,30.25],[115.675,30.15],[115.5,29.875],[115.3,30.075],[115.25,30.0],[115.05,29.9],[114.9,29.65],[114.825,29.6],[114.775,29.4],[114.65,29.4],[114.525,29.325],[114.35,29.325],[114.25,29.275],[114.175,29.425],[113.95,29.575],[113.875,29.575],[113.775,29.75],[113.625,29.9],[113.4,29.8],[113.125,29.475],[112.925,29.525],[112.9,29.775],[112.725,29.75],[112.375,29.75],[112.25,29.575],[111.975,29.55],[111.75,29.425],[111.6,29.425],[111.5,29.525],[111.35,29.55],[111.225,29.725],[111.075,29.725],[111.025,29.825],[110.825,29.95],[110.75,30.15],[110.55,30.15],[110.425,30.1],[110.3,30.175],[110.05,30.2],[109.975,30.3],[109.95,30.475],[110.125,30.625],[110.075,30.75],[110.05,30.75],[110.05,31.05],[109.8,31.075],[109.85,31.375]]]}},{"type":"Feature","properties":{"focus":true,"kind":"state","approx":true,"color":"#8f8f8f","minor":true,"name":"Sui","name_zh":"随","label":[113.25,31.91],"area":1.3},"geometry":{"type":"Polygon","coordinates":[[[114.025,31.925],[113.975,31.825],[113.975,31.575],[113.625,31.275],[113.45,31.25],[113.275,31.05],[113.05,31.1],[112.9,31.025],[112.725,31.175],[112.725,31.35],[112.8,31.525],[112.7,31.65],[112.7,31.85],[112.8,32.15],[113.0,32.325],[113.175,32.325],[113.375,32.375],[113.55,32.325],[113.825,32.4],[113.925,32.225],[113.8,32.1],[113.825,32.0],[113.95,32.0],[114.025,31.925]]]}},{"type":"Feature","properties":{"focus":true,"kind":"state","approx":true,"color":"#8a8a5a","minor":true,"name":"Xu","name_zh":"徐","label":[118.24,34.17],"area":1.4},"geometry":{"type":"Polygon","coordinates":[[[118.7,34.725],[118.825,34.675],[118.925,34.55],[119.05,34.5],[118.95,34.3],[118.8,34.175],[118.6,33.7],[118.475,33.55],[118.25,33.35],[118.175,33.15],[117.925,33.15],[117.9,33.05],[117.8,33.05],[117.75,33.225],[117.65,33.4],[117.65,33.55],[117.575,33.725],[117.7,34.175],[117.775,34.3],[117.775,34.575],[118.075,34.575],[118.475,34.65],[118.6,34.725],[118.7,34.725]]]}},{"type":"Feature","properties":{"focus":true,"kind":"state","approx":true,"color":"#2e7d4f","name":"Wu","name_zh":"吴","label":[119.54,31.56],"area":7.9},"geometry":{"type":"MultiPolygon","coordinates":[[[[120.15,30.475],[119.95,30.575],[119.8,30.6],[119.65,30.425],[119.5,30.425],[119.25,30.35],[119.175,30.275],[118.925,30.225],[118.85,30.125],[118.85,29.95],[118.65,29.9],[118.55,29.725],[118.35,29.75],[118.225,29.7],[118.15,30.025],[117.95,30.025],[117.85,30.225],[117.775,30.275],[117.85,30.475],[117.825,30.825],[117.725,30.875],[117.75,31.1],[117.975,31.1],[118.025,31.45],[117.975,31.45],[117.925,31.65],[117.925,31.975],[118.0,32.25],[118.075,32.375],[118.125,32.625],[118.425,32.95],[118.675,32.925],[118.925,32.7],[118.975,32.6],[119.075,32.575],[119.275,32.375],[119.5,32.425],[119.575,32.3],[120.075,32.3],[120.225,32.275],[120.575,32.3],[120.85,32.375],[121.398,32.375],[121.401,32.372],[121.402,32.337],[121.408,32.202],[121.419,32.19],[121.481,32.129],[121.491,32.121],[121.674,32.051],[121.751,31.993],[121.832,31.9],[121.856,31.816],[121.866,31.704],[121.866,31.703],[121.86,31.703],[121.764,31.7],[121.683,31.712],[121.68,31.712],[121.351,31.858],[121.145,31.842],[120.973,31.869],[120.789,32.032],[120.523,32.105],[120.184,31.966],[120.094,31.973],[120.078,31.929],[120.14,31.916],[120.191,31.906],[120.488,32.016],[120.497,32.02],[120.716,31.984],[120.752,31.923],[120.778,31.848],[120.792,31.818],[121.05,31.721],[121.055,31.719],[121.205,31.628],[121.351,31.485],[121.661,31.32],[121.786,31.163],[121.834,31.062],[121.878,30.917],[121.801,30.884],[121.769,30.87],[121.528,30.841],[121.473,30.815],[121.419,30.79],[121.31,30.7],[121.309,30.699],[120.999,30.558],[120.904,30.404],[120.897,30.393],[120.88,30.384],[120.821,30.354],[120.757,30.36],[120.725,30.4],[120.425,30.4],[120.3,30.475],[120.15,30.475]]],[[[121.227,31.758],[121.211,31.804],[121.211,31.805],[121.339,31.797],[121.464,31.756],[121.478,31.725],[121.492,31.694],[121.494,31.693],[121.542,31.674],[121.576,31.638],[121.728,31.582],[121.808,31.552],[121.844,31.526],[121.863,31.492],[121.862,31.492],[121.78,31.463],[121.519,31.549],[121.336,31.643],[121.331,31.649],[121.227,31.758]]]]}},{"type":"Feature","properties":{"focus":true,"kind":"state","approx":true,"color":"#5e9a2a","name":"Yue","name_zh":"越","label":[120.57,29.37],"area":6.4},"geometry":{"type":"MultiPolygon","coordinates":[[[[122.394,29.846],[122.367,29.852],[122.331,29.934],[122.332,29.934],[122.332,29.935],[122.351,29.955],[122.402,29.95],[122.404,29.892],[122.394,29.846]]],[[[122.111,30.14],[122.284,30.068],[122.322,30.031],[122.296,29.963],[122.283,29.945],[122.281,29.943],[122.157,30.0],[122.024,30.013],[121.977,30.063],[121.969,30.143],[122.111,30.14]]],[[[122.165,29.701],[122.173,29.679],[122.169,29.66],[122.042,29.735],[122.055,29.759],[122.062,29.773],[122.12,29.782],[122.165,29.701]]],[[[119.25,30.35],[119.5,30.425],[119.65,30.425],[119.8,30.6],[119.95,30.575],[120.15,30.475],[120.3,30.475],[120.425,30.4],[120.725,30.4],[120.757,30.36],[120.45,30.387],[120.262,30.275],[120.352,30.248],[120.494,30.303],[120.495,30.303],[120.503,30.293],[120.642,30.134],[120.658,30.136],[120.904,30.161],[121.04,30.236],[121.159,30.302],[121.258,30.304],[121.341,30.282],[121.433,30.227],[121.678,29.979],[121.812,29.952],[121.868,29.928],[122.016,29.888],[122.017,29.888],[122.083,29.87],[122.036,29.846],[121.905,29.779],[121.676,29.583],[121.56,29.523],[121.578,29.495],[121.689,29.511],[121.697,29.516],[121.822,29.605],[121.888,29.628],[121.941,29.606],[121.968,29.491],[121.918,29.135],[121.913,29.135],[121.853,29.128],[121.791,29.223],[121.718,29.254],[121.707,29.253],[121.656,29.236],[121.55,29.237],[121.534,29.235],[121.462,29.154],[121.509,29.121],[121.521,29.118],[121.665,29.011],[121.68,28.953],[121.641,28.916],[121.633,28.917],[121.608,28.897],[121.658,28.854],[121.663,28.851],[121.63,28.768],[121.59,28.735],[121.556,28.724],[121.478,28.637],[121.479,28.633],[121.538,28.521],[121.602,28.367],[121.61,28.292],[121.609,28.292],[121.509,28.322],[121.354,28.229],[121.272,28.222],[121.219,28.337],[121.147,28.327],[121.097,28.287],[121.095,28.284],[121.035,28.157],[120.959,28.037],[120.938,28.027],[120.892,28.003],[120.764,28.004],[120.829,27.94],[120.833,27.938],[120.833,27.891],[120.749,27.808],[120.686,27.745],[120.665,27.642],[120.665,27.639],[120.66,27.636],[120.593,27.582],[120.628,27.485],[120.629,27.482],[120.608,27.412],[120.54,27.318],[120.482,27.268],[120.453,27.234],[120.4,27.3],[120.25,27.325],[120.075,27.45],[120.025,27.75],[119.9,27.75],[119.85,27.825],[119.65,27.75],[119.6,27.65],[119.5,27.65],[119.475,27.75],[119.35,27.875],[119.45,27.925],[119.45,28.225],[119.35,28.25],[119.25,28.4],[119.35,28.4],[119.475,28.5],[119.45,28.675],[119.25,28.875],[119.175,29.3],[119.05,29.4],[119.075,29.55],[118.975,29.575],[118.875,29.7],[118.9,29.875],[118.85,29.95],[118.85,30.125],[118.925,30.225],[119.175,30.275],[119.25,30.35]]],[[[121.247,28.085],[121.164,28.063],[121.134,28.063],[121.131,28.062],[121.134,28.132],[121.134,28.135],[121.192,28.192],[121.205,28.204],[121.234,28.181],[121.251,28.145],[121.251,28.086],[121.247,28.085]]]]}},{"type":"Feature","properties":{"focus":true,"kind":"state","approx":true,"color":"#9a5f2e","name":"Shu","name_zh":"蜀","label":[103.24,30.46],"area":20.3},"geometry":{"type":"Polygon","coordinates":[[[104.025,33.525],[104.125,33.525],[104.3,33.275],[104.5,33.3],[104.525,33.1],[104.95,32.9],[105.025,33.0],[105.175,33.025],[105.175,33.1],[105.4,33.075],[105.775,32.975],[105.95,33.15],[106.125,33.25],[106.05,33.375],[106.025,33.525],[106.3,33.725],[106.4,33.625],[106.675,33.625],[106.65,33.85],[106.775,33.95],[106.775,34.05],[106.95,34.125],[107.125,34.125],[107.275,33.975],[107.675,33.875],[107.775,33.75],[107.825,33.75],[107.9,33.6],[107.9,33.225],[108.075,33.025],[108.075,32.95],[107.95,32.8],[107.925,32.425],[107.775,32.55],[107.65,32.6],[107.2,32.6],[106.5,32.625],[106.45,32.55],[106.225,32.6],[106.075,32.5],[105.85,32.5],[105.725,32.375],[105.7,32.0],[105.75,31.95],[105.675,31.65],[105.675,31.1],[105.625,30.725],[105.425,30.375],[105.425,30.125],[105.375,29.975],[105.425,29.85],[105.525,29.8],[105.35,29.55],[105.35,29.325],[105.25,29.125],[105.25,28.8],[105.05,28.725],[105.025,28.825],[104.625,28.775],[104.525,28.65],[104.55,28.6],[104.55,28.275],[104.375,27.95],[104.375,27.825],[104.225,27.725],[104.325,27.575],[104.35,27.325],[104.5,27.2],[104.475,26.975],[104.2,26.95],[104.125,27.125],[103.95,27.125],[103.95,27.225],[103.8,27.55],[103.525,27.65],[103.375,27.575],[103.2,27.55],[103.125,27.625],[103.15,27.825],[102.975,27.75],[102.9,27.65],[102.775,27.7],[102.575,28.0],[102.5,28.025],[102.325,28.225],[102.0,28.225],[101.7,28.275],[101.675,28.45],[101.575,28.575],[101.375,28.65],[101.425,28.9],[101.375,28.925],[101.325,29.225],[101.525,29.35],[101.525,29.5],[101.75,29.75],[101.7,29.95],[101.7,30.4],[101.725,30.5],[101.65,30.6],[101.675,30.825],[101.6,30.875],[101.575,31.0],[101.725,31.15],[101.75,31.0],[101.925,31.0],[101.975,30.9],[102.225,30.9],[102.25,31.125],[102.35,31.225],[102.35,31.4],[102.625,31.425],[102.625,31.6],[102.85,31.8],[102.775,31.95],[102.675,32.0],[102.675,32.175],[102.75,32.325],[102.975,32.625],[103.05,32.675],[103.325,32.65],[103.525,32.775],[103.65,32.925],[103.55,33.05],[103.525,33.2],[103.575,33.4],[103.675,33.4],[103.925,33.625],[104.025,33.525]]]}},{"type":"Feature","properties":{"focus":true,"kind":"state","approx":true,"color":"#7e5a3a","name":"Ba","name_zh":"巴","label":[107.58,30.48],"area":16.2},"geometry":{"type":"Polygon","coordinates":[[[108.15,32.125],[108.325,31.925],[108.75,31.7],[109.0,31.7],[109.1,31.85],[109.225,31.825],[109.35,31.725],[109.65,31.7],[109.775,31.625],[109.775,31.525],[109.925,31.475],[109.85,31.375],[109.8,31.075],[110.05,31.05],[110.05,30.75],[110.0,30.75],[109.85,30.625],[109.6,30.7],[109.45,30.575],[109.325,30.55],[109.1,30.375],[109.1,30.3],[108.9,30.15],[108.6,30.175],[108.525,30.05],[108.4,29.975],[108.4,29.875],[108.3,29.825],[108.15,29.65],[108.175,29.525],[108.15,29.275],[108.025,29.175],[108.075,28.975],[107.95,28.825],[107.85,28.8],[107.85,28.65],[108.025,28.575],[107.975,28.425],[107.8,28.4],[107.775,28.325],[107.65,28.3],[107.5,28.15],[107.5,28.05],[107.4,27.9],[107.275,27.9],[107.125,28.0],[106.925,28.05],[106.85,27.975],[106.8,27.8],[106.55,27.725],[106.425,27.575],[106.325,27.6],[106.1,27.575],[106.05,27.425],[105.875,27.35],[105.875,27.3],[105.7,27.3],[105.65,27.4],[105.375,27.375],[105.2,27.4],[105.15,27.325],[105.025,27.4],[104.85,27.3],[104.75,27.3],[104.625,27.2],[104.5,27.2],[104.35,27.325],[104.325,27.575],[104.225,27.725],[104.375,27.825],[104.375,27.95],[104.55,28.275],[104.55,28.6],[104.525,28.65],[104.625,28.775],[105.025,28.825],[105.05,28.725],[105.25,28.8],[105.25,29.125],[105.35,29.325],[105.35,29.55],[105.525,29.8],[105.425,29.85],[105.375,29.975],[105.425,30.125],[105.425,30.375],[105.625,30.725],[105.675,31.1],[105.675,31.65],[105.75,31.95],[105.7,32.0],[105.725,32.375],[105.85,32.5],[106.075,32.5],[106.225,32.6],[106.45,32.55],[106.5,32.625],[107.2,32.6],[107.65,32.6],[107.625,32.2],[107.725,32.05],[107.925,32.125],[108.15,32.125]]]}}],"snapped":true}