{"type":"FeatureCollection","features":[{"type":"Feature","properties":{"focus":false,"kind":"state","approx":true,"color":"#4f8f86","name":"Di peoples","name_zh":"狄","label":[111.33,38.77],"area":31.0},"geometry":{"type":"MultiPolygon","coordinates":[[[[116.016,38.236],[116.353,38.993],[117.656,38.423],[117.767,38.311],[118.012,38.184],[118.163,38.158],[117.559,37.532],[117.160,37.496],[116.016,38.236]]],[[[107.718,38.566],[107.816,38.973],[107.984,39.328],[108.218,39.643],[108.576,39.954],[109.783,39.517],[111.934,40.592],[112.099,41.699],[112.445,41.908],[112.910,42.061],[113.378,42.098],[114.054,40.558],[115.441,40.003],[115.444,39.955],[114.764,39.098],[115.117,38.196],[115.451,37.906],[115.368,37.410],[113.491,37.405],[113.429,37.232],[113.675,36.834],[113.757,36.550],[113.714,36.018],[113.632,35.867],[113.430,35.686],[113.338,35.207],[112.679,35.075],[112.084,35.365],[112.106,35.646],[112.303,36.090],[112.260,36.786],[111.979,36.961],[110.572,36.611],[110.519,36.426],[109.596,35.734],[108.587,36.070],[108.254,36.772],[108.286,37.605],[107.718,38.566]]]]}},{"type":"Feature","properties":{"focus":false,"kind":"state","approx":true,"color":"#a07d5a","name":"Shanrong","name_zh":"山戎","label":[116.16,41.5],"area":15.2},"geometry":{"type":"Polygon","coordinates":[[[113.379,42.097],[113.631,42.345],[113.872,42.515],[114.225,42.682],[114.509,42.761],[114.801,42.797],[115.096,42.790],[115.386,42.739],[115.768,42.608],[115.954,42.868],[116.231,43.146],[116.557,43.363],[116.919,43.513],[117.206,43.578],[117.500,43.599],[117.793,43.578],[118.080,43.513],[118.162,43.486],[118.506,41.769],[119.302,40.556],[119.638,40.373],[119.839,39.983],[119.592,39.902],[119.391,39.752],[119.261,39.561],[119.224,39.408],[118.976,39.182],[118.625,39.176],[118.297,39.067],[118.149,39.193],[118.043,39.225],[117.867,39.191],[117.801,39.146],[117.350,40.049],[117.358,40.127],[116.901,40.779],[116.200,41.234],[115.441,40.003],[114.052,40.559],[113.379,42.097]]]}},{"type":"Feature","properties":{"focus":false,"kind":"state","approx":true,"color":"#6f9460","name":"Donghu","name_zh":"东胡","label":[121.93,41.49],"area":21.0},"geometry":{"type":"Polygon","coordinates":[[[118.162,43.486],[118.472,43.715],[118.826,43.883],[119.206,43.978],[119.598,43.997],[120.080,43.913],[120.527,43.715],[120.914,43.414],[121.174,43.099],[121.586,43.039],[121.982,42.894],[122.434,43.147],[122.906,43.278],[123.199,43.299],[123.493,43.278],[123.965,43.147],[124.311,42.962],[124.614,42.714],[124.863,42.410],[125.047,42.065],[125.161,41.689],[125.199,41.299],[125.161,40.909],[125.047,40.534],[124.806,40.108],[124.527,39.805],[124.348,39.906],[124.370,39.982],[124.345,40.002],[124.267,39.924],[124.105,39.841],[123.760,39.822],[123.650,39.876],[123.580,39.786],[123.348,39.762],[123.226,39.686],[123.032,39.672],[122.960,39.619],[122.839,39.600],[122.481,39.434],[122.307,39.504],[122.104,39.371],[121.750,39.341],[121.779,39.396],[121.275,39.384],[121.299,39.454],[121.267,39.544],[121.513,39.649],[121.474,39.754],[121.517,39.844],[121.801,39.952],[122.187,40.355],[122.264,40.501],[122.268,40.544],[122.178,40.602],[122.137,40.689],[121.858,40.842],[121.824,40.964],[121.729,40.846],[121.170,40.898],[120.770,40.589],[120.479,40.230],[119.839,39.983],[119.637,40.372],[119.304,40.553],[118.505,41.770],[118.162,43.486]]]}},{"type":"Feature","properties":{"focus":false,"kind":"state","approx":true,"color":"#b0805f","name":"Rong peoples","name_zh":"戎","label":[103.12,35.29],"area":26.1},"geometry":{"type":"Polygon","coordinates":[[[102.172,34.281],[101.856,34.518],[101.593,34.808],[101.392,35.144],[101.286,35.419],[101.209,35.804],[101.209,36.196],[101.286,36.580],[101.436,36.942],[101.593,37.191],[101.785,37.414],[102.008,37.606],[102.344,37.807],[102.619,37.913],[102.915,37.980],[103.234,38.147],[103.513,38.239],[103.804,38.290],[104.195,38.290],[104.486,38.239],[104.765,38.147],[105.028,38.015],[105.327,37.795],[105.514,36.435],[107.049,36.049],[107.260,35.150],[108.125,35.007],[108.587,36.070],[109.595,35.737],[110.519,36.426],[110.744,36.072],[110.872,35.520],[110.348,34.611],[110.503,34.472],[111.260,33.438],[111.098,32.982],[110.580,32.399],[109.173,33.571],[108.090,33.375],[107.923,33.595],[106.930,33.869],[107.036,35.002],[106.138,35.106],[105.366,35.939],[105.063,35.649],[104.096,33.385],[103.556,33.391],[103.269,33.456],[102.995,33.561],[102.739,33.706],[102.507,33.887],[102.172,34.281]]]}},{"type":"Feature","properties":{"focus":false,"kind":"state","approx":true,"color":"#a3727a","name":"Yiqu","name_zh":"义渠","label":[106.84,37.19],"area":7.8},"geometry":{"type":"Polygon","coordinates":[[[105.327,37.795],[105.518,38.043],[105.808,38.306],[106.057,38.463],[106.419,38.613],[106.706,38.678],[107.097,38.697],[107.390,38.661],[107.718,38.565],[108.288,37.604],[108.255,36.774],[108.587,36.070],[108.129,35.003],[107.249,35.152],[107.043,36.050],[105.508,36.435],[105.327,37.795]]]}},{"type":"Feature","properties":{"focus":false,"kind":"state","approx":true,"color":"#9a8a4a","name":"Linhu and Loufan","name_zh":"林胡 · 楼烦","label":[110.33,41.17],"area":7.7},"geometry":{"type":"Polygon","coordinates":[[[108.576,39.953],[108.509,40.304],[108.509,40.695],[108.560,40.986],[108.691,41.354],[108.837,41.611],[109.085,41.914],[109.308,42.106],[109.644,42.307],[109.919,42.413],[110.303,42.490],[110.598,42.497],[110.985,42.440],[111.265,42.347],[111.610,42.163],[111.843,41.981],[112.099,41.699],[111.942,40.596],[109.782,39.516],[108.576,39.953]]]}},{"type":"Feature","properties":{"focus":false,"kind":"state","approx":true,"color":"#9a8a4a","name":"Man peoples","name_zh":"蛮","label":[111.15,27.63],"area":27.3},"geometry":{"type":"Polygon","coordinates":[[[107.553,28.036],[108.732,29.092],[108.797,29.434],[109.845,30.613],[111.019,29.753],[111.519,29.869],[112.295,29.609],[113.125,30.330],[113.557,30.104],[114.519,29.126],[114.401,28.643],[114.636,27.219],[114.463,27.056],[113.534,25.131],[113.273,25.016],[112.989,24.938],[112.697,24.902],[112.403,24.909],[112.113,24.960],[111.834,25.052],[111.571,25.184],[111.331,25.354],[111.118,25.556],[110.937,25.788],[110.669,26.340],[110.217,25.984],[109.955,25.852],[109.675,25.759],[109.385,25.709],[109.092,25.702],[108.800,25.738],[108.536,25.810],[107.553,28.036]]]}},{"type":"Feature","properties":{"focus":false,"kind":"state","approx":true,"color":"#7272a8","name":"Huai Yi","name_zh":"淮夷","label":[116.65,31.74],"area":11.7},"geometry":{"type":"Polygon","coordinates":[[[115.226,31.468],[115.855,32.426],[115.904,32.919],[116.288,33.221],[117.621,32.974],[117.695,33.272],[118.588,33.721],[118.915,34.589],[120.301,34.207],[120.499,33.716],[120.506,33.636],[120.615,33.490],[120.831,33.080],[120.035,32.389],[119.091,32.240],[118.832,32.722],[117.957,32.522],[118.019,32.002],[117.596,31.108],[118.249,30.058],[117.361,29.021],[116.005,30.781],[115.536,30.898],[115.226,31.468]]]}},{"type":"Feature","properties":{"focus":false,"kind":"state","approx":true,"color":"#7272a8","name":"Baiyue","name_zh":"百越","label":[119.04,27.21],"area":42.6},"geometry":{"type":"MultiPolygon","coordinates":[[[[113.534,25.132],[114.465,27.059],[114.634,27.222],[114.401,28.645],[114.520,29.126],[114.747,29.321],[115.536,30.898],[116.002,30.785],[117.353,29.028],[118.249,30.058],[118.915,30.194],[119.075,30.035],[119.469,27.902],[120.648,29.001],[120.941,29.014],[121.556,28.724],[121.478,28.637],[121.609,28.292],[121.509,28.322],[121.354,28.229],[121.272,28.222],[121.219,28.337],[121.147,28.327],[121.097,28.287],[120.958,28.037],[120.892,28.003],[120.764,28.004],[120.832,27.937],[120.832,27.891],[120.686,27.745],[120.664,27.639],[120.593,27.582],[120.629,27.482],[120.607,27.412],[120.384,27.155],[120.276,27.092],[120.137,26.884],[120.086,26.671],[119.967,26.586],[119.882,26.610],[119.804,26.811],[119.710,26.728],[119.593,26.761],[119.639,26.625],[119.725,26.609],[119.784,26.546],[119.881,26.334],[119.692,26.236],[119.463,26.054],[119.313,26.062],[119.192,26.111],[119.171,26.091],[119.261,25.977],[119.332,25.949],[119.418,25.955],[119.500,26.009],[119.618,26.003],[119.648,25.918],[119.553,25.698],[119.540,25.595],[119.622,25.391],[119.592,25.368],[119.419,25.458],[119.177,25.446],[119.149,25.411],[119.167,25.359],[119.285,25.232],[119.235,25.205],[118.974,25.205],[118.917,25.128],[118.955,25.004],[118.909,24.928],[118.644,24.829],[118.719,24.746],[118.656,24.621],[118.560,24.580],[118.412,24.600],[118.295,24.572],[118.195,24.625],[118.093,24.626],[118.018,24.564],[117.753,24.831],[117.489,25.211],[117.382,24.825],[117.215,24.471],[116.981,24.156],[116.691,23.893],[116.355,23.692],[115.986,23.560],[115.598,23.502],[115.303,23.509],[114.919,23.586],[114.645,23.691],[114.389,23.836],[114.156,24.018],[113.953,24.231],[113.736,24.556],[113.616,24.826],[113.534,25.132]],[[116.896,26.945],[117.315,26.391],[117.452,26.865],[117.700,27.302],[117.503,27.477],[117.232,27.197],[116.896,26.945]]],[[[121.131,28.062],[121.134,28.135],[121.205,28.204],[121.250,28.145],[121.251,28.086],[121.131,28.062]]],[[[119.696,25.590],[119.722,25.638],[119.777,25.653],[119.838,25.591],[119.813,25.510],[119.832,25.479],[119.746,25.410],[119.700,25.432],[119.720,25.548],[119.696,25.590]]],[[[118.287,24.476],[118.340,24.471],[118.407,24.522],[118.451,24.455],[118.432,24.414],[118.295,24.436],[118.287,24.476]]],[[[118.082,24.514],[118.103,24.552],[118.182,24.496],[118.160,24.456],[118.082,24.514]]],[[[105.283,28.012],[107.224,28.110],[107.553,28.036],[108.536,25.810],[108.362,25.488],[108.114,25.185],[107.811,24.937],[107.465,24.752],[107.090,24.638],[106.700,24.600],[106.310,24.638],[105.934,24.752],[105.589,24.936],[105.285,25.185],[105.037,25.488],[104.852,25.834],[104.738,26.209],[104.700,26.599],[104.738,26.989],[104.852,27.365],[105.036,27.710],[105.283,28.012]]]]}},{"type":"Feature","properties":{"focus":true,"kind":"state","approx":true,"color":"#c9a227","name":"Zhou royal domain","name_zh":"周","label":[112.55,34.45],"area":2.0},"geometry":{"type":"Polygon","coordinates":[[[111.751,33.804],[111.854,35.096],[112.084,35.365],[112.680,35.076],[113.338,35.207],[113.523,34.905],[113.082,33.985],[112.947,33.826],[112.831,33.856],[111.751,33.804]]]}},{"type":"Feature","properties":{"focus":true,"kind":"state","approx":true,"color":"#7a5195","name":"Jin","name_zh":"晋","label":[111.5,35.86],"area":2.8},"geometry":{"type":"Polygon","coordinates":[[[110.342,34.612],[110.871,35.520],[110.744,36.071],[110.519,36.426],[110.565,36.609],[111.977,36.963],[112.259,36.797],[112.303,36.089],[112.107,35.647],[112.084,35.365],[111.854,35.096],[111.442,35.167],[110.502,34.472],[110.342,34.612]]]}},{"type":"Feature","properties":{"focus":true,"kind":"state","approx":true,"color":"#8f8f8f","minor":true,"name":"Guo","name_zh":"虢","label":[111.26,34.14],"area":1.4},"geometry":{"type":"Polygon","coordinates":[[[110.502,34.472],[111.444,35.169],[111.854,35.096],[111.750,33.804],[111.260,33.438],[110.502,34.472]]]}},{"type":"Feature","properties":{"focus":true,"kind":"state","approx":true,"color":"#8f8f8f","minor":true,"name":"Xing","name_zh":"邢","label":[114.46,37.01],"area":1.1},"geometry":{"type":"Polygon","coordinates":[[[113.427,37.235],[113.490,37.409],[115.367,37.41],[115.416,37.181],[115.271,36.835],[113.676,36.835],[113.427,37.235]]]}},{"type":"Feature","properties":{"focus":true,"kind":"state","approx":true,"color":"#8a6f9e","minor":true,"name":"Wey","name_zh":"卫","label":[114.65,35.82],"area":3.2},"geometry":{"type":"Polygon","coordinates":[[[113.338,35.207],[113.429,35.687],[113.632,35.867],[113.714,36.020],[113.756,36.548],[113.675,36.834],[115.271,36.834],[115.238,36.483],[115.750,35.767],[114.974,35.168],[114.929,35.074],[114.294,35.199],[113.887,34.836],[113.523,34.905],[113.338,35.207]]]}},{"type":"Feature","properties":{"focus":true,"kind":"state","approx":true,"color":"#2f8f83","name":"Qi","name_zh":"齐","label":[117.83,37.0],"area":6.5},"geometry":{"type":"Polygon","coordinates":[[[115.368,37.410],[115.451,37.906],[116.016,38.236],[117.165,37.496],[117.561,37.535],[118.163,38.158],[118.541,38.095],[118.799,38.126],[118.940,38.042],[119.027,37.903],[119.038,37.780],[119.089,37.700],[118.989,37.633],[118.957,37.325],[119.111,37.201],[119.286,37.138],[119.626,37.142],[119.775,36.547],[119.688,36.169],[119.316,36.055],[118.616,36.223],[118.172,36.057],[117.941,36.110],[117.602,35.797],[116.542,35.992],[116.475,36.034],[116.536,36.313],[116.427,36.854],[115.416,37.181],[115.368,37.410]]]}},{"type":"Feature","properties":{"focus":true,"kind":"state","approx":true,"color":"#8f8f8f","minor":true,"name":"Lai","name_zh":"莱","label":[120.67,36.84],"area":3.2},"geometry":{"type":"MultiPolygon","coordinates":[[[[119.627,37.142],[119.760,37.155],[119.877,37.245],[119.882,37.350],[120.155,37.495],[120.299,37.613],[120.257,37.678],[120.749,37.833],[121.049,37.725],[121.218,37.601],[121.388,37.578],[121.640,37.460],[121.959,37.446],[122.056,37.528],[122.109,37.522],[122.172,37.455],[122.336,37.405],[122.602,37.426],[122.666,37.402],[122.575,37.317],[122.587,37.181],[122.454,37.072],[122.523,37.002],[122.519,36.946],[122.340,36.832],[122.242,36.849],[122.160,36.958],[121.936,36.959],[121.053,36.611],[120.814,36.631],[120.805,36.601],[120.882,36.538],[120.895,36.444],[120.847,36.426],[120.774,36.453],[120.712,36.412],[120.682,36.338],[120.680,36.168],[120.393,36.053],[120.330,36.110],[120.325,36.224],[120.183,36.202],[120.101,36.111],[120.180,36.019],[120.284,35.984],[120.041,35.831],[119.688,36.169],[119.775,36.548],[119.627,37.142]]],[[[121.106,38.920],[121.662,39.102],[121.627,39.220],[121.750,39.341],[122.104,39.371],[122.264,39.303],[121.982,39.053],[121.864,38.996],[121.674,39.000],[121.637,38.955],[121.670,38.891],[121.649,38.865],[121.321,38.808],[121.163,38.731],[121.106,38.920]]]]}},{"type":"Feature","properties":{"focus":true,"kind":"state","approx":true,"color":"#8f8f8f","minor":true,"name":"Ju","name_zh":"莒","label":[118.94,35.21],"area":1.9},"geometry":{"type":"Polygon","coordinates":[[[118.172,36.057],[118.614,36.224],[119.315,36.055],[119.688,36.169],[120.041,35.830],[119.866,35.643],[119.717,35.586],[119.526,35.358],[119.431,35.301],[119.352,35.113],[119.215,35.009],[119.167,34.842],[119.206,34.750],[119.351,34.749],[119.426,34.714],[119.585,34.581],[119.963,34.447],[120.201,34.325],[120.301,34.207],[118.915,34.590],[118.667,34.682],[118.172,36.057]]]}},{"type":"Feature","properties":{"focus":true,"kind":"state","approx":true,"color":"#9a7b4f","minor":true,"name":"Lu","name_zh":"鲁","label":[117.24,35.34],"area":2.8},"geometry":{"type":"Polygon","coordinates":[[[115.931,35.713],[116.475,36.034],[116.546,35.991],[117.595,35.799],[117.939,36.113],[118.172,36.057],[118.667,34.682],[117.854,34.546],[117.314,34.962],[117.086,34.929],[116.441,34.601],[116.219,34.813],[115.931,35.713]]]}},{"type":"Feature","properties":{"focus":true,"kind":"state","approx":true,"color":"#a08f6a","minor":true,"name":"Cao","name_zh":"曹","label":[115.95,35.9],"area":2.2},"geometry":{"type":"Polygon","coordinates":[[[114.929,35.074],[114.970,35.165],[115.742,35.766],[115.236,36.485],[115.271,36.834],[115.416,37.181],[116.429,36.857],[116.536,36.310],[116.475,36.034],[115.935,35.705],[116.219,34.813],[115.019,34.668],[114.929,35.074]]]}},{"type":"Feature","properties":{"focus":true,"kind":"state","approx":true,"color":"#b08a2e","name":"Song","name_zh":"宋","label":[116.47,33.91],"area":4.1},"geometry":{"type":"Polygon","coordinates":[[[114.947,34.429],[115.019,34.668],[116.219,34.813],[116.446,34.605],[117.087,34.930],[117.321,34.963],[117.854,34.546],[117.587,33.788],[117.695,33.272],[117.627,32.968],[116.293,33.220],[115.903,32.918],[115.397,33.287],[115.297,34.030],[114.947,34.429]]]}},{"type":"Feature","properties":{"focus":true,"kind":"state","approx":true,"color":"#5f9a9a","minor":true,"name":"Zheng","name_zh":"郑","label":[113.97,34.31],"area":2.2},"geometry":{"type":"Polygon","coordinates":[[[112.947,33.826],[113.082,33.986],[113.523,34.905],[113.887,34.838],[114.293,35.201],[114.929,35.074],[115.018,34.668],[114.947,34.429],[114.456,34.185],[114.340,33.797],[113.372,33.281],[112.947,33.826]]]}},{"type":"Feature","properties":{"focus":true,"kind":"state","approx":true,"color":"#9c6b6b","minor":true,"name":"Chen","name_zh":"陈","label":[114.84,33.92],"area":0.9},"geometry":{"type":"Polygon","coordinates":[[[114.340,33.797],[114.453,34.185],[114.947,34.429],[115.297,34.033],[115.396,33.287],[114.775,33.224],[114.340,33.797]]]}},{"type":"Feature","properties":{"focus":true,"kind":"state","approx":true,"color":"#7f9c5a","minor":true,"name":"Cai","name_zh":"蔡","label":[115.16,32.54],"area":2.7},"geometry":{"type":"Polygon","coordinates":[[[113.372,33.281],[114.340,33.797],[114.774,33.227],[115.396,33.287],[115.903,32.918],[115.857,32.428],[115.226,31.469],[115.176,31.484],[114.376,32.656],[113.442,32.816],[113.372,33.281]]]}},{"type":"Feature","properties":{"focus":true,"kind":"state","approx":true,"color":"#4f6db8","name":"Yan","name_zh":"燕","label":[116.36,39.55],"area":5.4},"geometry":{"type":"Polygon","coordinates":[[[114.761,39.101],[115.440,39.951],[115.442,40.003],[116.186,41.244],[116.900,40.782],[117.361,40.122],[117.352,40.044],[117.801,39.146],[117.617,38.854],[117.554,38.691],[117.558,38.623],[117.656,38.423],[116.358,38.987],[116.232,38.761],[116.016,38.236],[115.451,37.906],[115.117,38.195],[114.761,39.101]]]}},{"type":"Feature","properties":{"focus":true,"kind":"state","approx":true,"color":"#3d3d4f","name":"Qin","name_zh":"秦","label":[105.77,34.44],"area":4.9},"geometry":{"type":"Polygon","coordinates":[[[104.096,33.385],[105.063,35.651],[105.364,35.948],[106.138,35.108],[107.044,35.006],[106.930,33.869],[106.169,33.669],[105.443,33.044],[105.205,33.023],[104.096,33.385]]]}},{"type":"Feature","properties":{"focus":true,"kind":"state","approx":true,"color":"#8f8f8f","minor":true,"name":"Yong","name_zh":"庸","label":[109.0,32.89],"area":3.9},"geometry":{"type":"Polygon","coordinates":[[[107.840,32.021],[108.090,33.375],[109.170,33.574],[110.580,32.399],[110.519,32.125],[109.871,31.380],[107.840,32.021]]]}},{"type":"Feature","properties":{"focus":true,"kind":"state","approx":true,"color":"#a33e3e","name":"Chu","name_zh":"楚","label":[111.25,31.3],"area":9.9},"geometry":{"type":"MultiPolygon","coordinates":[[[[113.557,30.104],[114.704,31.415],[115.175,31.484],[115.226,31.468],[115.536,30.898],[114.747,29.319],[114.520,29.126],[113.557,30.104]]],[[[109.845,30.613],[109.871,31.379],[110.517,32.123],[110.580,32.399],[111.098,32.982],[112.863,32.293],[112.604,31.227],[112.980,30.866],[113.125,30.330],[112.301,29.607],[111.521,29.868],[111.022,29.750],[109.845,30.613]]]]}},{"type":"Feature","properties":{"focus":true,"kind":"state","approx":true,"color":"#8f8f8f","minor":true,"name":"Shen","name_zh":"申","label":[112.27,33.13],"area":2.5},"geometry":{"type":"Polygon","coordinates":[[[111.098,32.982],[111.260,33.438],[111.750,33.804],[112.834,33.856],[112.947,33.826],[113.372,33.281],[113.442,32.816],[113.309,32.582],[112.863,32.293],[111.098,32.982]]]}},{"type":"Feature","properties":{"focus":true,"kind":"state","approx":true,"color":"#8f8f8f","minor":true,"name":"Sui","name_zh":"随","label":[113.62,31.32],"area":2.5},"geometry":{"type":"Polygon","coordinates":[[[112.602,31.223],[112.863,32.293],[113.309,32.582],[113.962,31.521],[114.704,31.415],[113.557,30.104],[113.125,30.330],[112.979,30.865],[112.602,31.223]]]}},{"type":"Feature","properties":{"focus":true,"kind":"state","approx":true,"color":"#8f8f8f","minor":true,"name":"Huang","name_zh":"黄","label":[114.21,32.05],"area":1.5},"geometry":{"type":"Polygon","coordinates":[[[113.309,32.582],[113.442,32.816],[114.375,32.659],[115.176,31.484],[114.704,31.415],[113.963,31.517],[113.309,32.582]]]}},{"type":"Feature","properties":{"focus":true,"kind":"state","approx":true,"color":"#8a8a5a","minor":true,"name":"Xu","name_zh":"徐","label":[118.24,34.17],"area":1.2},"geometry":{"type":"Polygon","coordinates":[[[117.586,33.786],[117.854,34.546],[118.667,34.682],[118.914,34.589],[118.588,33.719],[117.695,33.272],[117.586,33.786]]]}},{"type":"Feature","properties":{"focus":true,"kind":"state","approx":true,"color":"#2e7d4f","name":"Wu","name_zh":"吴","label":[119.54,31.56],"area":7.6},"geometry":{"type":"MultiPolygon","coordinates":[[[[117.593,31.109],[118.018,32.000],[117.950,32.524],[118.841,32.725],[119.098,32.243],[120.030,32.388],[120.831,33.080],[120.871,33.016],[120.897,32.843],[120.853,32.762],[120.857,32.659],[120.990,32.566],[121.342,32.424],[121.400,32.371],[121.408,32.200],[121.489,32.121],[121.751,31.992],[121.832,31.899],[121.856,31.816],[121.866,31.703],[121.680,31.712],[121.351,31.858],[121.145,31.842],[120.973,31.869],[120.789,32.032],[120.523,32.105],[120.184,31.966],[120.094,31.973],[120.078,31.929],[120.190,31.906],[120.497,32.019],[120.715,31.983],[120.792,31.818],[121.055,31.719],[121.204,31.628],[121.351,31.484],[121.660,31.319],[121.830,31.069],[121.158,30.632],[120.726,30.646],[119.071,30.439],[118.915,30.194],[118.250,30.058],[117.593,31.109]]],[[[121.211,31.805],[121.464,31.756],[121.492,31.694],[121.576,31.638],[121.808,31.552],[121.862,31.492],[121.780,31.463],[121.519,31.549],[121.336,31.643],[121.211,31.805]]]]}},{"type":"Feature","properties":{"focus":true,"kind":"state","approx":true,"color":"#5e9a2a","name":"Yue","name_zh":"越","label":[120.57,29.37],"area":4.7},"geometry":{"type":"MultiPolygon","coordinates":[[[[122.331,29.934],[122.401,29.950],[122.394,29.846],[122.367,29.852],[122.331,29.934]]],[[[121.969,30.143],[122.110,30.139],[122.284,30.067],[122.322,30.031],[122.295,29.963],[122.281,29.943],[122.157,30.000],[122.024,30.013],[121.977,30.063],[121.969,30.143]]],[[[122.042,29.735],[122.062,29.772],[122.119,29.782],[122.169,29.660],[122.042,29.735]]],[[[118.915,30.194],[119.063,30.438],[120.722,30.646],[121.158,30.633],[121.830,31.069],[121.877,30.917],[121.769,30.870],[121.528,30.841],[121.419,30.790],[121.309,30.699],[120.999,30.558],[120.896,30.392],[120.821,30.354],[120.450,30.387],[120.262,30.275],[120.352,30.248],[120.494,30.303],[120.642,30.134],[120.904,30.161],[121.159,30.301],[121.258,30.303],[121.432,30.226],[121.678,29.979],[122.082,29.870],[121.905,29.779],[121.676,29.583],[121.560,29.523],[121.578,29.495],[121.689,29.511],[121.887,29.627],[121.941,29.605],[121.968,29.490],[121.917,29.135],[121.853,29.128],[121.791,29.223],[121.718,29.254],[121.534,29.235],[121.462,29.154],[121.665,29.010],[121.679,28.953],[121.608,28.897],[121.662,28.851],[121.590,28.735],[121.556,28.725],[120.942,29.013],[120.649,29.000],[119.462,27.881],[119.076,30.031],[118.915,30.194]]]]}},{"type":"Feature","properties":{"focus":true,"kind":"state","approx":true,"color":"#9a5f2e","name":"Shu","name_zh":"蜀","label":[103.24,30.46],"area":22.1},"geometry":{"type":"MultiPolygon","coordinates":[[[[105.443,33.044],[106.170,33.670],[106.930,33.869],[107.928,33.594],[108.090,33.375],[107.840,32.021],[107.356,31.722],[105.443,33.044]]],[[[102.389,28.093],[101.971,28.284],[101.585,28.585],[101.336,28.889],[101.117,29.325],[101.021,29.706],[101.009,30.195],[101.086,30.580],[101.284,31.027],[101.518,31.343],[101.808,31.606],[102.145,31.808],[102.528,31.946],[102.863,32.262],[103.037,32.581],[103.285,32.884],[103.508,33.076],[103.757,33.233],[104.101,33.378],[105.205,33.023],[105.438,30.334],[105.376,30.272],[105.154,29.766],[105.160,28.122],[104.870,27.886],[104.525,27.702],[104.149,27.588],[103.760,27.550],[103.370,27.588],[102.994,27.702],[102.649,27.886],[102.389,28.093]]]]}},{"type":"Feature","properties":{"focus":true,"kind":"state","approx":true,"color":"#7e5a3a","name":"Ba","name_zh":"巴","label":[107.58,30.48],"area":15.6},"geometry":{"type":"Polygon","coordinates":[[[105.154,29.768],[105.378,30.275],[105.437,30.341],[105.205,33.023],[105.443,33.044],[107.350,31.727],[107.840,32.021],[109.871,31.379],[109.845,30.613],[108.799,29.437],[108.736,29.095],[107.553,28.036],[107.222,28.110],[105.283,28.012],[105.160,28.122],[105.154,29.768]]]}}]}