{"type":"FeatureCollection","features":[{"type":"Feature","properties":{"name":"Austronesians","name_zh":"","focus":false,"label":[116.73,6.0],"area":4.1,"color":"#5f87a3"},"geometry":{"type":"MultiPolygon","coordinates":[[[[114.799,5.0],[114.853,5.015],[114.849,5.0],[114.799,5.0]]],[[[95.283,5.550],[95.464,5.569],[95.627,5.525],[96.024,5.215],[96.187,5.145],[96.752,5.064],[97.384,5.180],[97.561,5.0],[95.293,5.0],[95.190,5.410],[95.283,5.550]]],[[[115.291,5.453],[115.717,5.467],[115.787,5.740],[115.970,5.881],[116.098,6.097],[116.337,6.358],[116.595,6.899],[116.740,6.689],[116.889,6.645],[117.031,6.836],[117.168,6.614],[117.507,6.392],[117.540,6.240],[117.353,5.877],[117.370,5.788],[117.866,5.904],[117.918,5.802],[117.761,5.580],[118.256,5.663],[118.377,5.638],[118.997,5.277],[119.042,5.169],[118.908,5.0],[115.432,5.0],[115.417,5.111],[115.203,5.275],[115.291,5.453]]]]}},{"type":"Feature","properties":{"name":"Zhou (vassal west)","name_zh":"周方","focus":false,"label":[108.01,33.74],"area":75.5,"color":"#b0805f"},"geometry":{"type":"Polygon","coordinates":[[[113.833,29.119],[113.060,28.821],[110.980,29.237],[109.673,29.178],[106.464,27.157],[105.810,27.217],[104.800,28.049],[104.681,29.832],[105.156,31.020],[106.642,32.565],[106.523,32.922],[105.632,33.100],[105.275,33.457],[106.226,33.991],[106.048,34.289],[105.335,33.991],[104.562,33.873],[104.324,34.407],[105.335,35.061],[109.197,36.071],[111.931,38.389],[113.476,39.994],[115.556,40.350],[116.982,40.350],[117.933,40.231],[119.385,39.843],[119.210,39.639],[119.090,39.339],[118.977,39.224],[118.781,39.166],[118.559,39.172],[118.274,38.999],[118.069,39.254],[117.910,39.260],[117.752,39.202],[117.439,38.602],[117.589,38.284],[118.200,38.043],[118.744,38.063],[118.875,37.949],[118.811,37.446],[118.837,37.204],[118.954,37.077],[119.284,37.045],[119.598,37.116],[119.940,37.352],[120.169,37.576],[120.658,37.736],[120.787,37.704],[121.189,37.425],[121.434,37.336],[121.894,37.375],[122.392,37.300],[122.281,36.982],[122.255,36.733],[121.846,36.860],[121.609,36.834],[120.855,36.584],[120.537,36.386],[120.504,36.055],[120.269,35.985],[120.139,36.194],[119.913,36.143],[119.975,35.933],[119.907,35.768],[119.060,35.041],[119.003,34.939],[119.020,34.691],[114.011,30.664],[113.833,29.119]],[[112.0,32.4],[114.5,32.6],[116.8,33.6],[118.4,34.6],[119.0,36.4],[117.3,37.6],[115.0,38.6],[112.5,37.8],[110.4,36.4],[110.2,33.0],[112.0,32.4]]]}},{"type":"Feature","properties":{"name":"Austro-Asiatic rice cultures","name_zh":"","focus":false,"label":[102.27,16.79],"area":180.3,"color":"#4f8f86"},"geometry":{"type":"Polygon","coordinates":[[[102.193,22.103],[109.054,23.960],[117.732,27.772],[118.876,28.721],[119.885,27.951],[120.673,27.849],[120.505,27.590],[120.351,27.177],[120.084,26.985],[119.971,26.788],[119.857,26.706],[119.600,26.692],[119.428,26.590],[119.554,26.267],[119.436,26.038],[119.470,25.771],[119.428,25.650],[119.335,25.530],[119.095,25.440],[118.812,24.849],[118.531,24.690],[118.345,24.467],[117.924,24.561],[117.796,24.421],[117.849,24.047],[117.405,23.690],[116.962,23.556],[116.709,23.346],[116.452,23.250],[116.403,23.199],[116.400,22.983],[116.340,22.913],[115.860,22.836],[115.706,22.638],[115.308,22.771],[115.185,22.745],[115.043,22.599],[114.847,22.510],[114.558,22.464],[114.537,22.674],[113.989,22.552],[113.845,22.463],[113.716,22.482],[113.462,22.773],[113.376,22.646],[113.419,22.570],[113.377,22.163],[113.283,22.030],[113.096,21.979],[112.871,22.061],[112.815,21.826],[112.749,21.756],[112.039,21.659],[111.831,21.754],[111.733,21.709],[111.536,21.493],[111.434,21.461],[111.085,21.479],[110.749,21.377],[110.566,21.230],[110.238,21.280],[110.202,21.096],[110.077,20.867],[110.293,20.582],[110.414,20.525],[110.433,20.436],[110.271,20.315],[109.928,20.244],[109.711,20.568],[109.602,20.879],[109.608,21.057],[109.786,21.406],[109.779,21.482],[109.516,21.596],[109.414,21.564],[109.321,21.431],[109.117,21.399],[108.813,21.493],[108.554,21.823],[108.466,21.785],[108.387,21.530],[108.265,21.473],[107.900,21.479],[107.417,21.185],[107.465,20.976],[107.374,20.880],[106.807,20.905],[106.746,20.815],[106.771,20.638],[106.380,20.110],[105.964,19.880],[105.843,19.702],[105.532,18.844],[106.364,18.007],[106.433,17.550],[106.622,17.328],[107.114,16.954],[107.692,16.371],[107.809,16.282],[108.095,16.251],[108.236,16.080],[108.363,15.623],[108.498,15.363],[108.786,15.090],[108.917,14.792],[109.307,12.906],[109.068,12.486],[109.073,11.635],[108.897,11.342],[108.695,11.145],[108.164,10.966],[107.938,10.806],[107.672,10.526],[107.412,10.367],[107.265,10.347],[107.035,10.436],[106.773,10.639],[106.704,10.448],[106.748,10.067],[106.656,9.743],[106.482,9.552],[106.335,9.520],[106.229,9.551],[106.118,9.335],[105.926,9.188],[105.503,9.029],[105.208,8.653],[105.025,8.519],[104.907,8.474],[104.742,8.493],[104.822,9.472],[104.890,9.694],[104.987,9.822],[104.978,9.980],[104.764,10.177],[104.427,10.284],[104.160,10.519],[104.003,10.537],[103.830,10.473],[103.606,10.473],[103.524,10.524],[103.670,10.765],[103.652,10.880],[103.524,11.057],[103.400,11.038],[103.192,10.904],[103.039,10.897],[102.962,11.367],[102.658,12.066],[102.529,12.148],[102.323,12.186],[101.918,12.585],[101.586,12.661],[101.329,12.558],[101.023,12.672],[100.871,12.678],[100.956,13.364],[100.908,13.447],[100.473,13.509],[100.239,13.490],[100.040,13.394],[99.930,13.261],[100.023,12.994],[99.833,12.523],[99.895,12.079],[99.186,10.489],[99.071,9.898],[99.118,9.371],[99.298,9.161],[99.724,9.257],[99.837,9.226],[99.898,9.067],[99.865,8.711],[100.009,8.490],[100.131,8.532],[100.301,7.886],[100.344,7.440],[100.539,7.048],[100.614,6.978],[100.975,6.852],[101.217,6.802],[101.427,6.828],[101.559,6.739],[101.679,6.464],[102.089,6.143],[102.325,6.099],[102.802,5.560],[103.212,5.0],[100.393,5.0],[100.139,6.177],[100.221,6.520],[100.154,6.603],[99.969,6.507],[99.833,6.538],[99.662,6.710],[99.610,6.938],[99.639,7.065],[99.571,7.262],[99.468,7.338],[99.293,7.319],[99.024,7.871],[98.544,8.264],[98.292,8.155],[98.195,8.327],[98.177,8.600],[98.250,8.937],[98.632,10.100],[98.431,10.201],[98.397,10.563],[98.605,10.862],[98.738,11.435],[98.867,11.645],[98.590,11.695],[98.588,11.822],[98.676,12.051],[98.596,12.737],[98.485,13.111],[98.198,13.644],[97.822,14.616],[97.573,16.445],[97.351,16.527],[97.214,16.939],[96.881,17.345],[96.770,17.332],[96.734,16.887],[96.662,16.697],[96.469,16.512],[95.713,16.155],[95.552,15.875],[95.329,15.677],[95.222,15.804],[95.220,16.001],[95.124,15.995],[94.972,15.835],[94.828,15.842],[94.753,15.937],[94.819,16.210],[94.415,16.076],[94.304,15.948],[94.144,16.005],[94.143,16.215],[94.392,16.908],[94.464,17.264],[94.420,18.140],[93.965,19.194],[93.839,18.952],[93.457,19.174],[93.814,19.257],[93.723,19.594],[93.334,20.025],[93.065,19.992],[92.894,20.113],[92.921,20.373],[92.620,20.438],[96.744,21.541],[102.193,22.103]]]}},{"type":"Feature","properties":{"name":"Proto-Altaic pastoralists","name_zh":"","focus":false,"label":[115.2,48.16],"area":591.0,"color":"#8a6f9e"},"geometry":{"type":"Polygon","coordinates":[[[120.373,44.190],[108.533,39.793],[96.962,38.961],[93.195,40.411],[81.423,43.024],[83.205,45.360],[97.063,50.493],[100.023,51.760],[99.485,55.658],[104.256,58.0],[114.867,58.0],[116.706,54.659],[119.935,51.257],[127.335,49.977],[134.869,52.009],[141.047,52.689],[141.090,52.586],[140.939,52.261],[141.160,52.209],[141.257,52.103],[141.126,51.871],[140.730,51.441],[140.404,50.827],[140.323,50.517],[140.456,50.103],[140.328,49.357],[140.081,48.502],[139.213,47.810],[139.046,47.615],[138.949,47.322],[138.351,46.873],[137.984,46.269],[137.720,45.996],[136.494,44.966],[136.033,44.398],[135.414,44.036],[134.962,43.515],[134.568,43.212],[134.138,42.992],[132.952,42.669],[132.827,42.861],[132.484,42.880],[132.333,42.963],[132.181,43.194],[131.674,43.026],[131.865,43.290],[131.584,43.212],[131.509,43.140],[130.430,44.190],[120.373,44.190]]]}},{"type":"Feature","properties":{"name":"Paleo-Siberian hunter-gatherers","name_zh":"","focus":false,"label":[126.85,54.02],"area":224.3,"color":"#7d6b5a","nolabel":true},"geometry":{"type":"MultiPolygon","coordinates":[[[[138.866,57.124],[138.345,56.804],[137.229,55.982],[136.521,55.589],[135.269,55.028],[134.985,54.853],[134.893,54.719],[134.902,54.559],[135.094,54.432],[135.312,54.413],[135.725,54.407],[136.196,54.474],[136.491,54.455],[136.343,53.887],[136.350,53.701],[136.487,53.654],[136.770,53.695],[137.040,53.862],[137.382,53.809],[137.121,53.589],[137.071,53.489],[137.239,53.456],[137.979,53.464],[138.234,53.571],[138.409,53.805],[138.416,54.091],[139.378,54.080],[139.805,53.961],[140.102,53.801],[140.321,53.535],[141.121,53.051],[141.089,52.985],[140.828,52.825],[141.047,52.689],[134.869,52.009],[127.335,49.977],[119.935,51.257],[116.706,54.659],[114.867,58.0],[140.347,58.0],[140.028,57.644],[138.866,57.124]]],[[[104.256,58.0],[99.485,55.658],[99.537,55.281],[93.700,56.484],[78.362,56.410],[65.311,55.046],[60.0,56.229],[60.0,56.559],[62.805,56.955],[65.855,58.0],[104.256,58.0]]]]}},{"type":"Feature","properties":{"name":"Finno-Ugric taiga hunter-gatherers","name_zh":"","focus":false,"label":[62.17,57.48],"area":5.1,"color":"#5f87a3","nolabel":true},"geometry":{"type":"Polygon","coordinates":[[[60.0,56.559],[60.0,58.0],[65.855,58.0],[62.805,56.955],[60.0,56.559]]]}},{"type":"Feature","properties":{"name":"Tibetans","name_zh":"","focus":false,"label":[89.97,35.77],"area":325.3,"color":"#9a8a4a"},"geometry":{"type":"Polygon","coordinates":[[[102.731,34.945],[104.480,31.800],[104.076,30.475],[101.520,28.838],[96.474,27.235],[87.595,27.116],[81.069,29.250],[77.504,33.105],[76.522,36.600],[81.423,43.024],[93.195,40.411],[96.962,38.961],[105.305,39.561],[102.731,34.945]]]}},{"type":"Feature","properties":{"name":"Dravidians","name_zh":"","focus":false,"label":[74.45,22.32],"area":245.1,"color":"#7d6b5a"},"geometry":{"type":"Polygon","coordinates":[[[89.869,22.133],[89.796,21.832],[89.670,21.719],[89.578,21.700],[89.456,21.941],[89.233,21.655],[89.072,21.774],[88.994,21.629],[89.025,21.546],[88.723,21.539],[88.656,21.857],[88.567,21.895],[88.377,21.577],[88.299,21.551],[88.053,21.938],[87.867,21.696],[87.640,21.563],[86.937,21.288],[86.796,21.135],[86.926,20.691],[86.637,20.319],[86.632,20.203],[86.119,19.806],[85.379,19.605],[85.113,19.442],[84.262,18.455],[83.987,18.207],[83.684,18.083],[83.381,17.710],[82.353,17.085],[82.234,16.647],[82.081,16.462],[81.788,16.328],[81.596,16.302],[81.369,16.346],[81.253,16.225],[81.087,15.826],[80.963,15.723],[80.735,15.837],[80.459,15.773],[80.300,15.645],[80.089,15.175],[80.169,13.891],[80.075,13.669],[80.319,13.333],[80.313,13.104],[79.769,11.730],[79.710,11.444],[79.826,10.358],[79.789,10.250],[79.306,10.255],[79.222,10.192],[79.072,9.759],[78.926,9.492],[78.937,9.435],[79.159,9.277],[78.313,8.995],[78.181,8.811],[78.135,8.499],[78.064,8.385],[77.899,8.257],[77.419,8.028],[77.341,8.053],[76.703,8.706],[76.537,9.118],[76.385,9.747],[76.075,10.553],[75.651,11.423],[75.210,12.102],[74.733,13.683],[74.401,14.419],[73.841,15.390],[73.572,16.037],[73.064,18.031],[72.853,19.244],[72.759,20.057],[72.864,20.311],[73.109,20.687],[73.112,20.827],[72.931,20.953],[72.765,21.150],[72.665,21.848],[72.695,22.128],[72.319,22.115],[72.232,22.019],[72.127,21.828],[72.131,21.746],[72.288,21.549],[72.256,21.352],[72.120,21.155],[71.894,20.989],[71.024,20.657],[70.855,20.650],[70.467,20.777],[70.209,20.947],[69.126,21.968],[68.894,22.285],[69.492,22.248],[69.968,22.351],[70.176,22.478],[70.410,22.752],[70.380,22.860],[70.045,22.777],[69.664,22.789],[69.107,22.898],[68.790,23.028],[68.372,23.326],[68.072,23.675],[68.046,23.764],[67.692,23.814],[67.486,23.928],[67.315,24.092],[67.204,24.588],[67.153,24.651],[66.654,24.783],[66.700,25.114],[66.620,25.317],[66.432,25.488],[66.300,25.494],[65.768,25.309],[64.424,25.173],[64.238,25.210],[64.120,25.312],[64.064,25.393],[64.773,29.675],[71.635,35.344],[76.478,36.542],[76.522,36.600],[77.504,33.105],[81.069,29.250],[87.595,27.116],[89.683,27.138],[89.869,22.133]],[[69.364,27.534],[71.719,25.427],[76.899,24.390],[79.186,22.227],[82.078,21.102],[84.298,22.165],[85.980,23.652],[79.589,28.188],[75.755,31.513],[71.181,31.800],[68.019,30.591],[69.364,27.534]]]}},{"type":"Feature","properties":{"name":"Vedic Aryans","name_zh":"","focus":false,"label":[76.27,26.48],"area":90.5,"color":"#4f8f86"},"geometry":{"type":"Polygon","coordinates":[[[85.980,23.652],[84.298,22.165],[82.078,21.102],[79.186,22.227],[76.899,24.390],[71.719,25.427],[69.364,27.534],[68.019,30.591],[71.181,31.800],[75.755,31.513],[79.589,28.188],[85.980,23.652]]]}},{"type":"Feature","properties":{"name":"Burmese","name_zh":"","focus":false,"label":[97.09,24.61],"area":85.6,"color":"#6f9460"},"geometry":{"type":"Polygon","coordinates":[[[105.665,23.043],[102.193,22.103],[96.744,21.541],[92.620,20.438],[92.403,20.613],[92.176,20.886],[91.946,21.362],[91.845,21.908],[91.571,22.543],[91.410,22.720],[91.081,22.561],[90.904,22.560],[90.619,22.960],[90.564,22.979],[90.495,22.922],[90.483,22.680],[90.651,22.325],[90.649,22.134],[90.585,22.058],[90.380,22.019],[90.274,21.778],[90.157,21.733],[89.891,22.116],[89.683,27.138],[96.474,27.235],[101.520,28.838],[102.407,29.407],[103.134,26.184],[105.665,23.043]]]}},{"type":"Feature","properties":{"name":"Paleo-Koreans","name_zh":"","focus":false,"label":[127.93,37.19],"area":15.2,"color":"#4f8f86","nolabel":true},"geometry":{"type":"Polygon","coordinates":[[[128.338,40.016],[128.236,39.969],[127.931,39.956],[127.671,39.866],[127.440,39.623],[127.276,39.221],[127.404,39.075],[127.956,38.694],[128.451,38.255],[129.129,37.307],[129.249,37.008],[129.235,36.245],[129.177,35.958],[129.241,35.907],[129.466,35.927],[129.412,35.742],[129.060,35.169],[128.917,35.029],[128.808,35.010],[128.552,35.105],[128.438,35.060],[128.164,34.799],[127.970,34.837],[127.840,34.938],[127.596,34.893],[127.359,34.804],[126.824,34.428],[126.616,34.409],[126.409,34.269],[126.360,34.668],[126.225,35.163],[126.300,35.367],[126.524,35.577],[126.524,35.737],[126.626,35.928],[126.436,36.131],[126.361,36.627],[125.960,36.722],[126.390,36.958],[126.685,36.838],[126.799,36.946],[126.786,37.073],[126.442,37.474],[126.391,37.614],[126.209,37.754],[125.909,37.511],[125.741,37.784],[125.561,37.835],[125.269,37.484],[125.076,37.770],[124.769,37.935],[124.693,38.139],[124.736,38.279],[124.929,38.464],[125.268,38.567],[125.293,38.688],[125.027,38.815],[125.296,39.364],[125.206,39.485],[124.922,39.618],[124.688,39.605],[124.548,39.541],[124.407,39.598],[126.292,40.296],[128.338,40.016]]]}},{"type":"Feature","properties":{"name":"Late Jomon culture","name_zh":"","focus":false,"label":[139.78,37.37],"area":28.1,"color":"#5f87a3"},"geometry":{"type":"MultiPolygon","coordinates":[[[[130.732,31.478],[130.581,31.528],[130.474,31.439],[130.404,31.229],[130.232,31.026],[130.086,31.121],[130.060,31.216],[130.205,31.426],[130.219,31.559],[130.058,31.972],[130.443,32.283],[130.496,32.557],[130.257,32.912],[130.107,32.930],[129.845,32.587],[129.733,32.637],[129.630,32.866],[129.460,32.986],[129.343,33.151],[129.528,33.297],[129.858,33.260],[130.176,33.337],[130.426,33.674],[130.644,33.700],[130.859,33.675],[130.971,33.503],[131.092,33.427],[131.286,33.390],[131.568,33.486],[131.669,33.308],[131.413,33.111],[131.795,32.807],[131.830,32.693],[131.562,32.432],[131.453,32.247],[131.319,31.511],[131.210,31.352],[130.959,31.193],[130.744,30.887],[130.579,30.906],[130.554,30.969],[130.674,31.211],[130.732,31.478]]],[[[132.449,33.519],[132.784,33.907],[132.968,33.793],[133.245,33.800],[133.462,33.883],[133.805,34.176],[134.010,34.189],[134.540,34.012],[134.609,33.898],[134.519,33.650],[133.998,33.148],[133.726,33.376],[133.516,33.394],[133.240,33.299],[133.154,33.216],[132.969,32.765],[132.900,32.669],[132.698,32.548],[132.467,32.757],[132.342,33.106],[132.121,33.347],[132.449,33.519]]],[[[136.898,34.258],[136.766,34.169],[136.393,34.111],[136.199,34.003],[135.755,33.342],[135.062,33.690],[134.969,34.134],[135.236,34.350],[135.317,34.471],[135.286,34.598],[135.205,34.617],[134.935,34.540],[134.427,34.628],[133.825,34.385],[133.589,34.442],[132.481,34.129],[132.386,34.268],[132.183,34.287],[131.997,34.090],[131.994,33.804],[131.654,33.911],[130.899,33.903],[130.779,33.966],[130.892,34.246],[131.334,34.291],[131.672,34.501],[132.662,35.380],[132.980,35.444],[133.006,35.254],[133.804,35.427],[134.755,35.531],[135.156,35.646],[135.188,35.443],[135.357,35.322],[135.727,35.450],[135.928,35.603],[135.977,35.972],[136.668,36.667],[136.640,37.170],[136.810,37.310],[137.309,37.432],[137.334,37.273],[137.013,37.037],[136.983,36.833],[137.045,36.668],[137.176,36.643],[137.464,36.853],[138.492,37.301],[138.698,37.448],[138.856,37.735],[139.197,37.920],[139.353,38.067],[139.439,38.188],[139.503,38.417],[139.745,38.679],[139.741,38.743],[139.896,38.998],[140.030,39.483],[140.011,39.693],[139.862,39.782],[139.804,39.890],[139.985,40.114],[139.915,40.574],[140.159,40.729],[140.386,40.985],[140.472,40.985],[140.656,40.723],[141.152,40.865],[141.076,41.102],[140.936,41.114],[140.774,41.255],[141.087,41.441],[141.285,41.371],[141.436,41.269],[141.467,40.514],[141.675,40.316],[141.998,39.671],[141.998,39.448],[141.887,39.129],[141.568,38.785],[141.467,38.587],[141.496,38.421],[141.024,38.210],[140.872,37.917],[140.982,37.268],[140.963,36.956],[140.655,36.618],[140.546,36.287],[140.555,35.969],[140.834,35.677],[140.394,35.409],[140.316,35.033],[139.830,34.835],[139.788,34.962],[140.002,35.497],[139.913,35.554],[139.682,35.445],[139.422,35.165],[139.208,35.165],[139.052,35.024],[139.022,34.688],[138.863,34.567],[138.779,34.579],[138.749,34.649],[138.751,34.922],[138.683,34.992],[138.450,34.902],[138.295,34.763],[138.149,34.527],[137.759,34.552],[137.248,34.481],[137.041,34.728],[136.733,34.874],[136.616,34.759],[136.507,34.518],[136.898,34.258]]]]}},{"type":"Feature","properties":{"name":"Ainu","name_zh":"","focus":false,"label":[143.26,43.52],"area":18.1,"color":"#7272a8"},"geometry":{"type":"MultiPolygon","coordinates":[[[[139.852,42.035],[139.777,42.112],[139.711,42.477],[139.973,42.651],[140.499,42.896],[140.516,43.057],[140.373,43.185],[140.498,43.320],[140.598,43.326],[140.896,43.134],[141.064,43.096],[141.303,43.187],[141.301,43.720],[141.709,43.914],[141.745,44.628],[141.566,44.969],[141.522,45.182],[141.597,45.279],[141.875,45.435],[143.020,44.463],[143.790,44.027],[144.613,43.842],[144.750,43.881],[145.139,44.178],[145.347,44.243],[145.059,43.785],[145.448,43.169],[144.994,42.937],[144.754,42.866],[144.590,42.859],[144.370,42.949],[144.166,42.942],[144.002,42.877],[143.508,42.420],[143.330,42.196],[143.213,41.926],[143.033,41.958],[141.928,42.501],[141.721,42.539],[141.396,42.519],[140.929,42.255],[140.860,42.390],[140.693,42.550],[140.540,42.537],[140.223,42.363],[140.245,42.228],[140.767,42.005],[141.155,41.749],[140.979,41.652],[140.588,41.677],[140.268,41.324],[140.112,41.273],[140.012,41.381],[139.977,41.503],[140.124,41.792],[140.099,41.945],[139.852,42.035]]],[[[146.076,43.513],[146.152,43.545],[146.226,43.525],[146.130,43.458],[146.076,43.513]]],[[[146.682,43.707],[146.598,43.732],[146.604,43.803],[146.842,43.874],[146.904,43.839],[146.682,43.707]]],[[[146.568,44.438],[146.508,44.358],[146.119,44.251],[145.940,44.128],[145.779,43.928],[145.595,43.858],[145.554,43.650],[145.437,43.716],[145.409,43.835],[145.744,44.051],[146.127,44.507],[146.344,44.421],[146.568,44.438]]],[[[148.582,45.316],[148.235,45.198],[147.877,44.974],[147.762,44.938],[147.620,44.966],[147.585,44.918],[147.622,44.897],[147.548,44.812],[147.291,44.666],[147.209,44.550],[147.021,44.507],[146.948,44.408],[146.840,44.415],[146.846,44.476],[147.153,44.673],[147.111,44.793],[147.479,44.974],[147.504,45.043],[147.656,45.075],[147.763,45.189],[147.894,45.223],[147.856,45.356],[147.932,45.421],[148.000,45.273],[148.069,45.248],[148.321,45.270],[148.700,45.520],[148.856,45.474],[148.825,45.334],[148.582,45.316]]],[[[149.442,45.589],[149.667,45.850],[149.856,45.923],[150.0,46.045],[150.0,45.831],[149.684,45.633],[149.442,45.589]]],[[[142.943,51.617],[143.074,51.267],[143.340,50.885],[143.633,50.234],[144.038,49.508],[144.539,48.753],[143.598,49.233],[143.152,49.258],[142.853,49.127],[142.646,48.657],[142.489,47.901],[142.614,47.459],[142.993,46.953],[143.236,46.863],[143.444,46.571],[143.303,46.011],[143.004,46.577],[142.614,46.712],[142.513,46.699],[142.327,46.563],[141.898,45.914],[141.708,46.139],[141.622,46.558],[141.909,47.073],[141.731,47.471],[141.810,47.675],[142.036,47.959],[141.977,48.284],[141.739,48.807],[141.921,48.943],[142.049,49.354],[142.152,50.890],[142.112,51.219],[142.016,51.430],[141.643,51.813],[141.598,52.216],[141.811,52.628],[141.840,52.960],[141.689,53.165],[141.767,53.272],[142.214,53.299],[142.674,53.540],[142.863,53.340],[143.056,53.061],[143.138,52.856],[143.143,52.511],[143.033,52.312],[142.944,51.961],[142.943,51.617]]]]}},{"type":"Feature","properties":{"name":"Karasuk culture","name_zh":"","focus":false,"label":[75.07,47.93],"area":446.7,"color":"#9a8a4a"},"geometry":{"type":"Polygon","coordinates":[[[78.362,56.410],[93.700,56.484],[99.537,55.281],[100.023,51.760],[97.063,50.493],[83.205,45.360],[81.843,43.575],[75.570,42.117],[63.596,41.314],[60.0,41.949],[60.0,56.229],[65.311,55.046],[78.362,56.410]]]}},{"type":"Feature","properties":{"name":"Iranian pastoralists","name_zh":"","focus":false,"label":[64.1,32.51],"area":184.1,"color":"#7d6b5a"},"geometry":{"type":"Polygon","coordinates":[[[75.570,42.117],[81.843,43.575],[76.478,36.542],[71.635,35.344],[64.773,29.675],[64.064,25.393],[63.650,25.336],[63.403,25.164],[62.449,25.162],[61.813,25.053],[61.343,25.026],[60.858,25.095],[60.479,25.298],[60.0,25.322],[60.0,41.949],[63.596,41.314],[75.570,42.117]]]}},{"type":"Feature","properties":{"name":"Shang","name_zh":"商","focus":true,"label":[114.52,35.5],"area":38.8,"approx":true},"geometry":{"type":"Polygon","coordinates":[[[110.2,33.0],[110.4,36.4],[112.5,37.8],[115.0,38.6],[117.3,37.6],[119.0,36.4],[118.4,34.6],[116.8,33.6],[114.5,32.6],[112.0,32.4],[110.2,33.0]]]}}]}