{"type":"FeatureCollection","features":[{"type":"Feature","properties":{"name":"Satavahanihara","name_zh":"","focus":false,"label":[76.55,17.58],"area":41.3,"color":"#9a8a4a"},"geometry":{"type":"Polygon","coordinates":[[[79.413,16.942],[78.865,12.975],[77.63,12.975],[74.777,13.527],[74.401,14.419],[73.841,15.39],[73.572,16.037],[73.409,16.558],[73.032,18.215],[79.637,21.352],[80.617,21.016],[80.422,20.043],[80.684,19.345],[81.33,19.293],[79.413,16.942]]]}},{"type":"Feature","properties":{"name":"Hainan","name_zh":"","focus":false,"label":[109.45,18.98],"area":2.6,"color":"#5f87a3"},"geometry":{"type":"Polygon","coordinates":[[[109.55,19.913],[109.915,19.8],[110.06,19.94],[110.617,20.017],[110.885,19.706],[110.612,19.471],[110.427,19.229],[110.298,18.898],[110.361,18.765],[110.262,18.625],[109.669,18.414],[109.429,18.096],[108.651,18.482],[108.56,19.06],[108.576,19.187],[108.684,19.295],[109.198,19.684],[109.42,19.659],[109.55,19.913]]]}},{"type":"Feature","properties":{"name":"Simhala","name_zh":"","focus":false,"label":[80.73,7.62],"area":5.0,"color":"#6f9460"},"geometry":{"type":"Polygon","coordinates":[[[79.808,8.647],[79.674,8.804],[79.705,8.93],[79.896,8.92],[80.052,9.113],[80.076,9.279],[80.178,9.445],[80.109,9.686],[80.347,9.47],[80.662,9.299],[81.093,8.626],[81.06,8.41],[81.326,8.258],[81.445,7.928],[81.804,7.313],[81.866,7.084],[81.779,6.753],[81.599,6.448],[81.202,6.079],[80.851,5.951],[80.562,5.931],[80.341,5.969],[80.222,6.058],[80.127,6.216],[79.854,7.061],[79.832,8.103],[79.724,8.416],[79.808,8.647]]]}},{"type":"Feature","properties":{"name":"Hindu kingdoms","name_zh":"","focus":false,"label":[77.81,10.99],"area":17.2,"color":"#9a8a4a"},"geometry":{"type":"Polygon","coordinates":[[[80.313,13.104],[79.769,11.73],[79.71,11.444],[79.826,10.358],[79.789,10.25],[79.306,10.255],[79.222,10.192],[79.072,9.759],[78.926,9.492],[78.937,9.435],[79.159,9.277],[78.313,8.995],[78.181,8.811],[78.135,8.499],[78.064,8.385],[77.484,8.028],[77.341,8.053],[76.703,8.706],[76.537,9.118],[76.385,9.747],[76.075,10.553],[75.651,11.423],[75.21,12.102],[74.777,13.527],[77.63,12.975],[78.939,12.975],[80.319,13.333],[80.313,13.104]]]}},{"type":"Feature","properties":{"name":"Persia","name_zh":"","focus":false,"label":[60.7,31.44],"area":14.1,"color":"#a07d5a"},"geometry":{"type":"Polygon","coordinates":[[[60.964,37.32],[62.796,34.615],[60.0,28.265],[60.0,37.521],[60.964,37.32]]]}},{"type":"Feature","properties":{"name":"Yueban","name_zh":"悦般","focus":false,"label":[72.74,45.79],"area":8.1,"color":"#a07d5a"},"geometry":{"type":"Polygon","coordinates":[[[71.419,44.614],[71.495,46.687],[73.663,47.772],[75.298,47.413],[75.336,46.844],[74.119,46.216],[73.929,45.367],[73.435,44.505],[71.419,44.614]]]}},{"type":"Feature","properties":{"name":"Ainu","name_zh":"","focus":false,"label":[143.26,43.52],"area":18.1,"color":"#7272a8"},"geometry":{"type":"MultiPolygon","coordinates":[[[[140.099,41.945],[139.852,42.035],[139.777,42.112],[139.711,42.477],[139.973,42.651],[140.499,42.896],[140.516,43.057],[140.373,43.185],[140.498,43.32],[140.598,43.326],[140.896,43.134],[141.064,43.096],[141.303,43.187],[141.301,43.72],[141.709,43.914],[141.745,44.628],[141.566,44.969],[141.522,45.182],[141.597,45.279],[141.875,45.435],[143.02,44.463],[143.79,44.027],[144.613,43.842],[144.75,43.881],[145.139,44.178],[145.347,44.243],[145.059,43.785],[145.448,43.169],[144.994,42.937],[144.754,42.866],[144.59,42.859],[144.37,42.949],[144.166,42.942],[144.002,42.877],[143.508,42.42],[143.33,42.196],[143.213,41.926],[143.033,41.958],[141.928,42.501],[141.721,42.539],[141.396,42.519],[140.929,42.255],[140.86,42.39],[140.693,42.55],[140.54,42.537],[140.223,42.363],[140.245,42.228],[140.767,42.005],[141.155,41.749],[140.979,41.652],[140.588,41.677],[140.268,41.324],[140.112,41.273],[140.012,41.381],[139.977,41.503],[140.124,41.792],[140.099,41.945]]],[[[146.124,43.459],[146.08,43.518],[146.226,43.525],[146.205,43.481],[146.124,43.459]]],[[[146.904,43.839],[146.655,43.704],[146.598,43.732],[146.599,43.793],[146.842,43.874],[146.904,43.839]]],[[[146.344,44.421],[146.568,44.438],[146.508,44.358],[146.102,44.243],[145.93,44.119],[145.779,43.928],[145.595,43.858],[145.554,43.65],[145.437,43.716],[145.409,43.835],[145.744,44.051],[146.127,44.507],[146.344,44.421]]],[[[148.582,45.316],[148.265,45.213],[147.868,44.971],[147.762,44.938],[147.62,44.966],[147.585,44.918],[147.622,44.897],[147.548,44.812],[147.291,44.666],[147.209,44.55],[147.021,44.507],[146.948,44.408],[146.84,44.415],[146.846,44.476],[147.153,44.673],[147.111,44.793],[147.479,44.974],[147.504,45.043],[147.656,45.075],[147.763,45.189],[147.894,45.223],[147.856,45.356],[147.932,45.421],[148.0,45.273],[148.069,45.248],[148.321,45.27],[148.7,45.52],[148.856,45.474],[148.825,45.334],[148.582,45.316]]],[[[149.437,45.583],[149.667,45.85],[149.856,45.923],[150.0,46.045],[150.0,45.831],[149.684,45.633],[149.437,45.583]]],[[[142.944,51.961],[142.943,51.617],[143.074,51.267],[143.34,50.885],[143.633,50.234],[144.038,49.508],[144.539,48.753],[143.598,49.233],[143.152,49.258],[142.853,49.127],[142.646,48.657],[142.489,47.901],[142.614,47.459],[142.993,46.953],[143.236,46.863],[143.444,46.571],[143.303,46.011],[143.004,46.577],[142.614,46.712],[142.513,46.699],[142.327,46.563],[141.898,45.914],[141.708,46.139],[141.622,46.558],[141.909,47.073],[141.731,47.471],[141.81,47.675],[142.036,47.959],[141.977,48.284],[141.739,48.807],[141.921,48.943],[142.049,49.354],[142.152,50.89],[142.112,51.219],[142.016,51.43],[141.643,51.813],[141.598,52.216],[141.811,52.628],[141.84,52.96],[141.689,53.165],[141.767,53.272],[142.214,53.299],[142.674,53.54],[142.863,53.34],[143.056,53.061],[143.138,52.856],[143.143,52.511],[143.033,52.312],[142.944,51.961]]]]}},{"type":"Feature","properties":{"name":"Koguryo","name_zh":"高句丽","focus":false,"label":[127.13,40.02],"area":13.4,"color":"#a07d5a"},"geometry":{"type":"Polygon","coordinates":[[[125.653,42.653],[126.667,42.991],[129.641,41.655],[129.59,41.469],[129.631,41.277],[129.477,40.682],[129.177,40.63],[128.446,40.065],[128.236,39.969],[127.931,39.956],[127.671,39.866],[127.44,39.623],[127.276,39.221],[127.404,39.075],[128.144,38.534],[128.539,38.134],[126.786,37.073],[126.442,37.474],[126.391,37.614],[126.209,37.754],[126.168,37.713],[125.653,42.653]]]}},{"type":"Feature","properties":{"name":"Gaya","name_zh":"","focus":false,"label":[128.09,35.19],"area":0.2,"color":"#9a8a4a"},"geometry":{"type":"Polygon","coordinates":[[[128.03,35.332],[128.417,35.041],[128.164,34.799],[127.97,34.837],[127.806,34.932],[128.03,35.332]]]}},{"type":"Feature","properties":{"name":"Silla","name_zh":"新罗","focus":false,"label":[128.56,36.63],"area":3.6,"color":"#5f87a3"},"geometry":{"type":"Polygon","coordinates":[[[128.142,35.248],[127.683,37.616],[128.539,38.134],[129.129,37.307],[129.249,37.008],[129.235,36.245],[129.177,35.958],[129.241,35.907],[129.466,35.927],[129.285,35.507],[128.917,35.029],[128.808,35.01],[128.552,35.105],[128.417,35.041],[128.142,35.248]]]}},{"type":"Feature","properties":{"name":"Paekche","name_zh":"百济","focus":false,"label":[127.26,36.03],"area":4.0,"color":"#7d6b5a"},"geometry":{"type":"Polygon","coordinates":[[[128.03,35.332],[127.806,34.932],[127.359,34.804],[126.824,34.428],[126.616,34.409],[126.409,34.269],[126.36,34.668],[126.225,35.163],[126.3,35.367],[126.524,35.577],[126.524,35.737],[126.626,35.928],[126.436,36.131],[126.361,36.627],[125.96,36.722],[126.39,36.958],[126.685,36.838],[126.799,36.946],[126.786,37.073],[127.683,37.616],[128.142,35.248],[128.03,35.332]]]}},{"type":"Feature","properties":{"name":"Ruanruan","name_zh":"柔然","focus":false,"label":[96.72,49.26],"area":337.8,"color":"#a3727a"},"geometry":{"type":"Polygon","coordinates":[[[74.119,46.216],[75.336,46.844],[75.298,47.413],[81.78,51.113],[113.332,53.466],[116.318,45.448],[107.359,44.034],[89.156,42.271],[76.358,43.624],[73.435,44.505],[73.929,45.367],[74.119,46.216]]]}},{"type":"Feature","properties":{"name":"Paleo-Siberian hunter-gatherers","name_zh":"","focus":false,"label":[126.85,54.02],"area":224.3,"color":"#7d6b5a","nolabel":true},"geometry":{"type":"MultiPolygon","coordinates":[[[[139.293,57.336],[138.345,56.804],[137.229,55.982],[136.521,55.589],[135.269,55.028],[134.985,54.853],[134.893,54.719],[134.902,54.559],[135.094,54.432],[135.312,54.413],[135.725,54.407],[136.196,54.474],[136.491,54.455],[136.343,53.887],[136.35,53.701],[136.487,53.654],[136.77,53.695],[137.04,53.862],[137.382,53.809],[137.121,53.589],[137.071,53.489],[137.239,53.456],[137.979,53.464],[138.234,53.571],[138.409,53.805],[138.416,54.091],[139.378,54.08],[139.805,53.961],[140.102,53.801],[140.321,53.535],[141.121,53.051],[141.089,52.985],[140.828,52.825],[141.047,52.689],[134.869,52.009],[127.335,49.977],[119.935,51.257],[116.706,54.659],[114.867,58.0],[140.347,58.0],[140.028,57.644],[139.293,57.336]]],[[[99.537,55.281],[93.7,56.484],[78.362,56.41],[65.311,55.046],[60.0,56.229],[60.0,56.559],[62.805,56.955],[65.855,58.0],[104.256,58.0],[99.485,55.658],[99.537,55.281]]]]}},{"type":"Feature","properties":{"name":"Finno-Ugric taiga hunter-gatherers","name_zh":"","focus":false,"label":[62.17,57.48],"area":5.1,"color":"#5f87a3","nolabel":true},"geometry":{"type":"Polygon","coordinates":[[[62.805,56.955],[60.0,56.559],[60.0,58.0],[65.855,58.0],[62.805,56.955]]]}},{"type":"Feature","properties":{"name":"Gupta Empire","name_zh":"笈多王朝","focus":false,"label":[80.31,23.25],"area":221.8,"color":"#4f8f86"},"geometry":{"type":"Polygon","coordinates":[[[68.895,24.232],[71.115,24.388],[69.834,26.431],[68.96,29.887],[70.287,31.287],[74.139,32.608],[74.75,33.655],[75.506,33.615],[77.197,33.284],[79.113,31.037],[82.865,27.896],[86.181,26.413],[87.926,26.064],[89.758,25.976],[91.591,26.587],[93.074,26.849],[93.772,26.5],[93.685,25.715],[93.423,25.017],[92.085,23.168],[91.571,22.543],[91.41,22.72],[91.081,22.561],[90.904,22.56],[90.619,22.96],[90.564,22.979],[90.495,22.922],[90.483,22.68],[90.651,22.325],[90.649,22.134],[90.585,22.058],[90.38,22.019],[90.274,21.778],[90.157,21.733],[89.869,22.133],[89.796,21.832],[89.67,21.719],[89.578,21.7],[89.456,21.941],[89.233,21.655],[89.072,21.774],[88.994,21.629],[89.025,21.546],[88.723,21.539],[88.656,21.857],[88.567,21.895],[88.377,21.577],[88.299,21.551],[88.053,21.938],[87.867,21.696],[87.64,21.563],[86.937,21.288],[86.796,21.135],[86.926,20.691],[86.637,20.319],[86.632,20.203],[86.119,19.806],[85.379,19.605],[85.113,19.442],[84.262,18.455],[83.987,18.207],[83.684,18.083],[83.381,17.71],[82.353,17.085],[82.234,16.647],[82.081,16.462],[81.788,16.328],[81.596,16.302],[81.369,16.346],[81.253,16.225],[81.087,15.826],[80.963,15.723],[80.735,15.837],[80.459,15.773],[80.3,15.645],[80.089,15.175],[80.169,13.891],[80.075,13.669],[80.319,13.333],[78.939,12.975],[78.865,12.975],[79.413,16.942],[81.33,19.293],[80.684,19.345],[80.422,20.043],[80.617,21.016],[79.637,21.352],[73.032,18.215],[72.759,20.057],[72.864,20.311],[73.109,20.687],[73.112,20.827],[72.931,20.953],[72.765,21.15],[72.665,21.848],[72.695,22.128],[72.319,22.115],[72.232,22.019],[72.127,21.828],[72.131,21.746],[72.288,21.549],[72.256,21.352],[72.12,21.155],[71.894,20.989],[71.024,20.657],[70.855,20.65],[70.467,20.777],[70.209,20.947],[69.126,21.968],[68.894,22.285],[69.492,22.248],[69.968,22.351],[70.176,22.478],[70.41,22.752],[70.38,22.86],[70.045,22.777],[69.664,22.789],[69.107,22.898],[68.79,23.028],[68.372,23.326],[68.128,23.61],[68.895,24.232]]]}},{"type":"Feature","properties":{"name":"Suren Kingdom","name_zh":"","focus":false,"label":[64.76,29.08],"area":99.9,"color":"#8a6f9e"},"geometry":{"type":"Polygon","coordinates":[[[65.768,25.309],[64.424,25.173],[64.238,25.21],[64.059,25.401],[63.65,25.336],[63.403,25.164],[62.449,25.162],[61.813,25.053],[61.343,25.026],[60.858,25.095],[60.479,25.298],[60.0,25.322],[60.0,28.265],[62.796,34.615],[70.562,34.876],[73.092,34.615],[74.227,34.178],[74.75,33.655],[74.139,32.608],[70.287,31.287],[68.96,29.887],[69.834,26.431],[71.115,24.388],[68.895,24.232],[68.128,23.61],[68.046,23.764],[67.692,23.814],[67.486,23.928],[67.315,24.092],[67.204,24.588],[67.153,24.651],[66.654,24.783],[66.7,25.114],[66.62,25.317],[66.432,25.488],[66.3,25.494],[65.768,25.309]]]}},{"type":"Feature","properties":{"name":"Murong Xianbei","name_zh":"慕容鲜卑","focus":false,"approx":true,"label":[123.73,40.79],"area":19.0,"color":"#a07d5a"},"geometry":{"type":"Polygon","coordinates":[[[117.589,41.456],[118.545,41.425],[120.467,41.681],[121.345,42.554],[122.304,42.728],[123.267,41.859],[125.652,42.652],[125.927,40.021],[125.609,39.482],[125.321,39.148],[125.087,38.938],[125.292,39.356],[125.206,39.483],[124.920,39.617],[124.688,39.604],[124.547,39.541],[124.442,39.572],[124.208,39.738],[124.096,39.879],[123.915,39.806],[123.036,39.671],[122.027,39.254],[121.487,38.877],[121.215,38.756],[121.065,38.750],[121.123,38.864],[121.636,39.315],[121.450,39.381],[121.282,39.349],[121.213,39.483],[121.239,39.552],[121.667,39.904],[121.788,40.077],[122.105,40.360],[122.078,40.490],[121.752,40.736],[121.425,40.863],[121.014,40.850],[120.788,40.682],[120.271,40.151],[120.111,40.081],[119.822,40.041],[119.385,39.842],[119.210,39.639],[119.089,39.339],[118.976,39.224],[118.780,39.166],[118.557,39.170],[118.274,38.999],[118.067,39.252],[117.908,39.259],[117.735,39.176],[117.678,39.239],[117.589,41.456]]]}},{"type":"Feature","properties":{"name":"Han Zhao","name_zh":"汉赵","focus":true,"approx":true,"label":[109.32,37.89],"area":36.4,"color":"#8a4f6e"},"geometry":{"type":"Polygon","coordinates":[[[104.981,34.348],[105.432,35.529],[106.500,35.092],[107.617,36.927],[106.020,38.986],[106.204,39.404],[106.440,39.776],[106.627,40.004],[106.946,40.308],[107.183,40.484],[107.567,40.701],[107.839,40.814],[108.264,40.932],[108.556,40.975],[108.658,40.982],[110.275,39.137],[111.428,38.936],[111.558,38.779],[111.990,36.991],[112.248,36.832],[112.342,35.593],[113.430,35.140],[113.428,34.970],[112.901,33.823],[111.737,33.786],[111.265,33.286],[109.967,33.763],[109.674,33.545],[108.104,33.447],[107.663,34.117],[106.859,34.259],[106.504,33.958],[104.981,34.348]]]}},{"type":"Feature","properties":{"name":"Later Zhao","name_zh":"后赵","focus":true,"approx":true,"label":[116.8,36.91],"area":46.9,"color":"#9a6a3a"},"geometry":{"type":"Polygon","coordinates":[[[111.558,38.780],[113.787,38.106],[114.053,39.186],[114.852,40.048],[114.940,41.542],[117.589,41.456],[117.678,39.246],[117.735,39.176],[117.574,38.913],[117.440,38.602],[117.588,38.286],[118.198,38.043],[118.743,38.062],[118.874,37.949],[118.825,37.309],[118.838,37.202],[118.955,37.077],[119.282,37.045],[119.597,37.116],[119.939,37.352],[120.169,37.575],[120.658,37.735],[120.786,37.703],[121.189,37.424],[121.430,37.337],[121.497,36.797],[120.855,36.583],[120.543,36.390],[120.503,36.055],[120.269,35.985],[120.138,36.189],[119.923,36.142],[119.974,35.933],[119.906,35.768],[119.062,35.043],[119.004,34.940],[119.024,34.691],[119.342,34.560],[118.403,33.457],[118.020,33.179],[116.334,33.572],[115.966,33.330],[115.513,32.569],[115.460,32.269],[113.400,32.727],[113.397,33.177],[112.901,33.823],[113.426,34.967],[113.429,35.132],[112.341,35.588],[112.248,36.826],[111.991,36.984],[111.558,38.780]]]}},{"type":"Feature","properties":{"name":"Dai","name_zh":"代","focus":true,"approx":true,"label":[111.97,40.52],"area":16.3,"color":"#9a8a4a"},"geometry":{"type":"Polygon","coordinates":[[[108.657,40.983],[108.828,41.548],[109.136,42.110],[113.316,41.595],[114.940,41.542],[114.853,40.046],[114.055,39.187],[113.787,38.101],[111.558,38.779],[111.422,38.937],[110.277,39.134],[108.657,40.983]]]}},{"type":"Feature","properties":{"name":"Eastern Jin","name_zh":"东晋","focus":true,"approx":true,"label":[109.81,26.15],"area":210.4},"geometry":{"type":"MultiPolygon","coordinates":[[[[124.693,38.139],[124.736,38.278],[124.929,38.463],[125.267,38.571],[125.284,38.690],[125.027,38.815],[125.087,38.938],[125.321,39.149],[125.609,39.482],[125.927,40.021],[126.167,37.713],[125.909,37.511],[125.741,37.781],[125.564,37.831],[125.269,37.484],[125.074,37.770],[124.769,37.935],[124.693,38.139]]],[[[121.430,37.337],[121.893,37.374],[122.391,37.299],[122.281,36.981],[122.254,36.733],[121.845,36.859],[121.497,36.797],[121.430,37.337]]],[[[99.752,27.469],[101.238,29.641],[101.486,29.118],[101.740,28.757],[102.045,28.436],[102.410,28.156],[104.397,28.056],[104.527,27.973],[109.220,28.214],[109.374,28.549],[109.502,29.036],[109.386,29.863],[107.892,31.038],[107.736,31.459],[108.104,33.447],[109.670,33.545],[109.963,33.766],[111.260,33.289],[111.734,33.787],[112.901,33.823],[113.399,33.174],[113.410,32.726],[115.446,32.273],[115.512,32.567],[115.967,33.332],[116.337,33.575],[118.022,33.182],[118.405,33.459],[119.342,34.560],[119.972,34.134],[120.148,33.893],[120.339,33.337],[120.639,33.043],[120.718,32.847],[120.665,32.536],[120.740,32.459],[121.049,32.327],[121.230,32.061],[121.482,31.947],[121.604,31.826],[121.622,31.618],[121.286,31.449],[121.497,31.280],[121.639,30.926],[121.630,30.792],[121.567,30.710],[121.328,30.689],[121.036,30.594],[120.607,30.346],[120.226,30.249],[119.982,30.123],[120.435,29.997],[120.862,30.186],[121.081,30.212],[121.154,30.187],[121.393,29.921],[121.565,29.846],[121.769,29.833],[121.773,29.764],[121.669,29.624],[121.369,29.414],[121.416,29.343],[121.648,29.318],[121.431,28.834],[121.345,28.545],[121.357,28.385],[121.258,28.182],[121.165,28.124],[121.015,28.266],[120.942,28.212],[120.505,27.590],[120.350,27.177],[120.084,26.984],[119.970,26.788],[119.856,26.706],[119.601,26.691],[119.436,26.593],[119.553,26.267],[119.436,26.037],[119.469,25.771],[119.428,25.650],[119.334,25.530],[119.093,25.436],[118.811,24.849],[118.531,24.689],[118.344,24.467],[117.919,24.555],[117.797,24.417],[117.848,24.046],[117.404,23.690],[116.963,23.556],[116.708,23.346],[116.451,23.249],[116.403,23.194],[116.399,22.983],[116.339,22.913],[115.862,22.835],[115.705,22.638],[115.304,22.770],[115.185,22.744],[115.042,22.599],[114.846,22.510],[114.558,22.464],[114.518,22.669],[113.990,22.552],[113.844,22.463],[113.716,22.482],[113.459,22.759],[113.379,22.646],[113.418,22.569],[113.376,22.163],[113.283,22.030],[113.096,21.979],[112.876,22.052],[112.814,21.826],[112.748,21.756],[112.039,21.659],[111.828,21.751],[111.731,21.707],[111.535,21.493],[111.434,21.461],[111.081,21.477],[110.749,21.376],[110.565,21.230],[110.244,21.274],[110.201,21.096],[110.076,20.915],[110.290,20.585],[110.413,20.524],[110.432,20.436],[110.270,20.315],[109.928,20.244],[109.711,20.568],[109.602,20.879],[109.607,21.056],[109.784,21.402],[109.773,21.483],[109.512,21.594],[109.413,21.562],[109.320,21.431],[109.116,21.399],[108.813,21.493],[108.551,21.818],[108.464,21.779],[108.386,21.530],[108.264,21.473],[107.898,21.477],[107.427,21.191],[107.464,20.976],[107.373,20.880],[106.806,20.901],[106.747,20.813],[106.770,20.638],[106.380,20.110],[105.965,19.880],[105.843,19.702],[105.535,18.852],[106.363,18.006],[106.392,17.664],[105.491,17.780],[104.380,18.327],[103.234,20.122],[102.381,24.012],[102.006,24.680],[100.414,25.085],[99.752,27.469]]],[[[101.984,35.405],[102.874,36.645],[103.901,35.313],[105.049,36.172],[105.101,38.161],[105.481,38.885],[105.352,39.212],[105.187,39.512],[105.639,39.596],[105.924,41.182],[106.337,42.030],[106.948,42.379],[109.136,42.110],[108.828,41.548],[108.657,40.983],[108.264,40.932],[107.838,40.814],[107.435,40.635],[107.062,40.399],[106.728,40.110],[106.440,39.776],[106.204,39.403],[106.025,39.000],[107.622,36.933],[106.494,35.081],[105.451,35.521],[105.425,35.510],[104.991,34.350],[106.504,33.958],[105.904,32.726],[104.395,32.406],[103.776,32.690],[103.542,34.788],[102.933,35.224],[101.984,35.405]]]]}},{"type":"Feature","properties":{"name":"Former Liang","name_zh":"前凉","focus":true,"approx":true,"label":[101.79,38.63],"area":30.3,"color":"#4f8f86"},"geometry":{"type":"Polygon","coordinates":[[[94.645,40.460],[95.081,40.809],[96.391,40.897],[97.523,41.159],[98.222,41.507],[98.745,41.420],[98.501,39.846],[99.445,39.674],[100.569,39.590],[100.840,40.373],[101.363,40.634],[102.671,40.547],[103.369,40.286],[103.804,39.510],[104.591,39.414],[105.187,39.512],[105.411,39.077],[105.482,38.885],[105.101,38.159],[105.053,36.174],[103.902,35.305],[102.871,36.631],[101.984,35.405],[101.101,35.573],[100.229,35.574],[100.828,37.151],[98.831,38.367],[96.332,39.465],[94.732,40.025],[94.645,40.460]]]}},{"type":"Feature","properties":{"name":"Cheng Han","name_zh":"成汉","focus":true,"approx":true,"label":[105.08,31.25],"area":31.5,"color":"#6f9460"},"geometry":{"type":"Polygon","coordinates":[[[101.238,29.641],[102.672,31.734],[103.887,31.657],[103.776,32.690],[104.398,32.407],[105.901,32.726],[106.504,33.958],[106.856,34.260],[107.670,34.116],[108.103,33.447],[107.738,31.454],[107.895,31.036],[109.387,29.864],[109.503,29.037],[109.374,28.549],[109.219,28.211],[104.520,27.973],[104.392,28.056],[102.407,28.156],[102.045,28.436],[101.740,28.757],[101.486,29.117],[101.238,29.641]]]}}]}