{"type":"FeatureCollection","features":[{"type":"Feature","properties":{"name":"Saka Kingdom","name_zh":"塞种诸国","focus":false,"label":[71.72,26.06],"area":108.6,"color":"#7d6b5a"},"geometry":{"type":"Polygon","coordinates":[[[73.032,18.215],[72.759,20.057],[72.864,20.311],[73.109,20.687],[73.112,20.827],[72.931,20.953],[72.765,21.15],[72.665,21.848],[72.695,22.128],[72.319,22.115],[72.232,22.019],[72.127,21.828],[72.131,21.746],[72.288,21.549],[72.256,21.352],[72.12,21.155],[71.894,20.989],[71.024,20.657],[70.855,20.65],[70.467,20.777],[70.209,20.947],[69.126,21.968],[68.894,22.285],[69.492,22.248],[69.968,22.351],[70.176,22.478],[70.41,22.752],[70.38,22.86],[70.045,22.777],[69.664,22.789],[69.107,22.898],[68.79,23.028],[68.372,23.326],[68.072,23.675],[68.046,23.764],[67.692,23.814],[67.486,23.928],[67.315,24.092],[67.204,24.588],[67.153,24.651],[66.654,24.783],[66.7,25.114],[66.62,25.317],[66.432,25.488],[67.387,28.226],[70.287,31.287],[74.139,32.608],[74.75,33.655],[75.506,33.615],[76.046,33.509],[75.71,31.997],[75.361,29.641],[75.448,28.332],[76.059,26.587],[77.542,25.54],[79.462,24.842],[79.462,23.969],[78.677,23.533],[78.939,23.097],[79.637,22.486],[79.637,21.352],[73.032,18.215]]]}},{"type":"Feature","properties":{"name":"Satavahanihara","name_zh":"","focus":false,"label":[78.04,17.4],"area":54.6,"color":"#9a8a4a"},"geometry":{"type":"Polygon","coordinates":[[[80.617,21.016],[80.422,20.043],[80.684,19.345],[82.865,19.17],[84.261,19.258],[84.753,19.028],[84.262,18.455],[83.987,18.207],[83.684,18.083],[83.381,17.71],[82.353,17.085],[82.234,16.647],[82.081,16.462],[81.788,16.328],[81.596,16.302],[81.369,16.346],[81.253,16.225],[81.087,15.826],[80.963,15.723],[80.735,15.837],[80.459,15.773],[80.3,15.645],[80.089,15.175],[80.169,13.891],[80.075,13.669],[80.319,13.333],[78.939,12.975],[77.63,12.975],[74.777,13.527],[74.401,14.419],[73.841,15.39],[73.572,16.037],[73.409,16.558],[73.032,18.215],[79.637,21.352],[80.617,21.016]]]}},{"type":"Feature","properties":{"name":"Gupta Empire","name_zh":"笈多王朝","focus":false,"label":[79.91,27.37],"area":87.3,"color":"#4f8f86"},"geometry":{"type":"Polygon","coordinates":[[[79.637,21.352],[79.637,22.486],[78.939,23.097],[78.677,23.533],[79.462,23.969],[79.462,24.842],[77.542,25.54],[76.059,26.587],[75.448,28.332],[75.361,29.641],[75.71,31.997],[76.046,33.509],[77.197,33.284],[79.113,31.037],[82.865,27.896],[86.181,26.413],[87.926,26.064],[89.758,25.976],[91.591,26.587],[93.074,26.849],[93.772,26.5],[93.685,25.715],[93.423,25.017],[92.085,23.168],[91.571,22.543],[91.41,22.72],[91.081,22.561],[90.904,22.56],[90.619,22.96],[90.564,22.979],[90.495,22.922],[90.483,22.68],[90.651,22.325],[90.649,22.134],[90.585,22.058],[90.38,22.019],[90.274,21.778],[90.157,21.733],[89.869,22.133],[89.796,21.832],[89.67,21.719],[89.578,21.7],[89.456,21.941],[89.233,21.655],[89.072,21.774],[88.994,21.629],[89.025,21.546],[88.88,21.514],[88.723,21.539],[88.656,21.857],[88.567,21.895],[88.377,21.577],[88.299,21.551],[88.053,21.938],[87.867,21.696],[87.64,21.563],[86.937,21.288],[86.818,21.186],[86.094,24.929],[85.483,25.802],[84.61,26.151],[83.825,25.889],[83.04,22.748],[82.254,21.963],[80.945,21.701],[80.684,21.352],[80.617,21.016],[79.637,21.352]]]}},{"type":"Feature","properties":{"name":"Hainan","name_zh":"","focus":false,"label":[109.47,19.04],"area":2.6,"color":"#5f87a3"},"geometry":{"type":"Polygon","coordinates":[[[109.915,19.8],[110.06,19.94],[110.617,20.017],[110.885,19.706],[110.612,19.471],[110.427,19.229],[110.298,18.898],[110.361,18.765],[110.262,18.625],[109.669,18.414],[109.429,18.096],[108.651,18.482],[108.576,19.187],[109.198,19.684],[109.42,19.659],[109.55,19.913],[109.915,19.8]]]}},{"type":"Feature","properties":{"name":"Simhala","name_zh":"","focus":false,"label":[80.73,7.62],"area":5.0,"color":"#6f9460"},"geometry":{"type":"Polygon","coordinates":[[[79.674,8.804],[79.705,8.93],[79.896,8.92],[80.052,9.113],[80.076,9.279],[80.178,9.445],[80.109,9.686],[80.347,9.47],[80.662,9.299],[81.093,8.626],[81.06,8.41],[81.326,8.258],[81.445,7.928],[81.804,7.313],[81.866,7.084],[81.779,6.753],[81.599,6.448],[81.202,6.079],[80.851,5.951],[80.562,5.931],[80.341,5.969],[80.222,6.058],[80.127,6.216],[79.854,7.061],[79.832,8.103],[79.724,8.416],[79.808,8.647],[79.674,8.804]]]}},{"type":"Feature","properties":{"name":"Parthian Empire","name_zh":"","focus":false,"label":[60.7,31.44],"area":14.1,"color":"#4f8f86"},"geometry":{"type":"Polygon","coordinates":[[[62.796,34.615],[60.0,28.265],[60.0,37.521],[60.964,37.32],[62.796,34.615]]]}},{"type":"Feature","properties":{"name":"Suren Kingdom","name_zh":"","focus":false,"label":[64.76,29.78],"area":85.0,"color":"#8a6f9e"},"geometry":{"type":"Polygon","coordinates":[[[65.768,25.309],[64.424,25.173],[64.238,25.21],[64.059,25.401],[63.65,25.336],[63.403,25.164],[62.449,25.162],[61.813,25.053],[61.343,25.026],[60.858,25.095],[60.479,25.298],[60.0,25.322],[60.0,28.265],[62.796,34.615],[70.562,34.876],[73.092,34.615],[74.227,34.178],[74.75,33.655],[74.139,32.608],[70.287,31.287],[67.387,28.226],[66.432,25.488],[66.3,25.494],[65.768,25.309]]]}},{"type":"Feature","properties":{"name":"Kalinga","name_zh":"","focus":false,"label":[84.62,22.36],"area":27.4,"color":"#4f8f86"},"geometry":{"type":"Polygon","coordinates":[[[86.844,20.875],[86.926,20.691],[86.637,20.319],[86.632,20.203],[86.119,19.806],[85.379,19.605],[85.113,19.442],[84.753,19.028],[84.261,19.258],[82.865,19.17],[80.684,19.345],[80.422,20.043],[80.684,21.352],[80.945,21.701],[82.254,21.963],[83.04,22.748],[83.825,25.889],[84.61,26.151],[85.483,25.802],[86.094,24.929],[86.818,21.186],[86.844,20.875]]]}},{"type":"Feature","properties":{"name":"Hindu kingdoms","name_zh":"","focus":false,"label":[77.81,10.99],"area":17.2,"color":"#9a8a4a"},"geometry":{"type":"Polygon","coordinates":[[[80.313,13.104],[79.769,11.73],[79.71,11.444],[79.826,10.358],[79.789,10.25],[79.306,10.255],[79.222,10.192],[79.072,9.759],[78.926,9.492],[78.937,9.435],[79.159,9.277],[78.313,8.995],[78.181,8.811],[78.135,8.499],[78.064,8.385],[77.484,8.028],[77.341,8.053],[76.703,8.706],[76.537,9.118],[76.385,9.747],[76.075,10.553],[75.651,11.423],[75.21,12.102],[74.777,13.527],[77.63,12.975],[78.939,12.975],[80.319,13.333],[80.313,13.104]]]}},{"type":"Feature","properties":{"name":"Yueban","name_zh":"悦般","focus":false,"label":[72.74,45.79],"area":8.1,"color":"#a07d5a"},"geometry":{"type":"Polygon","coordinates":[[[71.419,44.614],[71.495,46.687],[73.663,47.772],[75.298,47.413],[75.336,46.844],[74.119,46.216],[73.929,45.367],[73.435,44.505],[71.419,44.614]]]}},{"type":"Feature","properties":{"name":"Ainu","name_zh":"","focus":false,"label":[143.26,43.52],"area":18.1,"color":"#7272a8"},"geometry":{"type":"MultiPolygon","coordinates":[[[[139.852,42.035],[139.777,42.112],[139.711,42.477],[139.973,42.651],[140.499,42.896],[140.516,43.057],[140.373,43.185],[140.498,43.32],[140.598,43.326],[140.896,43.134],[141.064,43.096],[141.303,43.187],[141.301,43.72],[141.709,43.914],[141.745,44.628],[141.566,44.969],[141.522,45.182],[141.597,45.279],[141.875,45.435],[143.02,44.463],[143.79,44.027],[144.613,43.842],[144.75,43.881],[145.139,44.178],[145.347,44.243],[145.059,43.785],[145.448,43.169],[144.994,42.937],[144.754,42.866],[144.59,42.859],[144.37,42.949],[144.166,42.942],[144.002,42.877],[143.508,42.42],[143.33,42.196],[143.213,41.926],[143.033,41.958],[141.928,42.501],[141.721,42.539],[141.396,42.519],[140.929,42.255],[140.86,42.39],[140.693,42.55],[140.54,42.537],[140.223,42.363],[140.245,42.228],[140.767,42.005],[141.155,41.749],[140.979,41.652],[140.588,41.677],[140.268,41.324],[140.112,41.273],[140.012,41.381],[139.977,41.503],[140.124,41.792],[140.099,41.945],[139.852,42.035]]],[[[146.076,43.513],[146.152,43.545],[146.226,43.525],[146.13,43.458],[146.076,43.513]]],[[[146.682,43.707],[146.598,43.732],[146.604,43.803],[146.842,43.874],[146.904,43.839],[146.682,43.707]]],[[[146.568,44.438],[146.508,44.358],[146.119,44.251],[145.94,44.128],[145.779,43.928],[145.595,43.858],[145.554,43.65],[145.437,43.716],[145.409,43.835],[145.744,44.051],[146.127,44.507],[146.344,44.421],[146.568,44.438]]],[[[148.582,45.316],[148.235,45.198],[147.877,44.974],[147.762,44.938],[147.62,44.966],[147.585,44.918],[147.622,44.897],[147.548,44.812],[147.291,44.666],[147.209,44.55],[147.021,44.507],[146.948,44.408],[146.84,44.415],[146.846,44.476],[147.153,44.673],[147.111,44.793],[147.479,44.974],[147.504,45.043],[147.656,45.075],[147.763,45.189],[147.894,45.223],[147.856,45.356],[147.932,45.421],[148.0,45.273],[148.069,45.248],[148.321,45.27],[148.7,45.52],[148.856,45.474],[148.825,45.334],[148.582,45.316]]],[[[149.442,45.589],[149.667,45.85],[149.856,45.923],[150.0,46.045],[150.0,45.831],[149.684,45.633],[149.442,45.589]]],[[[142.943,51.617],[143.074,51.267],[143.34,50.885],[143.633,50.234],[144.038,49.508],[144.539,48.753],[143.598,49.233],[143.152,49.258],[142.853,49.127],[142.646,48.657],[142.489,47.901],[142.614,47.459],[142.993,46.953],[143.236,46.863],[143.444,46.571],[143.303,46.011],[143.004,46.577],[142.614,46.712],[142.513,46.699],[142.327,46.563],[141.898,45.914],[141.708,46.139],[141.622,46.558],[141.909,47.073],[141.731,47.471],[141.81,47.675],[142.036,47.959],[141.977,48.284],[141.739,48.807],[141.921,48.943],[142.049,49.354],[142.152,50.89],[142.112,51.219],[142.016,51.43],[141.643,51.813],[141.598,52.216],[141.811,52.628],[141.84,52.96],[141.689,53.165],[141.767,53.272],[142.214,53.299],[142.674,53.54],[142.863,53.34],[143.056,53.061],[143.138,52.856],[143.143,52.511],[143.033,52.312],[142.944,51.961],[142.943,51.617]]]]}},{"type":"Feature","properties":{"name":"Paleo-Siberian hunter-gatherers","name_zh":"","focus":false,"label":[126.85,54.02],"area":224.3,"color":"#7d6b5a","nolabel":true},"geometry":{"type":"MultiPolygon","coordinates":[[[[138.866,57.124],[138.345,56.804],[137.229,55.982],[136.521,55.589],[135.269,55.028],[134.985,54.853],[134.893,54.719],[134.902,54.559],[135.094,54.432],[135.312,54.413],[135.725,54.407],[136.196,54.474],[136.491,54.455],[136.343,53.887],[136.35,53.701],[136.487,53.654],[136.77,53.695],[137.04,53.862],[137.382,53.809],[137.121,53.589],[137.071,53.489],[137.239,53.456],[137.979,53.464],[138.234,53.571],[138.409,53.805],[138.416,54.091],[139.378,54.08],[139.805,53.961],[140.102,53.801],[140.321,53.535],[141.121,53.051],[141.089,52.985],[140.828,52.825],[141.047,52.689],[134.869,52.009],[127.335,49.977],[119.935,51.257],[116.706,54.659],[114.867,58.0],[140.347,58.0],[140.028,57.644],[138.866,57.124]]],[[[93.7,56.484],[78.362,56.41],[65.311,55.046],[60.0,56.229],[60.0,56.559],[62.805,56.955],[65.855,58.0],[104.256,58.0],[99.485,55.658],[99.537,55.281],[93.7,56.484]]]]}},{"type":"Feature","properties":{"name":"Finno-Ugric taiga hunter-gatherers","name_zh":"","focus":false,"label":[62.17,57.48],"area":5.1,"color":"#5f87a3","nolabel":true},"geometry":{"type":"Polygon","coordinates":[[[60.0,56.559],[60.0,58.0],[65.855,58.0],[62.805,56.955],[60.0,56.559]]]}},{"type":"Feature","properties":{"name":"Gaya","name_zh":"","focus":false,"label":[128.08,35.19],"area":0.2,"color":"#9a8a4a"},"geometry":{"type":"Polygon","coordinates":[[[128.03,35.332],[128.401,35.053],[128.372,35.004],[128.487,35.047],[128.445,34.838],[128.335,34.871],[128.329,34.949],[128.216,34.93],[128.203,34.888],[128.066,34.924],[128.02,34.986],[127.816,34.949],[128.03,35.332]]]}},{"type":"Feature","properties":{"name":"Koguryo","name_zh":"高句丽","focus":false,"label":[127.13,40.02],"area":13.6,"color":"#a07d5a"},"geometry":{"type":"Polygon","coordinates":[[[126.393,37.608],[126.209,37.754],[126.168,37.713],[125.653,42.653],[126.667,42.991],[129.641,41.655],[129.59,41.469],[129.631,41.277],[129.477,40.682],[129.177,40.63],[128.446,40.065],[128.236,39.969],[127.931,39.956],[127.671,39.866],[127.44,39.623],[127.546,39.335],[127.276,39.221],[127.469,39.131],[127.734,39.115],[128.363,38.625],[128.611,38.172],[126.755,37.057],[126.776,37.123],[126.869,37.176],[126.694,37.121],[126.658,37.248],[126.766,37.231],[126.861,37.262],[126.847,37.304],[126.722,37.328],[126.741,37.386],[126.66,37.407],[126.621,37.481],[126.674,37.488],[126.658,37.554],[126.541,37.674],[126.393,37.608]]]}},{"type":"Feature","properties":{"name":"Paekche","name_zh":"百济","focus":false,"label":[127.32,35.93],"area":3.9,"color":"#7d6b5a"},"geometry":{"type":"Polygon","coordinates":[[[128.03,35.332],[127.816,34.949],[127.569,34.917],[127.638,34.814],[127.773,34.843],[127.747,34.727],[127.64,34.616],[127.556,34.651],[127.567,34.766],[127.493,34.851],[127.363,34.751],[127.514,34.591],[127.389,34.471],[127.315,34.443],[127.124,34.537],[127.201,34.633],[127.192,34.569],[127.242,34.569],[127.328,34.652],[127.328,34.743],[127.009,34.602],[126.889,34.412],[126.8,34.463],[126.783,34.587],[126.6,34.3],[126.478,34.345],[126.463,34.484],[126.288,34.59],[126.289,34.742],[126.451,34.578],[126.451,34.648],[126.618,34.619],[126.476,34.724],[126.659,34.812],[126.539,34.873],[126.51,34.775],[126.375,34.785],[126.433,34.963],[126.318,34.932],[126.249,35.116],[126.344,35.151],[126.359,35.069],[126.431,35.023],[126.458,35.09],[126.36,35.18],[126.421,35.406],[126.523,35.524],[126.687,35.533],[126.664,35.591],[126.498,35.578],[126.474,35.635],[126.751,35.778],[126.801,35.861],[126.788,35.894],[126.615,35.89],[126.631,35.967],[126.761,35.995],[126.872,36.054],[126.685,35.999],[126.544,36.136],[126.464,36.574],[126.527,36.592],[126.497,36.723],[126.347,36.739],[126.293,36.581],[126.272,36.717],[126.186,36.67],[126.123,36.709],[126.184,36.878],[126.304,36.962],[126.294,36.787],[126.415,36.896],[126.334,36.985],[126.429,37.004],[126.478,36.839],[126.517,37.052],[126.619,36.972],[126.781,36.963],[126.846,36.752],[127.0,36.929],[126.908,36.919],[126.755,37.057],[127.666,37.606],[128.148,35.243],[128.03,35.332]]]}},{"type":"Feature","properties":{"name":"Silla","name_zh":"新罗","focus":false,"label":[128.66,36.51],"area":4.1,"color":"#5f87a3"},"geometry":{"type":"Polygon","coordinates":[[[127.683,37.616],[128.611,38.172],[129.049,37.685],[129.342,37.257],[129.433,37.058],[129.416,36.942],[129.474,36.774],[129.416,36.616],[129.438,36.4],[129.381,36.314],[129.388,36.025],[129.463,35.994],[129.557,36.078],[129.588,36.007],[129.439,35.475],[129.136,35.112],[128.978,35.084],[128.973,35.134],[128.919,35.089],[128.734,35.092],[128.611,35.173],[128.401,35.053],[128.148,35.243],[127.683,37.616]]]}},{"type":"Feature","properties":{"name":"Xianbei","name_zh":"鲜卑","focus":false,"label":[106.25,46.0],"area":268.1,"approx":true,"color":"#a3727a"},"geometry":{"type":"Polygon","coordinates":[[[92.0,49.0],[100.0,51.5],[110.0,51.0],[118.0,50.0],[123.0,47.0],[124.5,44.0],[121.0,42.6],[113.039,41.629],[112.053,41.751],[112.059,41.507],[112.0,41.5],[107.0,41.3],[106.02,41.373],[106.357,42.043],[106.017,41.373],[103.0,41.6],[97.0,42.6],[92.0,43.8],[88.0,45.0],[92.0,49.0]]]}},{"type":"Feature","properties":{"name":"Han Zhao","name_zh":"汉赵","focus":true,"approx":true,"label":[109.75,37.06],"area":34.8,"color":"#8a4f6e"},"geometry":{"type":"Polygon","coordinates":[[[106.020,38.986],[106.204,39.403],[106.440,39.776],[106.728,40.111],[107.062,40.399],[107.435,40.635],[107.839,40.814],[108.264,40.932],[108.657,40.983],[110.275,39.137],[111.428,38.936],[111.558,38.779],[111.990,36.991],[112.241,36.836],[113.430,37.228],[113.797,38.110],[115.710,37.446],[115.850,37.136],[115.633,36.776],[115.719,35.280],[115.088,35.007],[114.971,34.328],[114.392,34.007],[113.433,34.956],[112.901,33.823],[111.737,33.786],[111.265,33.286],[109.963,33.765],[109.888,34.515],[109.999,34.940],[110.0,36.114],[109.881,36.391],[109.705,36.534],[108.469,36.472],[107.622,36.933],[106.020,38.986]]]}},{"type":"Feature","properties":{"name":"Jin","name_zh":"西晋","focus":true,"approx":true,"label":[114.55,30.2],"area":309.4},"geometry":{"type":"Polygon","coordinates":[[[94.645,40.460],[95.081,40.809],[96.391,40.897],[97.523,41.159],[98.222,41.507],[98.745,41.420],[98.501,39.846],[99.445,39.674],[100.568,39.589],[100.840,40.373],[101.362,40.634],[102.671,40.548],[103.369,40.285],[103.809,39.502],[104.592,39.414],[105.638,39.594],[105.924,41.182],[106.356,42.042],[106.042,41.372],[107.001,41.300],[108.762,41.372],[108.657,40.983],[108.121,40.900],[107.701,40.761],[107.307,40.562],[106.835,40.213],[106.531,39.893],[106.355,39.656],[106.138,39.273],[106.023,38.985],[107.624,36.932],[108.469,36.472],[109.711,36.534],[109.882,36.390],[110.0,36.118],[109.999,34.940],[109.888,34.514],[109.963,33.772],[111.258,33.289],[111.734,33.787],[112.900,33.826],[113.428,34.971],[114.398,34.012],[114.970,34.330],[115.084,35.007],[115.721,35.285],[115.633,36.780],[115.848,37.138],[115.709,37.445],[113.799,38.107],[113.432,37.227],[112.248,36.832],[111.991,36.984],[111.558,38.780],[113.792,38.108],[114.053,39.186],[114.852,40.048],[114.940,41.542],[118.545,41.425],[120.465,41.681],[121.345,42.554],[122.304,42.728],[123.271,41.859],[125.652,42.652],[126.167,37.713],[125.909,37.511],[125.741,37.781],[125.564,37.831],[125.269,37.484],[125.074,37.770],[124.769,37.935],[124.693,38.139],[124.736,38.278],[124.929,38.463],[125.269,38.576],[125.283,38.691],[125.027,38.815],[125.291,39.368],[125.204,39.485],[124.922,39.617],[124.688,39.604],[124.547,39.541],[124.442,39.573],[124.208,39.738],[124.100,39.879],[123.915,39.806],[123.036,39.671],[122.027,39.254],[121.487,38.877],[121.215,38.756],[121.065,38.750],[121.123,38.864],[121.636,39.315],[121.450,39.381],[121.282,39.349],[121.213,39.483],[121.239,39.552],[121.667,39.904],[121.788,40.077],[122.104,40.356],[122.078,40.490],[121.755,40.734],[121.425,40.863],[121.008,40.848],[120.788,40.682],[120.271,40.151],[120.111,40.081],[119.822,40.041],[119.385,39.842],[119.210,39.639],[119.089,39.339],[118.976,39.224],[118.780,39.166],[118.557,39.170],[118.274,38.999],[118.065,39.253],[117.910,39.259],[117.751,39.199],[117.441,38.605],[117.586,38.288],[117.841,38.162],[118.198,38.043],[118.743,38.062],[118.874,37.949],[118.811,37.443],[118.837,37.204],[118.955,37.077],[119.282,37.045],[119.597,37.116],[119.939,37.352],[120.169,37.575],[120.658,37.735],[120.786,37.703],[121.189,37.424],[121.431,37.336],[121.893,37.374],[122.391,37.299],[122.281,36.981],[122.254,36.733],[121.847,36.859],[121.609,36.833],[120.855,36.583],[120.543,36.390],[120.503,36.055],[120.269,35.985],[120.138,36.189],[119.926,36.144],[119.974,35.933],[119.906,35.768],[119.062,35.043],[119.003,34.936],[119.025,34.690],[119.298,34.589],[119.972,34.135],[120.148,33.894],[120.339,33.337],[120.639,33.043],[120.718,32.847],[120.665,32.536],[120.740,32.459],[121.049,32.327],[121.230,32.061],[121.482,31.947],[121.605,31.826],[121.644,31.688],[121.622,31.618],[121.286,31.449],[121.497,31.280],[121.639,30.926],[121.630,30.792],[121.567,30.710],[121.328,30.689],[121.036,30.594],[120.607,30.346],[120.226,30.249],[119.982,30.123],[120.435,29.997],[120.862,30.186],[121.081,30.212],[121.154,30.187],[121.393,29.921],[121.565,29.846],[121.769,29.833],[121.773,29.764],[121.669,29.624],[121.369,29.414],[121.416,29.343],[121.648,29.318],[121.431,28.834],[121.345,28.545],[121.357,28.385],[121.259,28.182],[121.165,28.124],[120.997,28.260],[120.505,27.590],[120.350,27.177],[120.085,26.986],[119.970,26.788],[119.856,26.706],[119.601,26.691],[119.436,26.593],[119.553,26.267],[119.436,26.037],[119.469,25.771],[119.428,25.650],[119.334,25.530],[119.093,25.436],[118.811,24.849],[118.531,24.689],[118.344,24.467],[117.919,24.555],[117.797,24.417],[117.848,24.047],[117.404,23.690],[116.963,23.556],[116.708,23.346],[116.451,23.249],[116.403,23.194],[116.399,22.983],[116.339,22.913],[115.862,22.835],[115.705,22.638],[115.311,22.769],[115.190,22.746],[115.042,22.599],[114.847,22.510],[114.558,22.464],[114.518,22.669],[113.990,22.552],[113.844,22.463],[113.716,22.482],[113.456,22.758],[113.379,22.646],[113.418,22.569],[113.376,22.162],[113.282,22.030],[113.096,21.979],[112.874,22.051],[112.814,21.826],[112.748,21.756],[112.039,21.659],[111.828,21.751],[111.731,21.707],[111.535,21.493],[111.434,21.461],[111.081,21.477],[110.749,21.376],[110.565,21.230],[110.242,21.273],[110.201,21.096],[110.076,20.915],[110.290,20.585],[110.413,20.524],[110.432,20.436],[110.270,20.314],[109.928,20.244],[109.711,20.568],[109.602,20.879],[109.607,21.056],[109.784,21.402],[109.773,21.483],[109.512,21.594],[109.413,21.562],[109.320,21.431],[109.116,21.399],[108.813,21.493],[108.551,21.818],[108.464,21.779],[108.386,21.530],[108.264,21.473],[107.898,21.477],[107.427,21.191],[107.464,20.976],[107.373,20.880],[106.806,20.901],[106.747,20.813],[106.770,20.638],[106.380,20.110],[105.965,19.880],[105.843,19.702],[105.535,18.852],[106.363,18.006],[106.392,17.664],[105.491,17.780],[104.380,18.327],[103.234,20.122],[102.381,24.012],[102.006,24.680],[100.414,25.085],[99.752,27.469],[101.238,29.641],[101.486,29.118],[101.740,28.757],[102.045,28.436],[102.404,28.158],[104.397,28.056],[104.527,27.973],[109.215,28.212],[109.374,28.549],[109.502,29.036],[109.386,29.865],[107.892,31.038],[107.732,31.462],[105.910,32.722],[104.395,32.406],[103.778,32.689],[103.539,34.793],[102.929,35.225],[101.101,35.573],[100.229,35.574],[100.828,37.151],[98.831,38.367],[96.332,39.465],[94.732,40.025],[94.645,40.460]]]}},{"type":"Feature","properties":{"name":"Dai","name_zh":"代","focus":true,"approx":true,"label":[112.15,39.62],"area":14.8,"color":"#9a8a4a"},"geometry":{"type":"Polygon","coordinates":[[[108.657,40.983],[108.762,41.372],[112.041,41.506],[112.053,41.750],[113.317,41.594],[114.940,41.542],[114.853,40.046],[114.055,39.187],[113.787,38.101],[111.558,38.779],[111.422,38.937],[110.277,39.134],[108.657,40.983]]]}},{"type":"Feature","properties":{"name":"Cheng Han","name_zh":"成汉","focus":true,"approx":true,"label":[105.22,30.46],"area":27.7,"color":"#6f9460"},"geometry":{"type":"Polygon","coordinates":[[[101.238,29.641],[102.672,31.734],[103.887,31.657],[103.778,32.689],[104.398,32.407],[105.904,32.725],[107.736,31.459],[107.895,31.036],[109.369,29.885],[109.503,29.037],[109.374,28.549],[109.219,28.211],[104.520,27.973],[104.392,28.056],[102.407,28.156],[102.045,28.436],[101.740,28.757],[101.486,29.117],[101.238,29.641]]]}}]}