{"type":"FeatureCollection","features":[{"type":"Feature","properties":{"name":"Imperial Japan (Fujiwara)","name_zh":"日本","focus":false,"label":[139.78,37.37],"area":28.1,"color":"#7d6b5a"},"geometry":{"type":"MultiPolygon","coordinates":[[[[130.674,31.211],[130.732,31.478],[130.581,31.528],[130.474,31.439],[130.404,31.229],[130.232,31.026],[130.086,31.121],[130.060,31.216],[130.205,31.426],[130.219,31.559],[130.058,31.972],[130.481,32.347],[130.496,32.557],[130.257,32.912],[130.107,32.930],[129.845,32.587],[129.733,32.637],[129.630,32.866],[129.460,32.986],[129.343,33.151],[129.528,33.297],[129.858,33.260],[130.176,33.337],[130.426,33.674],[130.644,33.700],[130.859,33.675],[130.971,33.503],[131.092,33.427],[131.286,33.390],[131.568,33.486],[131.669,33.308],[131.413,33.111],[131.795,32.807],[131.830,32.693],[131.562,32.432],[131.453,32.247],[131.319,31.511],[131.210,31.352],[130.959,31.193],[130.744,30.887],[130.579,30.906],[130.554,30.969],[130.674,31.211]]],[[[132.342,33.106],[132.121,33.347],[132.449,33.519],[132.784,33.907],[132.968,33.793],[133.245,33.800],[133.462,33.883],[133.805,34.176],[134.010,34.189],[134.540,34.012],[134.609,33.898],[134.519,33.650],[133.998,33.148],[133.726,33.376],[133.516,33.394],[133.240,33.299],[133.154,33.216],[132.969,32.765],[132.900,32.669],[132.698,32.548],[132.467,32.757],[132.342,33.106]]],[[[137.334,37.273],[137.013,37.037],[136.983,36.833],[137.045,36.668],[137.176,36.643],[137.464,36.853],[138.492,37.301],[138.698,37.448],[138.856,37.735],[139.197,37.920],[139.353,38.067],[139.439,38.188],[139.503,38.417],[139.745,38.679],[139.741,38.743],[139.896,38.998],[140.030,39.483],[140.011,39.693],[139.862,39.782],[139.804,39.890],[139.985,40.114],[139.915,40.574],[140.159,40.729],[140.386,40.985],[140.472,40.985],[140.656,40.723],[141.152,40.865],[141.076,41.102],[140.936,41.114],[140.774,41.255],[141.087,41.441],[141.436,41.269],[141.467,40.514],[141.675,40.316],[141.998,39.671],[141.998,39.448],[141.887,39.129],[141.568,38.785],[141.467,38.587],[141.496,38.421],[141.024,38.210],[140.872,37.917],[140.982,37.268],[140.963,36.956],[140.655,36.618],[140.546,36.287],[140.555,35.969],[140.834,35.677],[140.394,35.409],[140.316,35.033],[139.830,34.835],[139.788,34.962],[140.002,35.497],[139.913,35.554],[139.682,35.445],[139.422,35.165],[139.208,35.165],[139.052,35.024],[139.022,34.688],[138.863,34.567],[138.779,34.579],[138.749,34.649],[138.751,34.922],[138.683,34.992],[138.450,34.902],[138.295,34.763],[138.149,34.527],[137.759,34.552],[137.248,34.481],[137.041,34.728],[136.733,34.874],[136.616,34.759],[136.507,34.518],[136.898,34.258],[136.766,34.169],[136.393,34.111],[136.199,34.003],[135.755,33.342],[135.062,33.690],[134.969,34.134],[135.236,34.350],[135.317,34.471],[135.286,34.598],[135.205,34.617],[134.935,34.540],[134.427,34.628],[133.825,34.385],[133.589,34.442],[132.481,34.129],[132.386,34.268],[132.183,34.287],[131.997,34.090],[131.994,33.804],[131.654,33.911],[130.899,33.903],[130.779,33.966],[130.892,34.246],[131.334,34.291],[131.672,34.501],[132.662,35.380],[132.980,35.444],[133.006,35.254],[133.804,35.427],[134.755,35.531],[135.156,35.646],[135.188,35.443],[135.357,35.322],[135.727,35.450],[135.928,35.603],[135.977,35.972],[136.668,36.667],[136.640,37.170],[136.810,37.310],[137.309,37.432],[137.334,37.273]]]]}},{"type":"Feature","properties":{"name":"Ainu","name_zh":"","focus":false,"label":[143.26,43.52],"area":18.1,"color":"#7272a8"},"geometry":{"type":"MultiPolygon","coordinates":[[[[139.852,42.035],[139.777,42.112],[139.711,42.477],[139.973,42.651],[140.499,42.896],[140.516,43.057],[140.373,43.185],[140.498,43.320],[140.598,43.326],[140.896,43.134],[141.064,43.096],[141.303,43.187],[141.301,43.720],[141.709,43.914],[141.745,44.628],[141.566,44.969],[141.522,45.182],[141.597,45.279],[141.875,45.435],[143.020,44.463],[143.790,44.027],[144.613,43.842],[144.750,43.881],[145.139,44.178],[145.347,44.243],[145.059,43.785],[145.448,43.169],[144.994,42.937],[144.754,42.866],[144.590,42.859],[144.370,42.949],[144.166,42.942],[144.002,42.877],[143.508,42.420],[143.330,42.196],[143.213,41.926],[143.033,41.958],[141.928,42.501],[141.721,42.539],[141.396,42.519],[140.929,42.255],[140.860,42.390],[140.693,42.550],[140.540,42.537],[140.223,42.363],[140.245,42.228],[140.767,42.005],[141.155,41.749],[140.979,41.652],[140.588,41.677],[140.268,41.324],[140.112,41.273],[140.012,41.381],[139.977,41.503],[140.124,41.792],[140.099,41.945],[139.852,42.035]]],[[[146.076,43.513],[146.152,43.545],[146.226,43.525],[146.130,43.458],[146.076,43.513]]],[[[146.682,43.707],[146.598,43.732],[146.604,43.803],[146.842,43.874],[146.904,43.839],[146.682,43.707]]],[[[146.568,44.438],[146.508,44.358],[146.119,44.251],[145.940,44.128],[145.779,43.928],[145.595,43.858],[145.554,43.650],[145.437,43.716],[145.409,43.835],[145.744,44.051],[146.127,44.507],[146.344,44.421],[146.568,44.438]]],[[[148.582,45.316],[148.235,45.198],[147.877,44.974],[147.762,44.938],[147.620,44.966],[147.585,44.918],[147.622,44.897],[147.548,44.812],[147.291,44.666],[147.209,44.550],[147.021,44.507],[146.948,44.408],[146.840,44.415],[146.846,44.476],[147.153,44.673],[147.111,44.793],[147.479,44.974],[147.504,45.043],[147.656,45.075],[147.763,45.189],[147.894,45.223],[147.856,45.356],[147.932,45.421],[148.000,45.273],[148.069,45.248],[148.321,45.270],[148.700,45.520],[148.856,45.474],[148.825,45.334],[148.582,45.316]]],[[[149.442,45.589],[149.667,45.850],[149.856,45.923],[150.0,46.045],[150.0,45.831],[149.684,45.633],[149.442,45.589]]],[[[142.944,51.961],[142.943,51.617],[143.074,51.267],[143.340,50.885],[143.633,50.234],[144.038,49.508],[144.539,48.753],[143.598,49.233],[143.152,49.258],[142.853,49.127],[142.646,48.657],[142.489,47.901],[142.614,47.459],[142.993,46.953],[143.236,46.863],[143.444,46.571],[143.303,46.011],[143.004,46.577],[142.614,46.712],[142.513,46.699],[142.327,46.563],[141.898,45.914],[141.708,46.139],[141.622,46.558],[141.909,47.073],[141.731,47.471],[141.810,47.675],[142.036,47.959],[141.977,48.284],[141.739,48.807],[141.921,48.943],[142.049,49.354],[142.152,50.890],[142.112,51.219],[142.016,51.430],[141.643,51.813],[141.598,52.216],[141.811,52.628],[141.840,52.960],[141.689,53.165],[141.767,53.272],[142.214,53.299],[142.674,53.540],[142.863,53.340],[143.056,53.061],[143.138,52.856],[143.143,52.511],[143.033,52.312],[142.944,51.961]]]]}},{"type":"Feature","properties":{"name":"Hainan","name_zh":"","focus":false,"label":[109.47,19.04],"area":2.6,"color":"#5f87a3"},"geometry":{"type":"Polygon","coordinates":[[[109.429,18.096],[108.651,18.482],[108.576,19.187],[109.198,19.684],[109.420,19.659],[109.550,19.913],[109.915,19.800],[110.060,19.940],[110.617,20.017],[110.885,19.706],[110.612,19.471],[110.427,19.229],[110.298,18.898],[110.361,18.765],[110.262,18.625],[109.669,18.414],[109.429,18.096]]]}},{"type":"Feature","properties":{"name":"Xixia","name_zh":"西夏","focus":false,"label":[97.84,40.03],"area":78.6,"color":"#4f8f86"},"geometry":{"type":"Polygon","coordinates":[[[99.802,37.839],[97.458,38.553],[96.236,38.756],[92.568,38.756],[88.289,38.960],[85.844,39.571],[85.131,40.183],[85.232,40.998],[85.946,41.405],[88.187,41.405],[91.345,42.119],[92.262,42.119],[96.236,41.507],[98.987,41.813],[101.432,41.202],[103.062,41.202],[108.360,41.507],[109.379,41.202],[110.500,39.877],[109.888,37.941],[108.971,37.738],[102.043,37.738],[99.802,37.839]]]}},{"type":"Feature","properties":{"name":"Chola Empire","name_zh":"","focus":false,"label":[78.01,12.43],"area":26.4,"color":"#7d6b5a"},"geometry":{"type":"MultiPolygon","coordinates":[[[[80.222,6.058],[80.016,6.495],[79.854,7.061],[79.832,8.103],[79.724,8.416],[79.808,8.647],[79.674,8.804],[79.705,8.930],[79.896,8.920],[80.052,9.113],[80.076,9.279],[80.178,9.445],[80.109,9.686],[80.347,9.470],[80.662,9.299],[81.093,8.626],[81.060,8.410],[81.326,8.258],[81.445,7.928],[81.804,7.313],[81.866,7.084],[81.779,6.753],[81.599,6.448],[81.202,6.079],[80.851,5.951],[80.562,5.931],[80.341,5.969],[80.222,6.058]]],[[[78.202,14.814],[80.459,15.773],[80.300,15.645],[80.089,15.175],[80.169,13.891],[80.075,13.669],[80.319,13.333],[80.313,13.104],[79.769,11.730],[79.710,11.444],[79.826,10.358],[79.789,10.250],[79.306,10.255],[79.222,10.192],[79.072,9.759],[78.926,9.492],[78.937,9.435],[79.159,9.277],[78.313,8.995],[78.181,8.811],[78.135,8.499],[78.064,8.385],[77.899,8.257],[77.419,8.028],[77.341,8.053],[76.703,8.706],[76.537,9.118],[76.385,9.747],[76.075,10.553],[75.651,11.423],[75.439,11.749],[76.674,13.286],[78.202,14.814]]]]}},{"type":"Feature","properties":{"name":"Tibetan tribes","name_zh":"吐蕃诸部","focus":false,"label":[91.02,32.47],"area":217.1,"color":"#a07d5a"},"geometry":{"type":"Polygon","coordinates":[[[103.154,33.282],[100.686,31.395],[100.492,30.088],[100.681,28.690],[98.637,27.478],[96.427,26.700],[94.491,26.506],[94.152,27.668],[91.830,27.276],[86.409,27.329],[85.088,27.692],[85.861,28.200],[83.542,29.285],[82.035,30.191],[81.107,30.191],[80.673,29.682],[80.053,29.981],[79.807,30.709],[79.807,31.160],[80.078,31.883],[79.807,33.057],[79.897,34.051],[79.833,35.496],[88.085,38.145],[87.678,38.655],[88.289,38.960],[92.568,38.756],[96.236,38.756],[97.458,38.553],[99.802,37.839],[102.043,37.738],[101.687,36.307],[102.088,34.865],[103.203,34.105],[103.154,33.282]]]}},{"type":"Feature","properties":{"name":"Dali","name_zh":"大理","focus":false,"label":[102.43,24.16],"area":36.3,"color":"#b0805f"},"geometry":{"type":"Polygon","coordinates":[[[101.007,21.423],[99.428,21.667],[98.582,25.400],[101.218,26.990],[102.961,26.797],[105.187,25.829],[106.585,22.918],[104.848,21.763],[104.558,20.166],[104.026,20.118],[101.007,21.423]]]}},{"type":"Feature","properties":{"name":"Đại Việt","name_zh":"大越","focus":false,"label":[104.58,19.27],"area":13.6,"color":"#9a8a4a"},"geometry":{"type":"Polygon","coordinates":[[[104.933,17.450],[104.111,17.998],[103.058,17.998],[103.786,20.221],[104.026,20.118],[104.558,20.166],[104.848,21.763],[106.585,22.918],[107.417,21.185],[107.465,20.976],[107.374,20.880],[106.807,20.905],[106.746,20.815],[106.771,20.638],[106.380,20.110],[105.964,19.880],[105.843,19.702],[105.532,18.844],[106.364,18.007],[106.433,17.550],[106.622,17.328],[107.114,16.954],[107.375,16.691],[106.203,16.053],[105.399,16.330],[104.933,17.450]]]}},{"type":"Feature","properties":{"name":"Champa City States","name_zh":"占城","focus":false,"label":[108.56,13.29],"area":8.9,"color":"#7272a8"},"geometry":{"type":"Polygon","coordinates":[[[106.451,16.187],[107.375,16.691],[107.809,16.282],[108.095,16.251],[108.236,16.080],[108.363,15.623],[108.498,15.363],[108.786,15.090],[108.917,14.792],[109.307,12.906],[109.068,12.486],[109.073,11.635],[108.897,11.342],[108.695,11.145],[108.164,10.966],[107.938,10.806],[107.672,10.526],[107.412,10.367],[107.265,10.347],[107.035,10.436],[106.773,10.639],[106.929,11.842],[107.897,12.568],[107.897,13.681],[107.462,14.988],[106.451,16.187]]]}},{"type":"Feature","properties":{"name":"Mon state","name_zh":"孟人诸国","focus":false,"label":[96.03,17.74],"area":8.4,"color":"#4f8f86"},"geometry":{"type":"Polygon","coordinates":[[[97.351,16.527],[97.214,16.939],[96.881,17.345],[96.770,17.332],[96.734,16.887],[96.662,16.697],[96.469,16.512],[95.713,16.155],[95.552,15.875],[95.329,15.677],[95.222,15.804],[95.220,16.001],[95.124,15.995],[94.972,15.835],[94.828,15.842],[94.753,15.937],[94.819,16.210],[94.415,16.076],[94.304,15.948],[94.144,16.005],[94.143,16.215],[94.392,16.908],[94.464,17.264],[94.420,18.140],[94.244,18.586],[97.008,19.198],[97.443,19.102],[97.734,18.376],[97.418,16.482],[97.351,16.527]]]}},{"type":"Feature","properties":{"name":"Harapunchai","name_zh":"哈里奔猜","focus":false,"label":[100.08,17.24],"area":31.1,"color":"#a3727a"},"geometry":{"type":"Polygon","coordinates":[[[99.482,21.658],[101.007,21.423],[103.786,20.221],[103.058,17.998],[101.606,15.569],[97.989,14.206],[97.822,14.616],[97.742,15.009],[97.573,16.445],[97.418,16.482],[97.734,18.376],[97.531,18.882],[99.482,21.658]]]}},{"type":"Feature","properties":{"name":"Pyu state","name_zh":"骠国","focus":false,"label":[95.34,20.48],"area":8.9,"color":"#4f8f86"},"geometry":{"type":"Polygon","coordinates":[[[96.699,19.124],[94.244,18.586],[93.965,19.194],[94.298,22.296],[94.878,22.683],[95.459,22.731],[95.895,22.635],[96.475,21.763],[96.699,19.124]]]}},{"type":"Feature","properties":{"name":"minor Hindu and Buddhist states","name_zh":"","focus":false,"label":[98.79,9.63],"area":7.5,"color":"#5f87a3"},"geometry":{"type":"MultiPolygon","coordinates":[[[[95.190,5.410],[95.283,5.550],[95.464,5.569],[95.740,5.468],[96.024,5.215],[96.187,5.145],[96.752,5.064],[97.384,5.180],[97.561,5.0],[95.293,5.0],[95.190,5.410]]],[[[100.154,6.603],[99.969,6.507],[99.833,6.538],[99.662,6.710],[99.610,6.938],[99.639,7.065],[99.571,7.262],[99.468,7.338],[99.293,7.319],[99.024,7.871],[98.544,8.264],[98.292,8.155],[98.195,8.327],[98.177,8.600],[98.632,10.100],[98.431,10.201],[98.397,10.563],[98.605,10.862],[98.738,11.435],[98.867,11.645],[98.590,11.695],[98.588,11.822],[98.676,12.051],[98.596,12.737],[99.930,13.261],[100.023,12.994],[99.833,12.523],[99.895,12.079],[99.186,10.489],[99.071,9.898],[99.118,9.371],[99.195,9.237],[99.298,9.161],[99.724,9.257],[99.837,9.226],[99.898,9.067],[99.865,8.711],[100.009,8.490],[100.131,8.532],[100.301,7.886],[100.344,7.440],[100.539,7.048],[100.745,7.011],[100.206,6.538],[100.154,6.603]]]]}},{"type":"Feature","properties":{"name":"Khwarazmian dynasty","name_zh":"花剌子模","focus":false,"label":[67.51,28.2],"area":34.1,"color":"#5f87a3"},"geometry":{"type":"Polygon","coordinates":[[[68.046,23.764],[67.692,23.814],[67.486,23.928],[67.315,24.092],[67.204,24.588],[67.153,24.651],[66.654,24.783],[66.700,25.114],[66.620,25.317],[66.432,25.488],[66.300,25.494],[65.768,25.309],[64.424,25.173],[64.238,25.210],[64.120,25.312],[64.059,25.401],[64.157,26.772],[63.600,28.073],[65.024,28.320],[67.378,30.116],[71.403,32.532],[71.156,28.878],[70.289,27.577],[68.864,24.480],[68.072,23.675],[68.046,23.764]]]}},{"type":"Feature","properties":{"name":"Ghaznavid Emirate","name_zh":"","focus":false,"label":[65.02,35.11],"area":89.6,"color":"#7272a8"},"geometry":{"type":"Polygon","coordinates":[[[71.403,32.532],[67.378,30.116],[65.024,28.320],[63.600,28.073],[62.856,28.444],[61.927,29.745],[60.0,31.961],[60.0,39.619],[63.121,39.808],[63.729,39.471],[64.632,38.838],[66.529,38.116],[66.709,37.212],[67.342,37.212],[67.884,36.851],[72.210,33.372],[71.403,32.532]]]}},{"type":"Feature","properties":{"name":"Buwayhid Emirates","name_zh":"","focus":false,"label":[61.2,29.09],"area":18.0,"color":"#7272a8"},"geometry":{"type":"Polygon","coordinates":[[[61.927,29.745],[62.856,28.444],[63.600,28.073],[64.157,26.772],[64.059,25.401],[63.650,25.336],[63.403,25.164],[62.449,25.162],[61.813,25.053],[61.343,25.026],[60.858,25.095],[60.479,25.298],[60.0,25.322],[60.0,31.961],[61.927,29.745]]]}},{"type":"Feature","properties":{"name":"Paleo-Siberian hunter-gatherers","name_zh":"","focus":false,"label":[80.62,56.52],"area":79.0,"color":"#7d6b5a","nolabel":true},"geometry":{"type":"MultiPolygon","coordinates":[[[[99.537,55.281],[93.700,56.484],[78.362,56.410],[65.311,55.046],[60.0,56.229],[60.0,56.559],[62.805,56.955],[65.855,58.0],[104.256,58.0],[99.485,55.658],[99.537,55.281]]],[[[115.205,57.386],[114.867,58.0],[115.637,58.0],[115.392,57.652],[115.205,57.386]]]]}},{"type":"Feature","properties":{"name":"Taiwanese Tribes","name_zh":"台湾诸部","focus":false,"label":[120.81,23.55],"area":3.2,"color":"#b0805f"},"geometry":{"type":"Polygon","coordinates":[[[121.518,25.282],[121.881,25.114],[122.002,25.006],[121.816,24.847],[121.839,24.476],[121.780,24.426],[121.772,24.301],[121.604,24.080],[121.496,23.485],[121.355,23.087],[121.168,22.762],[120.969,22.568],[120.873,22.323],[120.882,22.039],[120.824,21.927],[120.716,21.928],[120.610,22.312],[120.505,22.422],[120.377,22.483],[120.345,22.503],[120.307,22.540],[120.330,22.521],[120.240,22.649],[120.135,23.022],[120.052,23.044],[120.099,23.093],[120.057,23.158],[120.148,23.327],[120.111,23.620],[120.694,24.596],[120.871,24.739],[121.009,25.008],[121.194,25.109],[121.390,25.158],[121.441,25.129],[121.394,25.186],[121.518,25.282]]]}},{"type":"Feature","properties":{"name":"Buyid dynasty","name_zh":"","focus":false,"label":[73.74,34.53],"area":20.2,"color":"#5f87a3"},"geometry":{"type":"Polygon","coordinates":[[[73.255,37.220],[76.611,35.924],[76.812,33.181],[72.210,33.372],[69.333,35.686],[73.255,37.220]]]}},{"type":"Feature","properties":{"name":"Finno-Ugric taiga hunter-gatherers","name_zh":"","focus":false,"label":[62.17,57.48],"area":5.1,"color":"#5f87a3","nolabel":true},"geometry":{"type":"Polygon","coordinates":[[[62.805,56.955],[60.0,56.559],[60.0,58.0],[65.855,58.0],[62.805,56.955]]]}},{"type":"Feature","properties":{"name":"Cuman Khanates","name_zh":"","focus":false,"label":[62.14,51.25],"area":37.8,"color":"#7272a8"},"geometry":{"type":"MultiPolygon","coordinates":[[[[60.078,46.401],[60.395,46.405],[60.547,46.322],[60.728,46.402],[60.822,46.243],[60.811,46.168],[60.651,46.071],[60.0,46.114],[60.0,46.497],[60.078,46.401]]],[[[65.847,55.102],[62.748,47.446],[61.473,46.459],[61.394,46.500],[61.535,46.669],[60.938,46.489],[60.799,46.568],[60.797,46.715],[60.743,46.764],[60.623,46.781],[60.570,46.777],[60.728,46.676],[60.725,46.625],[60.651,46.589],[60.501,46.611],[60.429,46.528],[60.270,46.699],[60.073,46.618],[60.0,46.514],[60.0,56.229],[65.311,55.046],[65.847,55.102]]]]}},{"type":"Feature","properties":{"name":"Mongol Empire","name_zh":"蒙古","focus":false,"label":[114.19,49.73],"area":662.8,"color":"#a07d5a"},"geometry":{"type":"MultiPolygon","coordinates":[[[[140.404,50.827],[140.323,50.517],[140.456,50.103],[140.328,49.357],[140.081,48.502],[139.213,47.810],[139.046,47.615],[138.949,47.322],[138.351,46.873],[137.984,46.269],[137.720,45.996],[136.494,44.966],[136.033,44.398],[135.414,44.036],[134.962,43.515],[134.568,43.212],[134.138,42.992],[132.952,42.669],[132.827,42.861],[132.484,42.880],[132.333,42.963],[132.181,43.194],[131.674,43.026],[131.865,43.290],[133.399,44.671],[133.708,45.414],[133.027,46.529],[131.912,46.529],[127.577,44.423],[123.613,43.989],[120.083,43.804],[113.828,43.246],[108.360,41.507],[103.062,41.202],[101.432,41.202],[98.987,41.813],[96.236,41.507],[92.262,42.119],[91.345,42.119],[88.187,41.405],[86.911,41.405],[88.845,56.461],[93.700,56.484],[99.537,55.281],[99.485,55.658],[104.256,58.0],[114.867,58.0],[115.205,57.386],[115.392,57.652],[140.846,51.563],[140.730,51.441],[140.404,50.827]],[[109.846,55.754],[109.575,55.771],[109.193,55.535],[109.171,55.193],[109.052,55.027],[108.916,54.951],[108.932,54.897],[108.785,54.672],[108.592,54.492],[108.223,53.976],[107.626,53.611],[107.534,53.438],[106.851,53.102],[106.773,53.022],[106.873,53.029],[106.880,52.973],[106.537,52.705],[106.059,52.511],[105.859,52.386],[105.569,52.108],[105.165,51.905],[103.713,51.694],[104.156,51.535],[104.655,51.482],[105.797,51.701],[105.967,51.774],[106.186,51.956],[106.313,52.323],[106.497,52.383],[106.806,52.328],[106.938,52.474],[107.098,52.541],[107.947,52.780],[108.287,52.989],[108.334,53.037],[108.302,53.109],[108.391,53.163],[108.661,53.301],[108.767,53.281],[108.931,53.344],[108.989,53.450],[108.920,53.565],[108.841,53.586],[108.532,53.513],[108.943,53.862],[109.060,53.830],[109.030,53.638],[109.177,53.637],[109.210,53.827],[109.537,54.116],[109.489,54.380],[109.523,54.558],[109.764,55.039],[109.75,55.185],[109.857,55.445],[109.860,55.574],[109.955,55.672],[109.846,55.754]]],[[[107.313,53.067],[106.962,53.023],[106.995,53.106],[107.584,53.283],[107.795,53.392],[107.766,53.267],[107.313,53.067]]]]}},{"type":"Feature","properties":{"name":"Goryeo","name_zh":"高丽","focus":false,"label":[126.73,38.03],"area":19.7,"color":"#7d6b5a"},"geometry":{"type":"MultiPolygon","coordinates":[[[[126.843,33.308],[126.266,33.190],[126.158,33.314],[126.317,33.452],[126.633,33.531],[126.821,33.550],[126.941,33.453],[126.843,33.308]]],[[[126.106,34.387],[126.243,34.573],[126.380,34.494],[126.342,34.401],[126.186,34.351],[126.106,34.387]]],[[[125.914,34.685],[125.981,34.716],[126.008,34.691],[125.971,34.647],[125.914,34.685]]],[[[126.005,34.768],[125.932,34.718],[125.888,34.732],[125.908,34.772],[126.005,34.768]]],[[[125.986,34.860],[126.062,34.928],[126.094,34.909],[126.063,34.854],[125.986,34.860]]],[[[126.059,35.090],[126.137,35.142],[126.162,35.143],[126.106,35.046],[126.059,35.090]]],[[[126.335,36.438],[126.324,36.565],[126.376,36.590],[126.431,36.403],[126.335,36.438]]],[[[126.166,36.839],[126.163,36.824],[126.158,36.833],[126.166,36.839]]],[[[124.615,37.968],[124.718,37.983],[124.746,37.954],[124.651,37.914],[124.615,37.968]]],[[[126.648,34.320],[126.694,34.389],[126.774,34.286],[126.700,34.284],[126.648,34.320]]],[[[127.114,34.463],[127.213,34.485],[127.245,34.465],[127.160,34.414],[127.114,34.463]]],[[[127.711,34.526],[127.770,34.538],[127.798,34.484],[127.780,34.474],[127.711,34.526]]],[[[127.739,34.604],[127.768,34.664],[127.812,34.641],[127.799,34.572],[127.739,34.604]]],[[[128.055,34.813],[128.060,34.701],[127.977,34.697],[127.860,34.719],[127.822,34.843],[127.898,34.933],[127.956,34.800],[128.055,34.813]]],[[[128.741,34.781],[128.585,34.703],[128.597,34.834],[128.526,34.805],[128.490,34.868],[128.711,34.976],[128.741,34.781]]],[[[127.997,34.835],[128.024,34.913],[128.085,34.830],[127.997,34.835]]],[[[130.805,37.513],[130.919,37.545],[130.922,37.481],[130.868,37.450],[130.805,37.513]]],[[[125.561,37.835],[125.269,37.484],[125.076,37.770],[124.769,37.935],[124.693,38.139],[124.736,38.279],[124.929,38.464],[125.268,38.567],[125.293,38.688],[125.027,38.815],[125.296,39.364],[125.206,39.485],[124.922,39.618],[124.688,39.605],[124.548,39.541],[124.442,39.573],[124.208,39.738],[124.110,39.875],[129.824,41.861],[129.641,41.655],[129.590,41.469],[129.631,41.277],[129.477,40.682],[129.177,40.630],[128.446,40.065],[128.236,39.969],[127.931,39.956],[127.671,39.866],[127.440,39.623],[127.276,39.221],[127.404,39.075],[128.269,38.420],[128.303,38.583],[128.363,38.625],[128.634,38.125],[129.049,37.685],[129.342,37.257],[129.433,37.058],[129.416,36.942],[129.474,36.774],[129.416,36.616],[129.438,36.400],[129.381,36.314],[129.388,36.025],[129.463,35.994],[129.557,36.078],[129.588,36.007],[129.466,35.537],[129.237,35.189],[129.136,35.112],[128.978,35.084],[128.973,35.134],[128.810,35.084],[128.572,35.169],[128.378,35.036],[128.372,35.004],[128.477,35.053],[128.501,35.008],[128.434,34.834],[128.335,34.871],[128.329,34.949],[128.216,34.930],[128.203,34.888],[128.066,34.924],[128.020,34.986],[127.767,34.960],[127.643,34.900],[127.593,34.941],[127.576,34.886],[127.638,34.814],[127.773,34.843],[127.747,34.727],[127.634,34.614],[127.554,34.656],[127.567,34.766],[127.522,34.856],[127.418,34.818],[127.363,34.751],[127.514,34.591],[127.389,34.471],[127.315,34.443],[127.124,34.537],[127.201,34.633],[127.192,34.569],[127.242,34.569],[127.328,34.652],[127.328,34.743],[127.009,34.602],[126.889,34.412],[126.800,34.463],[126.783,34.587],[126.600,34.300],[126.478,34.345],[126.463,34.484],[126.288,34.590],[126.289,34.742],[126.451,34.578],[126.451,34.648],[126.618,34.619],[126.476,34.724],[126.659,34.812],[126.539,34.873],[126.510,34.775],[126.375,34.785],[126.433,34.963],[126.318,34.932],[126.249,35.116],[126.344,35.151],[126.359,35.069],[126.431,35.023],[126.458,35.090],[126.360,35.180],[126.421,35.406],[126.523,35.524],[126.687,35.533],[126.664,35.591],[126.498,35.578],[126.474,35.635],[126.751,35.778],[126.801,35.861],[126.788,35.894],[126.615,35.890],[126.631,35.967],[126.761,35.995],[126.872,36.054],[126.685,35.999],[126.544,36.136],[126.464,36.574],[126.527,36.592],[126.497,36.723],[126.347,36.739],[126.293,36.581],[126.272,36.717],[126.172,36.672],[126.128,36.751],[126.191,36.819],[126.184,36.878],[126.291,36.962],[126.321,36.884],[126.289,36.785],[126.401,36.851],[126.413,36.933],[126.348,36.952],[126.355,36.996],[126.442,36.999],[126.483,36.842],[126.502,37.052],[126.619,36.972],[126.781,36.963],[126.838,36.753],[127.000,36.929],[126.908,36.919],[126.752,37.048],[126.776,37.123],[126.869,37.176],[126.694,37.121],[126.661,37.156],[126.661,37.253],[126.865,37.266],[126.722,37.328],[126.741,37.386],[126.660,37.407],[126.621,37.481],[126.674,37.488],[126.658,37.554],[126.541,37.673],[126.513,37.597],[126.410,37.593],[126.209,37.754],[125.909,37.511],[125.741,37.784],[125.561,37.835]]]]}},{"type":"Feature","properties":{"name":"Tungusic Tribes","name_zh":"女真诸部","focus":false,"label":[131.16,54.79],"area":71.5,"color":"#7d6b5a"},"geometry":{"type":"Polygon","coordinates":[[[115.392,57.652],[115.637,58.0],[140.347,58.0],[140.028,57.644],[138.866,57.124],[138.345,56.804],[137.229,55.982],[136.521,55.589],[135.269,55.028],[134.985,54.853],[134.893,54.719],[134.902,54.559],[135.094,54.432],[135.312,54.413],[135.725,54.407],[136.196,54.474],[136.491,54.455],[136.343,53.887],[136.350,53.701],[136.487,53.654],[136.770,53.695],[137.040,53.862],[137.382,53.809],[137.121,53.589],[137.071,53.489],[137.239,53.456],[137.979,53.464],[138.234,53.571],[138.409,53.805],[138.416,54.091],[139.378,54.080],[139.805,53.961],[140.102,53.801],[140.321,53.535],[141.121,53.051],[141.089,52.985],[140.828,52.825],[141.031,52.726],[141.090,52.586],[140.939,52.261],[141.160,52.209],[141.257,52.103],[141.126,51.871],[140.846,51.563],[115.392,57.652]]]}},{"type":"Feature","properties":{"name":"Kamarupa","name_zh":"","focus":false,"label":[98.91,26.85],"area":12.6,"color":"#b0805f"},"geometry":{"type":"Polygon","coordinates":[[[93.715,24.955],[94.491,26.506],[96.427,26.700],[98.637,27.478],[100.681,28.690],[101.218,26.990],[98.582,25.400],[98.627,25.204],[93.715,24.955]]]}},{"type":"Feature","properties":{"name":"Khmer Empire","name_zh":"真腊 (吴哥)","focus":false,"label":[104.42,13.19],"area":43.4,"color":"#4f8f86"},"geometry":{"type":"Polygon","coordinates":[[[100.473,13.509],[100.239,13.490],[100.040,13.394],[99.930,13.261],[98.596,12.737],[98.485,13.111],[98.198,13.644],[97.989,14.206],[101.606,15.569],[103.058,17.998],[104.111,17.998],[104.933,17.450],[105.399,16.330],[106.203,16.053],[106.451,16.187],[107.462,14.988],[107.897,13.681],[107.897,12.568],[106.929,11.842],[106.773,10.639],[106.704,10.448],[106.748,10.067],[106.656,9.743],[106.482,9.552],[106.335,9.520],[106.229,9.551],[106.118,9.335],[105.926,9.188],[105.503,9.029],[105.208,8.653],[105.025,8.519],[104.907,8.474],[104.742,8.493],[104.822,9.472],[104.890,9.694],[104.987,9.822],[104.978,9.980],[104.764,10.177],[104.427,10.284],[104.160,10.519],[104.003,10.537],[103.830,10.473],[103.606,10.473],[103.524,10.524],[103.670,10.765],[103.652,10.880],[103.524,11.057],[103.400,11.038],[103.192,10.904],[103.039,10.897],[102.962,11.367],[102.658,12.066],[102.529,12.148],[102.323,12.186],[101.918,12.585],[101.723,12.654],[101.586,12.661],[101.329,12.558],[101.023,12.672],[100.871,12.678],[100.956,13.364],[100.908,13.447],[100.473,13.509]]]}},{"type":"Feature","properties":{"name":"Bagan","name_zh":"蒲甘","focus":false,"label":[97.79,22.1],"area":29.4,"color":"#6f9460"},"geometry":{"type":"Polygon","coordinates":[[[97.531,18.882],[97.443,19.102],[97.008,19.198],[96.699,19.124],[96.475,21.763],[95.895,22.635],[95.459,22.731],[94.878,22.683],[94.298,22.296],[93.965,19.194],[93.839,18.952],[93.457,19.174],[93.814,19.257],[93.723,19.594],[93.334,20.025],[93.065,19.992],[92.894,20.113],[92.921,20.373],[92.827,20.424],[92.662,20.404],[92.403,20.613],[92.176,20.886],[91.946,21.362],[91.845,21.908],[91.571,22.543],[91.410,22.720],[93.620,24.764],[93.715,24.955],[98.627,25.204],[99.428,21.667],[99.482,21.658],[97.531,18.882]]]}},{"type":"Feature","properties":{"name":"Srivijaya Empire","name_zh":"","focus":false,"label":[101.39,5.83],"area":3.9,"color":"#b0805f"},"geometry":{"type":"Polygon","coordinates":[[[100.975,6.852],[101.217,6.802],[101.427,6.828],[101.559,6.739],[101.679,6.464],[102.089,6.143],[102.325,6.099],[102.802,5.560],[103.212,5.0],[100.393,5.0],[100.139,6.177],[100.206,6.538],[100.745,7.011],[100.975,6.852]]]}},{"type":"Feature","properties":{"name":"Malays","name_zh":"","focus":false,"label":[125.09,7.63],"area":10.7,"color":"#4f8f86"},"geometry":{"type":"MultiPolygon","coordinates":[[[[114.849,5.0],[114.799,5.0],[114.853,5.015],[114.849,5.0]]],[[[115.203,5.275],[115.291,5.453],[115.717,5.467],[115.787,5.740],[115.970,5.881],[116.098,6.097],[116.337,6.358],[116.595,6.899],[116.740,6.689],[116.889,6.645],[117.031,6.836],[117.168,6.614],[117.507,6.392],[117.540,6.240],[117.353,5.877],[117.370,5.788],[117.866,5.904],[117.918,5.802],[117.761,5.580],[118.256,5.663],[118.377,5.638],[118.997,5.277],[119.042,5.169],[118.908,5.0],[115.432,5.0],[115.417,5.111],[115.203,5.275]]],[[[125.614,7.236],[125.280,6.593],[125.465,6.244],[125.532,5.939],[125.461,5.717],[125.289,5.488],[125.072,5.722],[125.163,5.907],[125.129,6.053],[124.965,6.084],[124.803,5.785],[124.224,6.089],[123.973,6.336],[123.880,6.565],[123.864,6.851],[124.073,7.258],[124.024,7.474],[123.815,7.658],[123.464,7.790],[123.333,7.771],[123.247,7.593],[123.022,7.478],[122.725,7.452],[122.713,7.674],[122.635,7.782],[122.455,7.693],[121.991,6.872],[121.839,6.967],[121.824,7.056],[122.093,7.775],[122.211,7.902],[122.384,7.985],[122.637,8.004],[122.736,8.062],[122.796,8.272],[122.888,8.342],[123.135,8.450],[123.485,8.496],[123.616,8.337],[123.662,8.013],[123.805,8.083],[124.023,8.109],[124.117,8.192],[124.210,8.446],[124.371,8.561],[124.670,8.428],[124.741,8.918],[124.872,8.924],[124.990,8.715],[125.224,8.995],[125.401,8.951],[125.460,9.053],[125.439,9.370],[125.362,9.624],[125.428,9.783],[125.933,9.174],[126.037,8.958],[126.074,8.812],[125.923,8.482],[126.029,8.380],[126.271,8.425],[126.306,8.235],[126.254,8.044],[126.279,7.733],[126.372,7.536],[126.321,7.148],[126.045,6.608],[125.954,6.652],[125.910,6.849],[125.747,7.185],[125.614,7.236]]]]}},{"type":"Feature","properties":{"name":"Nepal","name_zh":"尼泊尔","focus":false,"label":[82.9,28.61],"area":8.9,"color":"#9a8a4a"},"geometry":{"type":"Polygon","coordinates":[[[82.035,30.191],[83.542,29.285],[85.861,28.200],[84.509,27.311],[83.079,27.277],[80.103,29.015],[81.107,30.191],[82.035,30.191]]]}},{"type":"Feature","properties":{"name":"Kara Khitai Khaganate","name_zh":"西辽","focus":false,"label":[73.87,44.81],"area":484.7,"color":"#7d6b5a"},"geometry":{"type":"Polygon","coordinates":[[[76.611,35.924],[73.255,37.220],[69.333,35.686],[67.884,36.851],[67.342,37.212],[66.709,37.212],[66.529,38.116],[64.632,38.838],[63.729,39.471],[63.121,39.808],[60.0,39.619],[60.0,44.352],[60.034,44.407],[60.0,44.672],[60.784,44.952],[61.613,45.570],[61.542,45.856],[61.676,46.125],[61.951,46.208],[61.473,46.459],[62.748,47.446],[65.847,55.102],[78.362,56.410],[88.845,56.461],[86.911,41.405],[85.946,41.405],[85.232,40.998],[85.131,40.183],[85.844,39.571],[88.289,38.960],[87.678,38.655],[88.085,38.145],[79.833,35.496],[79.897,34.051],[79.807,33.057],[76.812,33.181],[76.611,35.924]],[[78.868,46.798],[78.760,46.723],[78.630,46.746],[78.476,46.624],[78.367,46.642],[78.347,46.512],[78.297,46.468],[78.136,46.594],[77.859,46.647],[77.266,46.611],[77.174,46.555],[77.082,46.624],[76.668,46.673],[76.450,46.640],[76.203,46.780],[75.825,46.818],[75.338,46.729],[75.088,46.813],[74.625,46.752],[74.374,46.518],[74.023,46.369],[73.949,46.288],[74.020,46.204],[73.679,46.183],[73.662,46.062],[73.737,46.012],[73.559,45.816],[73.440,45.805],[73.531,45.734],[73.436,45.609],[73.614,45.513],[73.839,45.263],[73.999,45.188],[74.017,45.012],[74.1,44.988],[74.155,45.270],[74.082,45.352],[74.089,45.509],[74.312,45.670],[74.242,45.751],[74.303,45.789],[74.253,45.941],[74.278,46.004],[74.549,46.005],[74.771,46.107],[74.911,46.404],[75.093,46.460],[75.212,46.426],[75.304,46.519],[75.405,46.470],[75.448,46.498],[75.404,46.609],[75.463,46.670],[75.552,46.672],[75.491,46.596],[75.611,46.507],[76.238,46.554],[76.741,46.531],[77.103,46.454],[77.429,46.499],[77.652,46.415],[77.865,46.428],[78.075,46.328],[78.317,46.349],[78.445,46.297],[78.465,46.392],[78.889,46.369],[79.022,46.447],[79.094,46.581],[79.245,46.645],[79.121,46.798],[79.051,46.807],[78.990,46.748],[78.868,46.798]]]}},{"type":"Feature","properties":{"name":"Bhutan","name_zh":"不丹","focus":false,"label":[93.14,25.64],"area":6.9,"color":"#8a6f9e"},"geometry":{"type":"Polygon","coordinates":[[[89.574,27.298],[91.830,27.276],[94.152,27.668],[94.491,26.506],[93.622,24.768],[89.574,27.298]]]}},{"type":"Feature","properties":{"name":"Sultanate of Delhi","name_zh":"德里苏丹国","focus":false,"label":[77.56,28.35],"area":105.0,"color":"#b0805f"},"geometry":{"type":"Polygon","coordinates":[[[72.210,33.372],[79.807,33.057],[80.078,31.883],[79.807,31.160],[79.807,30.709],[80.053,29.981],[80.673,29.682],[80.103,29.015],[83.079,27.277],[84.509,27.311],[85.088,27.692],[86.409,27.329],[89.574,27.298],[93.622,24.768],[91.410,22.720],[91.081,22.561],[90.0,22.560],[90.0,22.230],[88.965,22.492],[82.222,24.468],[81.446,23.953],[79.463,25.170],[76.994,25.776],[74.965,26.425],[74.050,25.859],[71.906,25.745],[71.906,27.436],[75.475,29.096],[71.319,31.290],[71.403,32.532],[72.210,33.372]]]}},{"type":"Feature","properties":{"name":"Rajput kingdoms","name_zh":"","focus":false,"label":[80.13,21.53],"area":156.6,"color":"#a07d5a"},"geometry":{"type":"Polygon","coordinates":[[[71.906,25.745],[74.050,25.859],[74.965,26.425],[76.994,25.776],[79.463,25.170],[81.446,23.953],[82.222,24.468],[88.965,22.492],[90.0,22.230],[90.0,21.930],[89.869,22.133],[89.796,21.832],[89.670,21.719],[89.578,21.700],[89.456,21.941],[89.233,21.655],[89.072,21.774],[88.994,21.629],[89.025,21.546],[88.880,21.514],[88.723,21.539],[88.656,21.857],[88.567,21.895],[88.377,21.577],[88.299,21.551],[88.053,21.938],[87.867,21.696],[87.640,21.563],[86.937,21.288],[86.796,21.135],[86.926,20.691],[86.637,20.319],[86.632,20.203],[86.119,19.806],[85.379,19.605],[85.113,19.442],[84.262,18.455],[83.987,18.207],[83.684,18.083],[83.381,17.710],[82.353,17.085],[82.234,16.647],[82.081,16.462],[81.788,16.328],[81.596,16.302],[81.369,16.346],[81.253,16.225],[81.087,15.826],[80.963,15.723],[80.735,15.837],[80.459,15.773],[78.202,14.814],[76.674,13.286],[75.439,11.749],[75.210,12.102],[74.733,13.683],[74.401,14.419],[73.841,15.390],[73.409,16.558],[73.064,18.031],[72.759,20.057],[72.864,20.311],[73.109,20.687],[73.112,20.827],[72.931,20.953],[72.765,21.150],[72.665,21.848],[72.695,22.128],[72.319,22.115],[72.232,22.019],[72.127,21.828],[72.131,21.746],[72.288,21.549],[72.256,21.352],[72.120,21.155],[71.894,20.989],[71.024,20.657],[70.855,20.650],[70.467,20.777],[70.209,20.947],[69.126,21.968],[68.894,22.285],[69.492,22.248],[69.968,22.351],[70.176,22.478],[70.410,22.752],[70.380,22.860],[70.045,22.777],[69.664,22.789],[69.107,22.898],[68.790,23.028],[68.372,23.326],[68.072,23.675],[68.864,24.480],[70.289,27.577],[71.156,28.878],[71.319,31.290],[75.475,29.096],[71.906,27.436],[71.906,25.745]]]}},{"type":"Feature","properties":{"name":"Southern Song","name_zh":"南宋","focus":true,"label":[110.71,27.08],"area":191.2,"approx":true},"geometry":{"type":"MultiPolygon","coordinates":[[[[114.022,22.228],[113.836,22.213],[113.901,22.290],[114.046,22.340],[114.022,22.228]]],[[[114.413,22.436],[114.263,22.204],[114.207,22.221],[114.133,22.171],[114.098,22.216],[114.144,22.331],[113.925,22.367],[113.901,22.406],[114.166,22.560],[114.309,22.553],[114.413,22.436]]],[[[104.0,33.6],[106.5,34.0],[108.0,33.9],[110.0,33.4],[114.0,32.6],[115.5,32.6],[118.5,33.4],[119.5,34.0],[120.072,34.0],[120.149,33.894],[120.340,33.336],[120.640,33.044],[120.719,32.847],[120.660,32.543],[120.738,32.460],[121.050,32.328],[121.230,32.061],[121.483,31.948],[121.605,31.827],[121.623,31.618],[121.268,31.452],[121.498,31.281],[121.640,30.926],[121.631,30.792],[121.568,30.710],[121.328,30.690],[121.035,30.594],[120.608,30.346],[120.226,30.250],[119.943,30.116],[120.437,29.996],[120.862,30.187],[121.082,30.213],[121.155,30.188],[121.391,29.922],[121.565,29.846],[121.770,29.834],[121.774,29.764],[121.670,29.624],[121.361,29.414],[121.411,29.344],[121.649,29.319],[121.432,28.836],[121.345,28.544],[121.358,28.385],[121.259,28.182],[121.165,28.124],[121.008,28.276],[120.505,27.590],[120.351,27.177],[120.084,26.985],[119.971,26.788],[119.857,26.706],[119.600,26.692],[119.428,26.590],[119.554,26.267],[119.436,26.038],[119.470,25.771],[119.428,25.650],[119.335,25.530],[119.095,25.440],[118.812,24.849],[118.531,24.690],[118.345,24.467],[117.924,24.561],[117.861,24.510],[117.796,24.421],[117.849,24.047],[117.405,23.690],[116.962,23.556],[116.709,23.346],[116.452,23.250],[116.403,23.199],[116.400,22.983],[116.340,22.913],[115.860,22.836],[115.706,22.638],[115.308,22.771],[115.185,22.745],[115.043,22.599],[114.847,22.510],[114.558,22.464],[114.537,22.674],[113.989,22.552],[113.845,22.463],[113.716,22.482],[113.462,22.773],[113.376,22.646],[113.419,22.570],[113.377,22.163],[113.283,22.030],[113.096,21.979],[112.871,22.061],[112.815,21.826],[112.749,21.756],[112.039,21.659],[111.831,21.754],[111.733,21.709],[111.536,21.493],[111.434,21.461],[111.085,21.479],[110.749,21.377],[110.566,21.230],[110.238,21.280],[110.202,21.096],[110.077,20.867],[110.293,20.582],[110.414,20.525],[110.433,20.436],[110.271,20.315],[109.928,20.244],[109.711,20.568],[109.602,20.879],[109.608,21.057],[109.786,21.406],[109.779,21.482],[109.516,21.596],[109.414,21.564],[109.321,21.431],[109.117,21.399],[108.813,21.493],[108.554,21.823],[108.466,21.785],[108.387,21.530],[108.265,21.473],[107.900,21.479],[107.417,21.185],[105.187,25.829],[102.961,26.797],[101.218,26.990],[100.681,28.690],[100.492,30.088],[100.686,31.395],[103.154,33.282],[103.173,33.6],[104.0,33.6]]]]}},{"type":"Feature","properties":{"name":"Jin","name_zh":"金","focus":true,"label":[114.8,39.6],"area":178.0,"approx":true},"geometry":{"type":"Polygon","coordinates":[[[102.088,34.865],[101.687,36.307],[102.043,37.738],[108.971,37.738],[109.888,37.941],[110.500,39.877],[109.379,41.202],[108.360,41.507],[113.828,43.246],[120.083,43.804],[123.613,43.989],[127.577,44.423],[131.912,46.529],[133.027,46.529],[133.708,45.414],[133.399,44.671],[131.865,43.290],[131.584,43.212],[131.064,42.749],[129.824,41.861],[123.916,39.807],[123.039,39.672],[122.027,39.255],[121.488,38.878],[121.216,38.756],[121.065,38.750],[121.123,38.865],[121.660,39.331],[121.448,39.382],[121.282,39.349],[121.213,39.483],[121.239,39.553],[121.668,39.905],[121.788,40.078],[122.107,40.353],[122.082,40.488],[121.753,40.736],[121.426,40.864],[121.010,40.850],[120.788,40.683],[120.272,40.151],[120.112,40.081],[119.823,40.042],[119.385,39.843],[119.210,39.639],[119.090,39.339],[118.977,39.224],[118.781,39.166],[118.559,39.172],[118.274,38.999],[118.069,39.254],[117.910,39.260],[117.752,39.202],[117.439,38.602],[117.479,38.449],[117.589,38.284],[117.840,38.163],[118.200,38.043],[118.744,38.063],[118.875,37.949],[118.811,37.446],[118.837,37.204],[118.954,37.077],[119.284,37.045],[119.598,37.116],[119.940,37.352],[120.169,37.576],[120.658,37.736],[120.787,37.704],[121.189,37.425],[121.434,37.336],[121.894,37.375],[122.392,37.300],[122.281,36.982],[122.255,36.733],[121.846,36.860],[121.609,36.834],[120.855,36.584],[120.537,36.386],[120.504,36.055],[120.269,35.985],[120.139,36.194],[119.913,36.143],[119.975,35.933],[119.907,35.768],[119.060,35.041],[119.003,34.939],[119.020,34.691],[119.299,34.590],[119.973,34.135],[120.072,34.0],[119.5,34.0],[118.5,33.4],[115.5,32.6],[114.0,32.6],[110.0,33.4],[108.0,33.9],[106.5,34.0],[104.0,33.6],[103.173,33.6],[103.203,34.105],[102.088,34.865]]]}}]}