{"type":"FeatureCollection","features":[{"type":"Feature","properties":{"name":"Champa","name_zh":"林邑","focus":false,"label":[108.42,13.33],"area":9.6,"color":"#9a8a4a"},"geometry":{"type":"Polygon","coordinates":[[[107.543,12.259],[107.636,13.743],[107.42,14.648],[107.268,15.118],[106.451,16.187],[107.375,16.691],[107.809,16.282],[108.095,16.251],[108.236,16.08],[108.363,15.623],[108.498,15.363],[108.786,15.09],[108.917,14.792],[109.071,14.17],[109.307,12.906],[109.068,12.486],[109.073,11.635],[108.897,11.342],[108.695,11.145],[108.164,10.966],[107.938,10.806],[107.672,10.526],[107.412,10.367],[107.265,10.347],[107.035,10.436],[106.773,10.639],[106.929,11.842],[107.543,12.259]]]}},{"type":"Feature","properties":{"name":"Simhala","name_zh":"","focus":false,"label":[80.73,7.62],"area":5.0,"color":"#6f9460"},"geometry":{"type":"Polygon","coordinates":[[[80.341,5.969],[80.222,6.058],[80.127,6.216],[79.854,7.061],[79.832,8.103],[79.724,8.416],[79.808,8.647],[79.674,8.804],[79.705,8.93],[79.896,8.92],[80.052,9.113],[80.076,9.279],[80.178,9.445],[80.109,9.686],[80.347,9.47],[80.662,9.299],[81.093,8.626],[81.06,8.41],[81.326,8.258],[81.445,7.928],[81.804,7.313],[81.866,7.084],[81.779,6.753],[81.599,6.448],[81.202,6.079],[80.851,5.951],[80.341,5.969]]]}},{"type":"Feature","properties":{"name":"Thai Kingdoms","name_zh":"掸泰诸部","focus":false,"label":[102.63,22.3],"area":26.4,"color":"#8a6f9e"},"geometry":{"type":"Polygon","coordinates":[[[101.514,24.688],[102.256,25.337],[103.682,26.056],[106.43,24.873],[103.833,20.143],[103.234,20.122],[100.698,19.478],[100.122,20.169],[100.352,20.744],[100.123,23.853],[100.679,24.131],[101.514,24.688]]]}},{"type":"Feature","properties":{"name":"Chen-La","name_zh":"真腊","focus":false,"label":[105.76,13.98],"area":13.4,"color":"#8a6f9e"},"geometry":{"type":"Polygon","coordinates":[[[107.268,15.118],[107.636,13.743],[107.543,12.259],[106.929,11.842],[104.389,11.981],[104.018,12.908],[103.926,14.207],[104.111,15.505],[104.575,15.784],[106.451,16.187],[107.268,15.118]]]}},{"type":"Feature","properties":{"name":"Kanauj","name_zh":"戒日王朝","focus":false,"label":[81.11,28.91],"area":47.0,"color":"#a07d5a"},"geometry":{"type":"Polygon","coordinates":[[[85.654,28.583],[88.327,28.013],[88.344,26.45],[87.602,25.059],[85.932,25.244],[85.097,25.801],[83.984,24.781],[82.593,24.781],[80.46,25.708],[76.935,29.233],[76.842,30.253],[78.342,32.593],[80.738,30.902],[85.654,28.583]]]}},{"type":"Feature","properties":{"name":"Kamarupa","name_zh":"","focus":false,"label":[92.91,25.29],"area":13.8,"color":"#b0805f"},"geometry":{"type":"Polygon","coordinates":[[[94.465,26.45],[94.558,25.708],[93.909,24.966],[92.987,24.082],[92.125,22.968],[92.041,23.115],[91.571,22.543],[91.59,24.039],[91.683,25.059],[91.59,25.523],[88.344,26.45],[88.327,28.013],[93.909,26.821],[94.465,26.45]]]}},{"type":"Feature","properties":{"name":"Hindu kingdoms","name_zh":"","focus":false,"label":[70.25,26.79],"area":191.5,"color":"#9a8a4a"},"geometry":{"type":"MultiPolygon","coordinates":[[[[79.826,10.358],[79.789,10.25],[79.306,10.255],[79.222,10.192],[79.072,9.759],[78.926,9.492],[78.937,9.435],[79.159,9.277],[78.313,8.995],[78.181,8.811],[78.135,8.499],[78.064,8.385],[77.484,8.028],[77.341,8.053],[76.703,8.706],[76.537,9.118],[76.385,9.747],[76.075,10.553],[75.651,11.423],[75.21,12.102],[74.733,13.683],[74.52,14.155],[75.08,14.392],[75.637,13.929],[76.471,13.743],[76.286,12.63],[76.842,12.445],[77.121,12.074],[77.121,11.239],[78.697,11.053],[79.712,11.424],[79.826,10.358]]],[[[84.324,18.53],[83.987,18.207],[83.684,18.083],[83.381,17.71],[82.353,17.085],[80.274,19.865],[80.089,22.091],[79.439,22.184],[72.931,20.953],[72.765,21.15],[72.665,21.848],[72.695,22.128],[72.319,22.115],[72.127,21.828],[72.131,21.746],[72.288,21.549],[72.256,21.352],[72.12,21.155],[71.894,20.989],[71.024,20.657],[70.855,20.65],[70.467,20.777],[70.209,20.947],[69.126,21.968],[68.894,22.285],[69.492,22.248],[69.968,22.351],[70.176,22.478],[70.41,22.752],[70.38,22.86],[70.045,22.777],[69.664,22.789],[69.107,22.898],[68.79,23.028],[68.372,23.326],[68.072,23.675],[68.046,23.764],[67.692,23.814],[67.486,23.928],[67.315,24.092],[67.204,24.588],[67.153,24.651],[66.654,24.783],[66.7,25.114],[66.62,25.317],[66.432,25.488],[67.243,32.015],[67.149,34.602],[69.933,35.632],[73.828,36.745],[75.219,34.798],[78.342,32.593],[76.842,30.253],[76.921,29.387],[72.627,28.366],[74.117,26.544],[76.309,27.045],[78.541,27.627],[80.46,25.708],[82.593,24.781],[83.984,24.781],[84.819,23.853],[84.912,22.74],[84.726,21.905],[84.726,20.885],[85.379,19.605],[85.113,19.442],[84.324,18.53]]]]}},{"type":"Feature","properties":{"name":"Shaskanka","name_zh":"","focus":false,"label":[88.22,23.3],"area":30.0,"color":"#7272a8"},"geometry":{"type":"Polygon","coordinates":[[[87.867,21.696],[86.937,21.288],[86.818,21.186],[86.844,20.875],[86.926,20.691],[86.637,20.319],[86.632,20.203],[86.119,19.806],[85.379,19.605],[84.726,20.885],[84.726,21.905],[84.912,22.74],[84.819,23.853],[83.984,24.781],[85.097,25.801],[85.932,25.244],[87.602,25.059],[88.344,26.45],[91.59,25.523],[91.683,25.059],[91.59,24.039],[91.571,22.543],[91.41,22.72],[91.081,22.561],[90.0,22.56],[90.0,21.93],[89.869,22.133],[89.796,21.832],[89.67,21.719],[89.578,21.7],[89.456,21.941],[89.233,21.655],[89.072,21.774],[88.994,21.629],[89.025,21.546],[88.723,21.539],[88.656,21.857],[88.567,21.895],[88.377,21.577],[88.299,21.551],[88.053,21.938],[87.867,21.696]]]}},{"type":"Feature","properties":{"name":"Pallavas","name_zh":"","focus":false,"label":[77.75,14.16],"area":19.8,"color":"#8a6f9e"},"geometry":{"type":"Polygon","coordinates":[[[80.313,13.104],[79.769,11.73],[79.712,11.424],[78.697,11.053],[77.121,11.239],[77.121,12.074],[76.842,12.445],[76.286,12.63],[76.471,13.743],[75.637,13.929],[75.08,14.392],[78.048,17.453],[78.976,17.639],[79.068,17.268],[79.068,15.227],[79.439,14.949],[80.087,14.946],[80.169,13.891],[80.075,13.669],[80.319,13.333],[80.313,13.104]]]}},{"type":"Feature","properties":{"name":"Chalukyas","name_zh":"","focus":false,"label":[76.94,18.95],"area":46.9,"color":"#6f9460"},"geometry":{"type":"Polygon","coordinates":[[[74.52,14.155],[73.841,15.39],[73.572,16.037],[73.064,18.031],[72.759,20.057],[72.864,20.311],[73.109,20.687],[73.112,20.827],[72.931,20.953],[79.439,22.184],[80.089,22.091],[80.274,19.865],[82.353,17.085],[82.234,16.647],[82.081,16.462],[81.788,16.328],[81.596,16.302],[81.369,16.346],[81.253,16.225],[81.087,15.826],[80.963,15.723],[80.735,15.837],[80.459,15.773],[80.3,15.645],[80.163,15.391],[80.089,15.175],[80.087,14.946],[79.439,14.949],[79.068,15.227],[79.068,17.268],[78.976,17.639],[78.048,17.453],[75.08,14.392],[74.52,14.155]]]}},{"type":"Feature","properties":{"name":"Koguryo","name_zh":"高句丽","focus":false,"label":[127.26,42.09],"area":31.8,"color":"#a07d5a"},"geometry":{"type":"Polygon","coordinates":[[[129.59,41.469],[129.631,41.277],[129.477,40.682],[129.177,40.63],[128.446,40.065],[128.236,39.969],[127.931,39.956],[127.671,39.866],[127.44,39.623],[127.276,39.221],[127.404,39.075],[125.293,38.688],[125.027,38.815],[125.296,39.364],[125.206,39.485],[124.922,39.618],[124.688,39.605],[124.548,39.541],[124.442,39.573],[124.208,39.738],[124.104,39.884],[123.916,39.807],[123.039,39.672],[122.027,39.255],[121.488,38.878],[121.216,38.756],[121.065,38.75],[121.123,38.865],[121.66,39.331],[121.448,39.382],[121.282,39.349],[121.213,39.483],[121.239,39.553],[122.036,40.264],[122.107,40.353],[122.082,40.488],[124.702,42.31],[127.299,43.238],[129.247,45.186],[130.545,45.371],[132.122,44.629],[132.827,42.861],[132.484,42.88],[132.333,42.963],[132.181,43.194],[131.674,43.026],[131.865,43.29],[131.584,43.212],[131.064,42.749],[129.824,41.861],[129.641,41.655],[129.59,41.469]]]}},{"type":"Feature","properties":{"name":"Paekche","name_zh":"百济","focus":false,"label":[127.3,36.03],"area":4.3,"color":"#7d6b5a"},"geometry":{"type":"Polygon","coordinates":[[[127.97,34.837],[127.84,34.938],[127.596,34.893],[127.359,34.804],[126.824,34.428],[126.616,34.409],[126.409,34.269],[126.36,34.668],[126.225,35.163],[126.3,35.367],[126.524,35.577],[126.524,35.737],[126.626,35.928],[126.436,36.131],[126.361,36.627],[125.96,36.722],[126.39,36.958],[126.685,36.838],[126.799,36.946],[126.786,37.073],[126.442,37.474],[126.391,37.614],[127.67,37.209],[128.041,36.56],[128.164,34.799],[127.97,34.837]]]}},{"type":"Feature","properties":{"name":"Silla","name_zh":"新罗","focus":false,"label":[128.58,36.78],"area":7.7,"color":"#5f87a3"},"geometry":{"type":"Polygon","coordinates":[[[127.956,38.694],[128.451,38.255],[129.129,37.307],[129.249,37.008],[129.235,36.245],[129.177,35.958],[129.241,35.907],[129.466,35.927],[129.285,35.507],[128.917,35.029],[128.808,35.01],[128.552,35.105],[128.438,35.06],[128.164,34.799],[128.041,36.56],[127.67,37.209],[126.391,37.614],[126.209,37.754],[125.909,37.511],[125.741,37.784],[125.561,37.835],[125.269,37.484],[125.076,37.77],[124.769,37.935],[124.693,38.139],[124.736,38.279],[124.929,38.464],[125.268,38.567],[125.293,38.688],[127.404,39.075],[127.956,38.694]]]}},{"type":"Feature","properties":{"name":"Yamato","name_zh":"倭","focus":false,"label":[138.33,35.82],"area":23.0,"color":"#7d6b5a"},"geometry":{"type":"MultiPolygon","coordinates":[[[[130.554,30.969],[130.674,31.211],[130.732,31.478],[130.581,31.528],[130.474,31.439],[130.404,31.229],[130.232,31.026],[130.086,31.121],[130.06,31.216],[130.205,31.426],[130.219,31.559],[130.058,31.972],[130.443,32.283],[130.496,32.557],[130.257,32.912],[130.107,32.93],[129.845,32.587],[129.733,32.637],[129.63,32.866],[129.46,32.986],[129.343,33.151],[129.528,33.297],[129.858,33.26],[130.176,33.337],[130.426,33.674],[130.644,33.7],[130.859,33.675],[130.971,33.503],[131.092,33.427],[131.286,33.39],[131.568,33.486],[131.669,33.308],[131.413,33.111],[131.795,32.807],[131.83,32.693],[131.562,32.432],[131.453,32.247],[131.319,31.511],[131.21,31.352],[130.959,31.193],[130.744,30.887],[130.579,30.906],[130.554,30.969]]],[[[132.467,32.757],[132.342,33.106],[132.121,33.347],[132.449,33.519],[132.784,33.907],[132.968,33.793],[133.245,33.8],[133.462,33.883],[133.805,34.176],[134.01,34.189],[134.54,34.012],[134.609,33.898],[134.519,33.65],[133.998,33.148],[133.726,33.376],[133.516,33.394],[133.24,33.299],[133.154,33.216],[132.969,32.765],[132.9,32.669],[132.698,32.548],[132.467,32.757]]],[[[137.334,37.273],[137.013,37.037],[136.983,36.833],[137.045,36.668],[137.176,36.643],[137.464,36.853],[138.492,37.301],[138.698,37.448],[138.856,37.735],[139.197,37.92],[139.353,38.067],[139.478,38.325],[140.872,37.917],[140.982,37.268],[140.963,36.956],[140.655,36.618],[140.546,36.287],[140.555,35.969],[140.834,35.677],[140.394,35.409],[140.316,35.033],[139.83,34.835],[139.788,34.962],[140.002,35.497],[139.913,35.554],[139.682,35.445],[139.422,35.165],[139.208,35.165],[139.052,35.024],[139.022,34.688],[138.863,34.567],[138.779,34.579],[138.749,34.649],[138.751,34.922],[138.683,34.992],[138.45,34.902],[138.295,34.763],[138.149,34.527],[137.759,34.552],[137.248,34.481],[137.041,34.728],[136.733,34.874],[136.616,34.759],[136.507,34.518],[136.898,34.258],[136.766,34.169],[136.393,34.111],[136.199,34.003],[135.755,33.342],[135.062,33.69],[134.969,34.134],[135.236,34.35],[135.317,34.471],[135.286,34.598],[135.205,34.617],[134.935,34.54],[134.427,34.628],[133.825,34.385],[133.589,34.442],[132.481,34.129],[132.386,34.268],[132.183,34.287],[131.997,34.09],[131.994,33.804],[131.654,33.911],[130.899,33.903],[130.779,33.966],[130.892,34.246],[131.334,34.291],[131.672,34.501],[132.662,35.38],[132.98,35.444],[133.006,35.254],[133.804,35.427],[134.755,35.531],[135.156,35.646],[135.188,35.443],[135.357,35.322],[135.727,35.45],[135.928,35.603],[135.977,35.972],[136.668,36.667],[136.64,37.17],[136.721,37.265],[137.309,37.432],[137.334,37.273]]]]}},{"type":"Feature","properties":{"name":"minor states under Indian influence","name_zh":"","focus":false,"label":[101.02,6.32],"area":5.0,"color":"#7272a8"},"geometry":{"type":"Polygon","coordinates":[[[100.301,7.886],[100.344,7.44],[100.539,7.048],[100.614,6.978],[100.975,6.852],[101.217,6.802],[101.427,6.828],[101.559,6.739],[101.679,6.464],[102.089,6.143],[102.325,6.099],[102.802,5.56],[103.212,5.0],[100.393,5.0],[100.139,6.177],[100.221,6.52],[100.154,6.603],[99.969,6.507],[99.833,6.538],[99.662,6.71],[99.61,6.938],[99.639,7.065],[99.571,7.262],[99.468,7.338],[99.293,7.319],[99.118,7.642],[100.301,7.886]]]}},{"type":"Feature","properties":{"name":"Sasanian Empire","name_zh":"萨珊","focus":false,"label":[63.58,34.57],"area":100.2,"color":"#9a8a4a"},"geometry":{"type":"Polygon","coordinates":[[[60.0,40.64],[61.214,41.105],[61.956,41.29],[62.698,39.992],[65.017,38.508],[66.779,38.044],[67.057,37.116],[67.243,32.015],[66.432,25.488],[66.3,25.494],[65.768,25.309],[64.851,25.205],[64.424,25.173],[64.238,25.21],[64.059,25.401],[63.65,25.336],[63.403,25.164],[62.449,25.162],[61.813,25.053],[61.343,25.026],[60.858,25.095],[60.479,25.298],[60.0,25.322],[60.0,40.64]]]}},{"type":"Feature","properties":{"name":"Ainu","name_zh":"","focus":false,"label":[143.26,43.52],"area":18.1,"color":"#7272a8"},"geometry":{"type":"MultiPolygon","coordinates":[[[[140.099,41.945],[139.852,42.035],[139.777,42.112],[139.711,42.477],[139.973,42.651],[140.499,42.896],[140.516,43.057],[140.373,43.185],[140.498,43.32],[140.598,43.326],[140.896,43.134],[141.064,43.096],[141.303,43.187],[141.301,43.72],[141.709,43.914],[141.745,44.628],[141.566,44.969],[141.522,45.182],[141.597,45.279],[141.875,45.435],[143.02,44.463],[143.79,44.027],[144.613,43.842],[144.75,43.881],[145.139,44.178],[145.347,44.243],[145.059,43.785],[145.448,43.169],[144.994,42.937],[144.754,42.866],[144.59,42.859],[144.37,42.949],[144.166,42.942],[144.002,42.877],[143.508,42.42],[143.33,42.196],[143.213,41.926],[143.033,41.958],[141.928,42.501],[141.721,42.539],[141.396,42.519],[140.929,42.255],[140.86,42.39],[140.693,42.55],[140.54,42.537],[140.223,42.363],[140.245,42.228],[140.767,42.005],[141.155,41.749],[140.979,41.652],[140.588,41.677],[140.268,41.324],[140.112,41.273],[140.012,41.381],[139.977,41.503],[140.124,41.792],[140.099,41.945]]],[[[146.124,43.459],[146.08,43.518],[146.226,43.525],[146.205,43.481],[146.124,43.459]]],[[[146.904,43.839],[146.655,43.704],[146.598,43.732],[146.599,43.793],[146.842,43.874],[146.904,43.839]]],[[[146.344,44.421],[146.568,44.438],[146.508,44.358],[146.102,44.243],[145.93,44.119],[145.779,43.928],[145.595,43.858],[145.554,43.65],[145.437,43.716],[145.409,43.835],[145.744,44.051],[146.127,44.507],[146.344,44.421]]],[[[148.582,45.316],[148.265,45.213],[147.868,44.971],[147.762,44.938],[147.62,44.966],[147.585,44.918],[147.622,44.897],[147.548,44.812],[147.291,44.666],[147.209,44.55],[147.021,44.507],[146.948,44.408],[146.84,44.415],[146.846,44.476],[147.153,44.673],[147.111,44.793],[147.479,44.974],[147.504,45.043],[147.656,45.075],[147.763,45.189],[147.894,45.223],[147.856,45.356],[147.932,45.421],[148.0,45.273],[148.069,45.248],[148.321,45.27],[148.7,45.52],[148.856,45.474],[148.825,45.334],[148.582,45.316]]],[[[149.437,45.583],[149.667,45.85],[149.856,45.923],[150.0,46.045],[150.0,45.831],[149.684,45.633],[149.437,45.583]]],[[[142.944,51.961],[142.943,51.617],[143.074,51.267],[143.34,50.885],[143.633,50.234],[144.038,49.508],[144.539,48.753],[143.598,49.233],[143.152,49.258],[142.853,49.127],[142.646,48.657],[142.489,47.901],[142.614,47.459],[142.993,46.953],[143.236,46.863],[143.444,46.571],[143.303,46.011],[143.004,46.577],[142.614,46.712],[142.513,46.699],[142.327,46.563],[141.898,45.914],[141.708,46.139],[141.622,46.558],[141.909,47.073],[141.731,47.471],[141.81,47.675],[142.036,47.959],[141.977,48.284],[141.739,48.807],[141.921,48.943],[142.049,49.354],[142.152,50.89],[142.112,51.219],[142.016,51.43],[141.643,51.813],[141.598,52.216],[141.811,52.628],[141.84,52.96],[141.689,53.165],[141.767,53.272],[142.214,53.299],[142.674,53.54],[142.863,53.34],[143.056,53.061],[143.138,52.856],[143.143,52.511],[143.033,52.312],[142.944,51.961]]]]}},{"type":"Feature","properties":{"name":"Paleo-Siberian hunter-gatherers","name_zh":"","focus":false,"label":[126.77,54.25],"area":223.9,"color":"#7d6b5a","nolabel":true},"geometry":{"type":"MultiPolygon","coordinates":[[[[139.293,57.336],[138.345,56.804],[137.229,55.982],[136.521,55.589],[135.269,55.028],[134.985,54.853],[134.893,54.719],[134.902,54.559],[135.094,54.432],[135.312,54.413],[135.725,54.407],[136.196,54.474],[136.491,54.455],[136.343,53.887],[136.35,53.701],[136.487,53.654],[136.77,53.695],[137.04,53.862],[137.382,53.809],[137.121,53.589],[137.071,53.489],[137.239,53.456],[137.979,53.464],[138.234,53.571],[138.409,53.805],[138.416,54.091],[139.378,54.08],[139.805,53.961],[140.102,53.801],[140.321,53.535],[141.121,53.051],[141.089,52.985],[140.828,52.825],[141.047,52.689],[134.869,52.009],[128.289,50.234],[125.053,50.372],[119.935,51.257],[116.706,54.659],[114.867,58.0],[140.347,58.0],[140.028,57.644],[139.293,57.336]]],[[[99.537,55.281],[93.7,56.484],[78.362,56.41],[65.311,55.046],[60.0,56.229],[60.0,56.559],[62.805,56.955],[65.855,58.0],[104.256,58.0],[99.485,55.658],[99.537,55.281]]]]}},{"type":"Feature","properties":{"name":"Finno-Ugric taiga hunter-gatherers","name_zh":"","focus":false,"label":[62.17,57.48],"area":5.1,"color":"#5f87a3","nolabel":true},"geometry":{"type":"Polygon","coordinates":[[[62.805,56.955],[60.0,56.559],[60.0,58.0],[65.855,58.0],[62.805,56.955]]]}},{"type":"Feature","properties":{"name":"Göktürks","name_zh":"突厥","focus":false,"label":[109.76,44.37],"area":398.0,"color":"#b0805f"},"geometry":{"type":"Polygon","coordinates":[[[129.95,45.286],[129.247,45.186],[127.299,43.238],[125.507,42.598],[125.097,42.957],[123.975,42.957],[123.867,43.052],[121.919,42.681],[119.044,42.31],[118.923,42.096],[116.235,41.576],[110.711,40.885],[107.488,41.115],[104.841,41.231],[103.555,40.734],[102.905,38.879],[102.442,38.879],[101.885,39.806],[101.05,40.084],[100.953,40.029],[100.813,40.31],[98.971,41.0],[96.324,40.655],[94.598,41.115],[92.066,43.302],[90.959,43.549],[91.333,45.92],[80.718,46.436],[82.208,51.329],[93.941,51.095],[105.301,51.212],[127.652,50.261],[129.95,45.286]]]}},{"type":"Feature","properties":{"name":"Funan","name_zh":"扶南","focus":false,"label":[104.92,11.21],"area":10.8,"color":"#a3727a"},"geometry":{"type":"Polygon","coordinates":[[[104.389,11.981],[106.929,11.842],[106.773,10.639],[106.704,10.448],[106.748,10.067],[106.656,9.743],[106.482,9.552],[106.335,9.52],[106.229,9.551],[106.118,9.335],[105.926,9.188],[105.503,9.029],[105.208,8.653],[104.907,8.474],[104.742,8.493],[104.822,9.472],[104.89,9.694],[104.987,9.822],[104.978,9.98],[104.764,10.177],[104.427,10.284],[104.16,10.519],[104.003,10.537],[103.83,10.473],[103.606,10.473],[103.524,10.524],[103.67,10.765],[103.652,10.88],[103.524,11.057],[103.4,11.038],[103.192,10.904],[103.039,10.897],[102.962,11.367],[102.658,12.066],[102.529,12.148],[102.323,12.186],[101.918,12.585],[101.586,12.661],[101.329,12.558],[101.023,12.672],[100.871,12.678],[100.956,13.364],[100.908,13.447],[101.632,13.725],[104.389,11.981]]]}},{"type":"Feature","properties":{"name":"Chauhans","name_zh":"","focus":false,"label":[75.55,28.0],"area":9.4,"color":"#5f87a3"},"geometry":{"type":"Polygon","coordinates":[[[72.627,28.366],[76.921,29.387],[76.935,29.233],[78.541,27.627],[76.309,27.045],[74.117,26.544],[72.627,28.366]]]}},{"type":"Feature","properties":{"name":"Arakan","name_zh":"","focus":false,"label":[92.34,21.76],"area":2.1,"color":"#8a6f9e"},"geometry":{"type":"Polygon","coordinates":[[[92.901,21.608],[93.114,20.591],[92.926,20.348],[92.827,20.424],[92.662,20.404],[92.403,20.613],[92.176,20.886],[91.946,21.362],[91.845,21.908],[91.571,22.543],[92.041,23.115],[92.901,21.608]]]}},{"type":"Feature","properties":{"name":"Dvaravati","name_zh":"堕罗钵底","focus":false,"label":[99.23,11.54],"area":11.1,"color":"#8a6f9e"},"geometry":{"type":"Polygon","coordinates":[[[100.473,13.509],[100.239,13.49],[100.04,13.394],[99.93,13.261],[100.023,12.994],[99.833,12.523],[99.895,12.079],[99.186,10.489],[99.071,9.898],[99.118,9.371],[99.195,9.237],[99.298,9.161],[99.724,9.257],[99.837,9.226],[99.898,9.067],[99.865,8.711],[100.009,8.49],[100.131,8.532],[100.301,7.886],[99.118,7.642],[99.024,7.871],[98.889,8.017],[98.544,8.264],[98.292,8.155],[98.195,8.327],[98.177,8.6],[98.25,8.937],[98.632,10.1],[98.431,10.201],[98.397,10.563],[98.605,10.862],[98.738,11.435],[98.867,11.645],[98.59,11.695],[98.588,11.822],[98.676,12.051],[98.596,12.737],[98.485,13.111],[98.194,13.657],[100.494,14.856],[101.607,15.32],[102.627,14.671],[102.163,13.929],[100.908,13.447],[100.473,13.509]]]}},{"type":"Feature","properties":{"name":"Sui Empire","name_zh":"隋","focus":true,"label":[110.81,29.52],"area":373.5},"geometry":{"type":"MultiPolygon","coordinates":[[[[99.381,37.58],[96.413,38.322],[96.598,39.713],[97.99,39.899],[100.401,39.713],[101.05,40.084],[101.885,39.806],[102.442,38.879],[102.905,38.879],[103.555,40.734],[104.841,41.231],[107.488,41.115],[110.711,40.885],[116.169,40.641],[117.56,40.641],[118.209,40.826],[119.044,42.31],[121.919,42.681],[123.867,43.052],[124.702,42.31],[122.082,40.488],[121.753,40.736],[121.426,40.864],[121.01,40.85],[120.788,40.683],[120.272,40.151],[120.112,40.081],[119.823,40.042],[119.385,39.843],[119.21,39.639],[119.09,39.339],[118.977,39.224],[118.781,39.166],[118.559,39.172],[118.274,38.999],[118.069,39.254],[117.91,39.26],[117.752,39.202],[117.439,38.602],[117.589,38.284],[117.84,38.163],[118.2,38.043],[118.744,38.063],[118.875,37.949],[118.811,37.446],[118.837,37.204],[118.954,37.077],[119.284,37.045],[119.598,37.116],[119.94,37.352],[120.169,37.576],[120.658,37.736],[120.787,37.704],[121.189,37.425],[121.434,37.336],[121.894,37.375],[122.392,37.3],[122.281,36.982],[122.255,36.733],[121.846,36.86],[121.609,36.834],[120.855,36.584],[120.537,36.386],[120.504,36.055],[120.269,35.985],[120.139,36.194],[119.913,36.143],[119.975,35.933],[119.907,35.768],[119.06,35.041],[119.003,34.939],[119.02,34.691],[119.299,34.59],[119.973,34.135],[120.149,33.894],[120.34,33.336],[120.64,33.044],[120.719,32.847],[120.674,32.615],[120.098,31.987],[120.096,31.985],[120.095,31.984],[120.094,31.982],[120.094,31.980],[120.093,31.978],[120.093,31.976],[120.093,31.974],[120.093,31.972],[120.093,31.970],[120.093,31.968],[120.094,31.966],[120.095,31.965],[120.096,31.963],[120.097,31.961],[120.098,31.960],[120.099,31.958],[120.101,31.957],[120.103,31.956],[120.104,31.955],[120.106,31.954],[120.108,31.954],[120.110,31.954],[120.181,31.946],[120.183,31.946],[120.185,31.946],[120.187,31.946],[120.189,31.946],[120.191,31.947],[120.526,32.082],[120.779,32.013],[120.959,31.854],[120.961,31.852],[120.962,31.851],[120.964,31.850],[120.966,31.850],[120.968,31.849],[120.969,31.849],[121.141,31.822],[121.144,31.822],[121.146,31.822],[121.346,31.837],[121.614,31.719],[121.620,31.642],[121.585,31.655],[121.507,31.707],[121.482,31.764],[121.481,31.765],[121.480,31.767],[121.479,31.769],[121.477,31.770],[121.476,31.771],[121.474,31.772],[121.473,31.773],[121.471,31.774],[121.469,31.775],[121.467,31.775],[121.214,31.824],[121.212,31.824],[121.210,31.824],[121.209,31.824],[121.207,31.824],[121.205,31.824],[121.203,31.823],[121.201,31.822],[121.199,31.821],[121.198,31.820],[121.196,31.819],[121.195,31.817],[121.194,31.816],[121.193,31.814],[121.192,31.812],[121.191,31.811],[121.191,31.809],[121.191,31.807],[121.191,31.805],[121.191,31.803],[121.191,31.801],[121.191,31.799],[121.192,31.797],[121.193,31.796],[121.194,31.794],[121.195,31.792],[121.320,31.630],[121.321,31.629],[121.323,31.627],[121.324,31.626],[121.326,31.625],[121.475,31.548],[121.366,31.498],[121.362,31.500],[121.217,31.642],[121.216,31.643],[121.214,31.645],[121.065,31.736],[121.063,31.736],[121.062,31.737],[120.806,31.833],[120.733,31.991],[120.732,31.993],[120.731,31.994],[120.729,31.996],[120.728,31.997],[120.727,31.998],[120.725,32.000],[120.723,32.000],[120.722,32.001],[120.720,32.002],[120.718,32.002],[120.500,32.038],[120.498,32.038],[120.496,32.038],[120.494,32.038],[120.492,32.038],[120.490,32.037],[120.192,31.927],[120.075,31.948],[120.073,31.948],[120.071,31.948],[120.069,31.948],[120.067,31.948],[120.065,31.947],[120.063,31.947],[120.061,31.946],[120.060,31.945],[120.058,31.943],[120.057,31.942],[119.828,31.693],[119.514,31.558],[118.754,32.855],[118.753,32.856],[118.751,32.858],[118.750,32.859],[118.748,32.861],[118.747,32.862],[118.745,32.863],[118.743,32.863],[118.741,32.864],[118.739,32.864],[118.421,32.905],[118.419,32.905],[118.417,32.905],[118.415,32.905],[118.413,32.905],[118.411,32.904],[118.409,32.903],[118.407,32.902],[118.406,32.901],[118.404,32.900],[118.403,32.898],[118.402,32.896],[117.994,32.272],[117.993,32.271],[117.992,32.269],[117.991,32.267],[117.991,32.265],[117.991,32.263],[117.991,32.261],[117.991,32.259],[118.080,31.531],[117.358,30.386],[115.767,31.334],[115.591,31.554],[115.590,31.555],[115.589,31.557],[115.587,31.558],[115.585,31.559],[115.584,31.560],[115.582,31.560],[115.580,31.561],[115.578,31.561],[115.576,31.561],[115.575,31.561],[115.573,31.561],[113.177,31.212],[112.004,31.191],[110.620,32.095],[110.556,32.266],[110.555,32.267],[110.555,32.269],[110.554,32.270],[110.552,32.272],[110.551,32.273],[110.550,32.274],[110.548,32.276],[110.546,32.276],[110.545,32.277],[110.543,32.278],[110.541,32.278],[108.782,32.592],[108.780,32.592],[108.778,32.592],[108.777,32.592],[108.775,32.592],[108.677,32.574],[108.675,32.574],[108.673,32.573],[108.671,32.572],[108.670,32.571],[108.668,32.570],[108.666,32.569],[108.665,32.567],[107.744,31.455],[107.743,31.454],[107.742,31.452],[107.741,31.450],[107.740,31.448],[107.740,31.446],[107.663,30.981],[107.663,30.979],[107.663,30.977],[107.663,30.975],[107.663,30.973],[107.664,30.971],[107.665,30.969],[108.713,28.823],[108.713,28.821],[108.714,28.820],[108.716,28.818],[108.717,28.817],[108.718,28.816],[108.720,28.814],[108.722,28.814],[108.723,28.813],[108.725,28.812],[109.045,28.724],[109.048,28.724],[109.401,28.676],[109.554,28.114],[109.555,28.112],[109.556,28.110],[109.795,27.656],[109.682,27.508],[109.299,27.367],[109.297,27.367],[109.296,27.366],[108.958,27.171],[108.746,27.691],[108.745,27.693],[108.744,27.695],[108.396,28.179],[108.394,28.181],[108.393,28.182],[108.392,28.183],[108.390,28.185],[108.388,28.186],[108.386,28.186],[108.384,28.187],[108.382,28.187],[108.380,28.187],[108.378,28.187],[106.013,28.068],[106.011,28.068],[106.009,28.068],[106.008,28.067],[106.006,28.066],[106.004,28.065],[106.002,28.064],[106.001,28.063],[104.882,26.995],[104.880,26.994],[104.879,26.992],[104.878,26.990],[104.877,26.989],[104.877,26.987],[104.876,26.985],[104.876,26.983],[104.876,26.981],[104.876,26.979],[104.876,26.977],[104.876,26.975],[104.877,26.973],[105.527,25.261],[103.682,26.056],[102.256,25.337],[101.514,24.688],[100.679,24.131],[99.752,27.47],[100.679,32.85],[101.789,37.669],[99.381,37.58]]],[[[121.631,30.792],[121.568,30.71],[121.329,30.690],[121.429,30.772],[121.533,30.821],[121.633,30.833],[121.631,30.792]]],[[[120.608,30.346],[120.504,30.319],[120.504,30.320],[120.502,30.321],[120.500,30.321],[120.498,30.322],[120.496,30.322],[120.494,30.322],[120.492,30.322],[120.490,30.322],[120.488,30.322],[120.486,30.321],[120.441,30.304],[120.334,30.277],[120.308,30.288],[120.456,30.366],[120.618,30.352],[120.608,30.346]]],[[[120.862,30.187],[120.922,30.194],[120.897,30.180],[120.832,30.173],[120.862,30.187]]],[[[121.555,29.109],[121.490,29.154],[121.543,29.215],[121.605,29.222],[121.555,29.109]]],[[[121.259,28.182],[121.250,28.176],[121.220,28.216],[121.219,28.217],[121.218,28.219],[121.216,28.220],[121.214,28.221],[121.213,28.222],[121.211,28.222],[121.209,28.223],[121.207,28.223],[121.205,28.223],[121.203,28.223],[121.201,28.223],[121.199,28.223],[121.197,28.222],[121.195,28.221],[121.194,28.220],[121.192,28.219],[121.191,28.218],[121.129,28.158],[121.076,28.209],[121.112,28.273],[121.155,28.307],[121.207,28.315],[121.253,28.213],[121.254,28.211],[121.255,28.210],[121.257,28.208],[121.258,28.207],[121.260,28.205],[121.261,28.204],[121.263,28.203],[121.265,28.203],[121.267,28.202],[121.268,28.202],[121.259,28.182]]],[[[120.793,27.983],[120.789,27.985],[120.794,27.985],[120.793,27.983]]],[[[119.635,26.693],[119.622,26.728],[119.705,26.708],[119.707,26.708],[119.709,26.708],[119.711,26.708],[119.713,26.708],[119.714,26.708],[119.716,26.709],[119.718,26.709],[119.720,26.710],[119.721,26.711],[119.723,26.713],[119.794,26.777],[119.823,26.704],[119.635,26.693]]],[[[119.436,26.038],[119.441,25.994],[119.411,25.974],[119.332,25.969],[119.273,25.993],[119.217,26.072],[119.436,26.038],[119.436,26.038]]],[[[118.940,25.118],[118.939,25.124],[118.952,25.142],[118.940,25.118]]],[[[118.812,24.849],[118.706,24.789],[118.678,24.820],[118.824,24.875],[118.812,24.849]]],[[[118.407,24.541],[118.407,24.541],[118.405,24.541],[118.403,24.541],[118.401,24.541],[118.399,24.540],[118.398,24.539],[118.396,24.539],[118.394,24.537],[118.334,24.491],[118.288,24.495],[118.286,24.495],[118.284,24.495],[118.283,24.495],[118.281,24.495],[118.279,24.494],[118.277,24.493],[118.275,24.492],[118.274,24.491],[118.272,24.490],[118.271,24.488],[118.270,24.487],[118.269,24.485],[118.268,24.484],[118.201,24.498],[118.201,24.499],[118.201,24.501],[118.200,24.503],[118.199,24.505],[118.198,24.506],[118.197,24.508],[118.196,24.509],[118.195,24.511],[118.193,24.512],[118.114,24.568],[118.112,24.569],[118.111,24.570],[118.109,24.571],[118.107,24.571],[118.105,24.571],[118.103,24.571],[118.101,24.571],[118.099,24.571],[118.097,24.571],[118.095,24.570],[118.093,24.569],[118.091,24.568],[118.090,24.567],[118.088,24.566],[118.087,24.564],[118.086,24.563],[118.085,24.561],[118.068,24.528],[118.032,24.536],[118.033,24.549],[118.098,24.605],[118.189,24.605],[118.285,24.554],[118.287,24.553],[118.289,24.552],[118.291,24.552],[118.293,24.552],[118.295,24.552],[118.297,24.552],[118.299,24.552],[118.413,24.579],[118.436,24.576],[118.407,24.541]]],[[[117.678,23.909],[117.685,23.927],[117.743,23.988],[117.777,23.989],[117.678,23.909]]],[[[117.478,23.748],[117.462,23.793],[117.475,23.816],[117.561,23.816],[117.478,23.748]]],[[[117.202,23.628],[117.302,23.689],[117.314,23.684],[117.321,23.664],[117.202,23.628]]],[[[116.962,23.556],[116.893,23.499],[116.926,23.615],[117.021,23.603],[117.047,23.581],[116.962,23.556]]],[[[116.34,22.913],[116.187,22.888],[116.256,22.953],[116.337,22.922],[116.339,22.921],[116.341,22.921],[116.343,22.921],[116.345,22.921],[116.346,22.921],[116.34,22.913]]],[[[115.706,22.638],[115.511,22.703],[115.512,22.704],[115.513,22.705],[115.515,22.707],[115.575,22.806],[115.637,22.830],[115.822,22.787],[115.706,22.638]]],[[[115.185,22.745],[115.043,22.599],[114.847,22.51],[114.558,22.464],[114.553,22.508],[114.553,22.508],[114.555,22.508],[114.557,22.508],[114.559,22.508],[114.561,22.509],[114.563,22.510],[114.564,22.511],[114.566,22.512],[114.568,22.513],[114.569,22.515],[114.570,22.516],[114.571,22.518],[114.572,22.520],[114.573,22.521],[114.573,22.523],[114.573,22.525],[114.573,22.527],[114.573,22.529],[114.566,22.614],[114.658,22.728],[114.695,22.716],[114.731,22.619],[114.732,22.617],[114.732,22.615],[114.734,22.613],[114.735,22.612],[114.736,22.610],[114.738,22.609],[114.740,22.608],[114.742,22.607],[114.744,22.606],[114.746,22.606],[114.748,22.606],[114.851,22.596],[114.853,22.596],[114.855,22.596],[114.857,22.596],[114.858,22.596],[114.860,22.597],[114.862,22.598],[114.864,22.599],[114.865,22.600],[114.867,22.602],[114.930,22.667],[115.189,22.792],[115.254,22.759],[115.185,22.745]]],[[[113.845,22.463],[113.716,22.482],[113.462,22.773],[113.455,22.763],[113.366,22.887],[113.384,22.895],[113.408,22.849],[113.409,22.847],[113.410,22.845],[113.411,22.844],[113.412,22.843],[113.414,22.841],[113.551,22.740],[113.552,22.739],[113.554,22.738],[113.556,22.738],[113.558,22.737],[113.560,22.737],[113.562,22.737],[113.563,22.737],[113.565,22.737],[113.567,22.737],[113.569,22.738],[113.571,22.738],[113.573,22.739],[113.574,22.740],[113.576,22.742],[113.577,22.743],[113.578,22.744],[113.580,22.746],[113.581,22.748],[113.581,22.750],[113.582,22.751],[113.582,22.753],[113.582,22.755],[113.582,22.757],[113.582,22.759],[113.582,22.761],[113.581,22.763],[113.581,22.765],[113.538,22.859],[113.537,22.860],[113.536,22.862],[113.535,22.863],[113.533,22.865],[113.532,22.866],[113.454,22.929],[113.468,23.042],[113.524,23.081],[113.574,23.083],[113.566,23.022],[113.566,23.020],[113.566,23.019],[113.566,23.017],[113.566,23.015],[113.567,23.013],[113.642,22.794],[113.642,22.792],[113.643,22.790],[113.644,22.789],[113.646,22.787],[113.647,22.786],[113.649,22.784],[113.738,22.719],[113.810,22.596],[113.811,22.595],[113.813,22.593],[113.814,22.592],[113.816,22.590],[113.818,22.589],[113.938,22.521],[113.845,22.463]]],[[[113.283,22.03],[113.096,21.979],[113.013,22.009],[113.027,22.109],[113.071,22.157],[113.132,22.064],[113.133,22.062],[113.134,22.060],[113.136,22.059],[113.137,22.058],[113.139,22.057],[113.141,22.056],[113.143,22.055],[113.145,22.055],[113.147,22.055],[113.149,22.055],[113.151,22.055],[113.268,22.068],[113.269,22.068],[113.271,22.068],[113.273,22.069],[113.275,22.070],[113.276,22.071],[113.278,22.072],[113.353,22.130],[113.283,22.03]]],[[[112.815,21.826],[112.782,21.791],[112.781,21.791],[112.779,21.791],[112.777,21.791],[112.775,21.790],[112.773,21.790],[112.771,21.789],[112.770,21.788],[112.768,21.786],[112.767,21.785],[112.738,21.754],[112.039,21.659],[111.900,21.722],[111.963,21.823],[112.298,21.721],[112.300,21.721],[112.302,21.721],[112.304,21.721],[112.306,21.721],[112.308,21.721],[112.310,21.721],[112.312,21.722],[112.313,21.723],[112.315,21.724],[112.400,21.784],[112.402,21.785],[112.403,21.787],[112.404,21.788],[112.405,21.790],[112.406,21.792],[112.407,21.794],[112.408,21.795],[112.408,21.797],[112.408,21.799],[112.408,21.801],[112.406,21.866],[112.407,21.865],[112.408,21.864],[112.410,21.863],[112.575,21.759],[112.577,21.758],[112.578,21.757],[112.580,21.756],[112.582,21.756],[112.584,21.756],[112.586,21.756],[112.588,21.756],[112.590,21.756],[112.592,21.757],[112.594,21.757],[112.596,21.758],[112.597,21.759],[112.599,21.761],[112.600,21.762],[112.674,21.844],[112.799,21.916],[112.832,21.898],[112.815,21.826]]],[[[111.536,21.493],[111.434,21.461],[111.324,21.466],[111.324,21.466],[111.326,21.467],[111.328,21.468],[111.329,21.469],[111.401,21.515],[111.574,21.535],[111.536,21.493]]],[[[111.085,21.479],[111.028,21.461],[111.038,21.488],[111.285,21.468],[111.085,21.479]]],[[[110.417,21.252],[110.424,21.277],[110.431,21.250],[110.417,21.252]]],[[[109.928,20.244],[109.711,20.568],[109.602,20.879],[109.608,21.057],[109.786,21.406],[109.779,21.482],[109.714,21.510],[109.762,21.521],[109.814,21.468],[109.816,21.467],[109.817,21.466],[109.819,21.465],[109.821,21.464],[109.823,21.463],[109.825,21.463],[109.905,21.448],[109.896,21.391],[109.773,21.356],[109.771,21.355],[109.769,21.354],[109.767,21.353],[109.766,21.352],[109.764,21.351],[109.763,21.349],[109.762,21.348],[109.761,21.346],[109.760,21.344],[109.759,21.342],[109.759,21.340],[109.740,21.235],[109.665,21.143],[109.664,21.142],[109.663,21.140],[109.662,21.138],[109.661,21.136],[109.661,21.135],[109.661,21.133],[109.661,21.131],[109.661,21.129],[109.661,21.127],[109.661,21.125],[109.682,21.050],[109.642,20.921],[109.642,20.919],[109.642,20.917],[109.642,20.915],[109.642,20.913],[109.642,20.911],[109.642,20.909],[109.643,20.908],[109.644,20.906],[109.645,20.904],[109.781,20.711],[109.772,20.623],[109.772,20.621],[109.772,20.619],[109.772,20.617],[109.772,20.615],[109.773,20.613],[109.774,20.611],[109.775,20.610],[109.843,20.503],[109.844,20.501],[109.845,20.499],[109.847,20.498],[109.849,20.497],[109.947,20.434],[109.946,20.424],[109.887,20.432],[109.885,20.432],[109.883,20.432],[109.881,20.432],[109.880,20.432],[109.878,20.431],[109.876,20.431],[109.874,20.430],[109.873,20.429],[109.871,20.427],[109.870,20.426],[109.868,20.424],[109.867,20.423],[109.866,20.421],[109.866,20.419],[109.865,20.418],[109.865,20.416],[109.865,20.414],[109.862,20.365],[109.862,20.363],[109.862,20.361],[109.862,20.359],[109.862,20.357],[109.863,20.356],[109.864,20.354],[109.865,20.352],[109.866,20.351],[109.922,20.282],[109.923,20.280],[109.925,20.279],[109.927,20.278],[109.928,20.277],[109.930,20.276],[109.932,20.275],[109.934,20.275],[110.013,20.261],[109.928,20.244]]],[[[109.558,21.577],[109.547,21.660],[109.559,21.665],[109.651,21.537],[109.558,21.577]]],[[[109.117,21.399],[108.813,21.493],[108.620,21.738],[108.757,21.615],[108.759,21.613],[108.760,21.612],[108.762,21.611],[108.764,21.611],[108.766,21.610],[108.768,21.610],[108.770,21.610],[109.022,21.606],[109.085,21.574],[109.106,21.539],[109.062,21.448],[109.062,21.446],[109.061,21.444],[109.061,21.442],[109.061,21.440],[109.061,21.438],[109.061,21.436],[109.061,21.434],[109.062,21.433],[109.063,21.431],[109.063,21.429],[109.065,21.427],[109.066,21.426],[109.067,21.424],[109.069,21.423],[109.071,21.422],[109.072,21.421],[109.074,21.421],[109.076,21.420],[109.143,21.405],[109.145,21.405],[109.147,21.405],[109.149,21.405],[109.150,21.405],[109.231,21.416],[109.117,21.399]]],[[[108.554,21.823],[108.508,21.803],[108.501,21.827],[108.512,21.881],[108.579,21.876],[108.594,21.771],[108.554,21.823]]],[[[108.387,21.53],[108.265,21.473],[107.9,21.479],[107.417,21.185],[107.465,20.976],[107.374,20.88],[106.807,20.905],[106.746,20.815],[106.771,20.638],[106.38,20.11],[105.964,19.88],[105.843,19.702],[105.532,18.844],[106.364,18.007],[106.433,17.55],[106.622,17.328],[107.114,16.954],[107.375,16.691],[106.451,16.187],[105.416,17.407],[104.381,18.327],[103.234,20.122],[103.833,20.143],[106.141,24.347],[106.506,24.278],[106.203,23.793],[106.201,23.791],[106.201,23.789],[106.041,23.325],[106.040,23.323],[106.040,23.321],[106.040,23.319],[106.040,23.317],[106.040,23.316],[106.040,23.314],[106.041,23.312],[106.041,23.310],[106.042,23.308],[106.043,23.307],[107.484,21.312],[107.486,21.310],[107.487,21.309],[107.489,21.307],[107.490,21.306],[107.492,21.305],[107.494,21.305],[107.496,21.304],[107.498,21.304],[107.500,21.304],[107.502,21.304],[107.504,21.304],[107.506,21.304],[107.508,21.305],[107.713,21.386],[107.715,21.387],[107.717,21.388],[107.719,21.389],[107.818,21.476],[108.068,21.505],[108.070,21.505],[108.072,21.506],[108.074,21.507],[108.150,21.543],[108.244,21.538],[108.246,21.538],[108.248,21.538],[108.250,21.538],[108.252,21.539],[108.254,21.539],[108.255,21.540],[108.257,21.541],[108.259,21.542],[108.260,21.544],[108.261,21.545],[108.262,21.547],[108.337,21.664],[108.410,21.607],[108.387,21.53]]],[[[108.576,19.187],[108.629,19.240],[108.618,18.866],[108.618,18.864],[108.618,18.862],[108.681,18.531],[108.681,18.529],[108.682,18.527],[108.683,18.525],[108.684,18.523],[108.685,18.522],[108.686,18.520],[108.688,18.519],[108.690,18.518],[108.691,18.517],[109.019,18.349],[109.021,18.348],[109.023,18.347],[109.024,18.347],[109.335,18.279],[109.508,18.200],[109.429,18.096],[108.651,18.482],[108.576,19.187]]],[[[110.262,18.625],[110.228,18.613],[110.260,18.636],[110.273,18.640],[110.262,18.625]]],[[[112.402,21.944],[112.408,21.941],[112.404,21.907],[112.402,21.944]]]]}},{"type":"Feature","properties":{"name":"Chen","name_zh":"陈","focus":true,"label":[112.41,26.57],"area":124.3,"color":"#b8862b"},"geometry":{"type":"MultiPolygon","coordinates":[[[[122.331,29.934],[122.401,29.95],[122.394,29.846],[122.367,29.852],[122.331,29.934]]],[[[121.969,30.143],[122.11,30.139],[122.284,30.067],[122.322,30.031],[122.295,29.963],[122.281,29.943],[122.157,30.0],[122.024,30.013],[121.977,30.063],[121.969,30.143]]],[[[122.042,29.735],[122.062,29.772],[122.119,29.782],[122.169,29.66],[122.042,29.735]]],[[[104.896,26.981],[106.015,28.049],[108.38,28.168],[108.728,27.684],[108.949,27.143],[109.306,27.349],[109.695,27.492],[109.819,27.655],[109.574,28.12],[109.417,28.695],[109.051,28.744],[108.731,28.832],[107.683,30.978],[107.76,31.443],[108.681,32.555],[108.779,32.573],[110.538,32.259],[110.605,32.081],[110.203,29.546],[111.486,29.846],[112.783,29.366],[113.32,29.551],[113.179,31.193],[115.576,31.542],[115.754,31.319],[117.365,30.359],[118.101,31.527],[118.011,32.262],[118.419,32.886],[118.737,32.845],[119.506,31.533],[119.84,31.677],[120.072,31.929],[120.194,31.907],[120.497,32.019],[120.715,31.983],[120.792,31.818],[121.055,31.719],[121.204,31.628],[121.351,31.484],[121.66,31.319],[121.786,31.162],[121.877,30.917],[121.769,30.87],[121.528,30.841],[121.419,30.79],[121.309,30.699],[120.999,30.558],[120.897,30.392],[120.821,30.354],[120.452,30.387],[120.263,30.287],[120.352,30.248],[120.494,30.303],[120.642,30.134],[120.904,30.161],[121.159,30.301],[121.258,30.303],[121.432,30.226],[121.678,29.979],[122.082,29.87],[121.905,29.779],[121.56,29.521],[121.578,29.495],[121.689,29.511],[121.887,29.627],[121.941,29.605],[121.968,29.49],[121.917,29.135],[121.853,29.128],[121.79,29.224],[121.716,29.255],[121.534,29.235],[121.461,29.151],[121.664,29.01],[121.679,28.953],[121.609,28.903],[121.662,28.851],[121.63,28.767],[121.519,28.711],[121.478,28.643],[121.609,28.292],[121.509,28.322],[121.354,28.229],[121.272,28.222],[121.219,28.337],[121.147,28.327],[121.097,28.287],[120.958,28.037],[120.892,28.003],[120.765,28.006],[120.764,27.977],[120.832,27.937],[120.832,27.891],[120.686,27.745],[120.664,27.639],[120.593,27.582],[120.629,27.482],[120.607,27.412],[120.384,27.155],[120.276,27.092],[120.137,26.884],[120.086,26.671],[119.967,26.586],[119.882,26.61],[119.802,26.812],[119.71,26.728],[119.591,26.757],[119.639,26.625],[119.725,26.609],[119.784,26.546],[119.881,26.334],[119.692,26.236],[119.463,26.054],[119.173,26.1],[119.261,25.977],[119.329,25.949],[119.418,25.955],[119.5,26.009],[119.618,26.003],[119.648,25.918],[119.553,25.698],[119.54,25.595],[119.622,25.391],[119.592,25.368],[119.419,25.458],[119.18,25.449],[119.149,25.411],[119.167,25.359],[119.285,25.232],[119.235,25.205],[118.974,25.205],[118.917,25.128],[118.955,25.004],[118.909,24.928],[118.644,24.829],[118.719,24.746],[118.657,24.621],[118.56,24.58],[118.412,24.6],[118.295,24.572],[118.195,24.625],[118.091,24.626],[118.015,24.56],[118.005,24.482],[117.852,24.471],[117.879,24.397],[118.024,24.379],[118.056,24.246],[117.839,24.012],[117.735,24.008],[117.668,23.939],[117.628,23.836],[117.464,23.836],[117.44,23.795],[117.462,23.735],[117.416,23.621],[117.367,23.588],[117.331,23.7],[117.3,23.712],[117.082,23.578],[117.03,23.623],[116.912,23.638],[116.86,23.453],[116.683,23.352],[116.698,23.277],[116.669,23.228],[116.54,23.18],[116.519,23.006],[116.47,22.945],[116.345,22.941],[116.252,22.977],[116.157,22.887],[115.852,22.801],[115.636,22.851],[115.562,22.823],[115.498,22.718],[115.382,22.718],[115.19,22.815],[114.919,22.684],[114.853,22.616],[114.75,22.626],[114.711,22.733],[114.651,22.752],[114.546,22.621],[114.554,22.528],[114.346,22.592],[114.276,22.547],[114.287,22.462],[114.335,22.396],[114.292,22.371],[114.207,22.195],[114.138,22.268],[114.178,22.331],[114.034,22.375],[113.937,22.365],[113.902,22.396],[113.896,22.428],[114.006,22.506],[113.828,22.607],[113.754,22.733],[113.661,22.801],[113.586,23.02],[113.598,23.105],[113.518,23.101],[113.45,23.054],[113.433,22.921],[113.52,22.851],[113.563,22.757],[113.426,22.858],[113.394,22.922],[113.336,22.896],[113.553,22.594],[113.551,22.406],[113.588,22.35],[113.548,22.222],[113.365,22.164],[113.266,22.088],[113.149,22.075],[113.074,22.19],[113.009,22.118],[112.983,21.938],[112.953,21.907],[112.903,21.881],[112.799,21.94],[112.662,21.86],[112.586,21.776],[112.421,21.88],[112.43,21.953],[112.381,21.979],[112.389,21.801],[112.304,21.741],[111.955,21.847],[111.873,21.717],[111.773,21.715],[111.602,21.559],[111.395,21.535],[111.319,21.486],[111.025,21.51],[110.996,21.43],[110.77,21.385],[110.567,21.214],[110.458,21.23],[110.439,21.299],[110.41,21.302],[110.374,21.172],[110.297,21.09],[110.385,21.093],[110.426,21.06],[110.521,21.083],[110.538,21.018],[110.504,20.968],[110.421,21.006],[110.28,21.001],[110.264,21.025],[110.301,21.074],[110.281,21.093],[110.194,21.037],[110.155,20.945],[110.186,20.859],[110.365,20.837],[110.388,20.79],[110.317,20.671],[110.511,20.518],[110.517,20.46],[110.449,20.355],[110.344,20.294],[110.122,20.263],[109.938,20.295],[109.882,20.364],[109.885,20.413],[109.963,20.402],[109.969,20.444],[109.86,20.514],[109.792,20.621],[109.802,20.717],[109.662,20.916],[109.703,21.05],[109.681,21.131],[109.759,21.227],[109.779,21.337],[109.914,21.376],[109.928,21.465],[109.829,21.483],[109.769,21.544],[109.686,21.524],[109.567,21.689],[109.525,21.674],[109.544,21.537],[109.347,21.454],[109.148,21.425],[109.081,21.44],[109.129,21.541],[109.1,21.59],[109.027,21.626],[108.771,21.63],[108.615,21.77],[108.597,21.895],[108.496,21.903],[108.481,21.827],[108.525,21.671],[108.502,21.633],[108.444,21.607],[108.333,21.694],[108.246,21.558],[108.146,21.564],[108.066,21.525],[107.81,21.496],[107.706,21.405],[107.501,21.324],[106.06,23.319],[106.22,23.783],[106.539,24.293],[106.141,24.368],[105.852,24.462],[104.896,26.981]]],[[[114.043,22.333],[113.997,22.21],[113.877,22.21],[113.838,22.241],[114.043,22.333]]],[[[120.113,31.974],[120.876,32.806],[120.858,32.657],[120.99,32.566],[121.293,32.457],[121.4,32.372],[121.407,32.202],[121.489,32.121],[121.751,31.992],[121.832,31.899],[121.866,31.703],[121.68,31.712],[121.35,31.858],[121.145,31.842],[120.973,31.869],[120.789,32.032],[120.525,32.104],[120.184,31.966],[120.113,31.974]]],[[[121.211,31.805],[121.464,31.756],[121.492,31.694],[121.576,31.638],[121.808,31.552],[121.862,31.492],[121.78,31.463],[121.519,31.549],[121.336,31.643],[121.211,31.805]]],[[[120.072,23.149],[120.142,23.397],[120.132,23.652],[120.629,24.478],[120.836,24.723],[121.04,25.032],[121.362,25.158],[121.439,25.238],[121.212,24.801],[120.838,24.369],[120.724,24.019],[120.512,23.622],[120.304,23.355],[120.072,23.149]]],[[[121.131,28.062],[121.134,28.135],[121.205,28.204],[121.25,28.145],[121.251,28.086],[121.131,28.062]]],[[[119.696,25.59],[119.722,25.638],[119.777,25.653],[119.838,25.591],[119.813,25.51],[119.832,25.479],[119.746,25.41],[119.7,25.432],[119.72,25.548],[119.696,25.59]]],[[[118.287,24.476],[118.34,24.471],[118.407,24.522],[118.451,24.455],[118.432,24.414],[118.295,24.436],[118.287,24.476]]],[[[118.076,24.501],[118.103,24.552],[118.182,24.496],[118.149,24.436],[118.09,24.446],[118.076,24.501]]],[[[112.712,21.697],[112.782,21.772],[112.862,21.752],[112.802,21.697],[112.771,21.581],[112.712,21.697]]],[[[112.525,21.623],[112.559,21.674],[112.647,21.71],[112.643,21.639],[112.525,21.623]]],[[[108.65,19.265],[108.79,19.417],[109.233,19.722],[109.232,19.753],[109.177,19.768],[109.219,19.843],[109.314,19.904],[109.509,19.903],[109.584,19.97],[109.651,19.984],[109.905,19.962],[110.078,19.992],[110.172,20.053],[110.371,20.017],[110.394,20.059],[110.571,19.987],[110.598,20.097],[110.652,20.137],[110.808,20.015],[110.888,19.991],[110.97,19.882],[111.013,19.655],[110.82,19.555],[110.641,19.292],[110.571,19.169],[110.451,18.747],[110.399,18.698],[110.251,18.655],[110.064,18.514],[110.067,18.447],[110.02,18.416],[109.814,18.395],[109.68,18.247],[109.519,18.218],[109.342,18.299],[109.029,18.367],[108.701,18.535],[108.638,18.866],[108.65,19.265]]],[[[107.546,21.229],[107.564,21.22],[107.602,21.216],[107.556,21.176],[107.546,21.229]]]]}},{"type":"Feature","properties":{"name":"Western Liang","name_zh":"西梁","focus":true,"label":[111.79,30.51],"area":5.3,"color":"#c99a6a"},"geometry":{"type":"Polygon","coordinates":[[[110.181,29.539],[110.605,32.082],[111.999,31.171],[113.179,31.193],[113.335,29.557],[112.785,29.365],[111.484,29.845],[110.181,29.539]]]}}]}