{"type":"FeatureCollection","features":[{"type":"Feature","properties":{"name":"Hainan","name_zh":"","focus":false,"label":[109.47,19.04],"area":2.6,"color":"#5f87a3"},"geometry":{"type":"Polygon","coordinates":[[[109.429,18.096],[108.651,18.482],[108.576,19.187],[109.198,19.684],[109.420,19.659],[109.550,19.913],[109.915,19.800],[110.060,19.940],[110.617,20.017],[110.885,19.706],[110.612,19.471],[110.427,19.229],[110.298,18.898],[110.361,18.765],[110.262,18.625],[109.669,18.414],[109.429,18.096]]]}},{"type":"Feature","properties":{"name":"Champa","name_zh":"林邑","focus":false,"label":[108.56,13.29],"area":8.9,"color":"#9a8a4a"},"geometry":{"type":"Polygon","coordinates":[[[106.451,16.187],[107.375,16.691],[107.809,16.282],[108.095,16.251],[108.236,16.080],[108.363,15.623],[108.498,15.363],[108.786,15.090],[108.917,14.792],[109.307,12.906],[109.068,12.486],[109.073,11.635],[108.897,11.342],[108.695,11.145],[108.164,10.966],[107.938,10.806],[107.672,10.526],[107.412,10.367],[107.265,10.347],[107.035,10.436],[106.773,10.639],[106.929,11.842],[107.897,12.568],[107.897,13.681],[107.462,14.988],[106.451,16.187]]]}},{"type":"Feature","properties":{"name":"Mon state","name_zh":"孟人诸国","focus":false,"label":[96.03,17.74],"area":8.4,"color":"#4f8f86"},"geometry":{"type":"Polygon","coordinates":[[[97.351,16.527],[97.214,16.939],[96.881,17.345],[96.770,17.332],[96.734,16.887],[96.662,16.697],[96.469,16.512],[95.713,16.155],[95.552,15.875],[95.329,15.677],[95.222,15.804],[95.220,16.001],[95.124,15.995],[94.972,15.835],[94.828,15.842],[94.753,15.937],[94.819,16.210],[94.415,16.076],[94.304,15.948],[94.144,16.005],[94.143,16.215],[94.392,16.908],[94.464,17.264],[94.420,18.140],[94.244,18.586],[97.008,19.198],[97.443,19.102],[97.734,18.376],[97.418,16.482],[97.351,16.527]]]}},{"type":"Feature","properties":{"name":"Pyu state","name_zh":"骠国","focus":false,"label":[95.34,20.48],"area":8.9,"color":"#4f8f86"},"geometry":{"type":"Polygon","coordinates":[[[96.699,19.124],[94.244,18.586],[93.965,19.194],[94.298,22.296],[94.878,22.683],[95.459,22.731],[95.895,22.635],[96.475,21.763],[96.699,19.124]]]}},{"type":"Feature","properties":{"name":"Abbasid Caliphate","name_zh":"阿拔斯王朝","focus":false,"label":[66.63,34.3],"area":213.9,"color":"#7272a8"},"geometry":{"type":"Polygon","coordinates":[[[68.864,24.480],[68.072,23.675],[68.046,23.764],[67.692,23.814],[67.486,23.928],[67.315,24.092],[67.204,24.588],[67.153,24.651],[66.654,24.783],[66.700,25.114],[66.620,25.317],[66.432,25.488],[66.300,25.494],[65.768,25.309],[64.851,25.205],[64.424,25.173],[64.238,25.210],[64.059,25.401],[63.650,25.336],[63.403,25.164],[62.449,25.162],[61.813,25.053],[61.343,25.026],[60.858,25.095],[60.479,25.298],[60.0,25.322],[60.0,38.363],[61.106,38.699],[61.452,39.274],[60.876,40.655],[60.0,41.532],[60.0,44.654],[61.452,45.259],[63.523,45.028],[67.206,41.691],[68.587,40.655],[69.968,40.540],[70.889,41.000],[71.695,40.885],[73.191,39.965],[73.191,37.317],[73.651,35.246],[72.848,33.345],[72.270,32.369],[72.040,30.182],[69.739,26.383],[68.864,24.480]]]}},{"type":"Feature","properties":{"name":"Hindu states","name_zh":"","focus":false,"label":[71.86,27.67],"area":77.9,"color":"#9a8a4a"},"geometry":{"type":"MultiPolygon","coordinates":[[[[80.089,15.175],[80.169,13.891],[80.075,13.669],[80.319,13.333],[80.313,13.104],[79.061,13.033],[78.946,16.486],[78.715,17.522],[78.946,19.018],[78.830,20.399],[84.903,22.849],[84.726,21.905],[84.726,20.885],[85.379,19.605],[85.113,19.442],[84.262,18.455],[83.987,18.207],[83.684,18.083],[83.381,17.710],[82.353,17.085],[82.234,16.647],[82.081,16.462],[81.788,16.328],[81.596,16.302],[81.369,16.346],[81.253,16.225],[81.087,15.826],[80.963,15.723],[80.735,15.837],[80.459,15.773],[80.300,15.645],[80.089,15.175]]],[[[79.047,27.760],[79.246,27.811],[79.280,27.630],[79.047,27.760]]],[[[70.045,22.777],[69.391,22.839],[68.790,23.028],[68.372,23.326],[68.072,23.675],[68.864,24.480],[69.739,26.383],[72.040,30.182],[72.270,32.369],[72.848,33.345],[76.759,33.183],[76.759,31.908],[77.104,31.333],[77.564,31.103],[78.485,30.527],[79.061,28.801],[79.148,28.336],[77.060,29.420],[72.627,28.366],[74.117,26.544],[76.105,26.998],[70.380,22.860],[70.045,22.777]]]]}},{"type":"Feature","properties":{"name":"Vallabhi","name_zh":"","focus":false,"label":[71.57,22.42],"area":8.3,"color":"#6f9460"},"geometry":{"type":"Polygon","coordinates":[[[73.915,23.111],[72.693,22.104],[72.319,22.115],[72.127,21.828],[72.131,21.746],[72.288,21.549],[72.256,21.352],[72.120,21.155],[71.894,20.989],[71.024,20.657],[70.855,20.650],[70.467,20.777],[70.209,20.947],[69.126,21.968],[68.894,22.285],[69.492,22.248],[69.968,22.351],[70.176,22.478],[70.410,22.752],[70.380,22.860],[72.265,24.223],[73.915,23.111]]]}},{"type":"Feature","properties":{"name":"Rashtrakuta state","name_zh":"","focus":false,"label":[76.3,15.94],"area":42.4,"color":"#7d6b5a"},"geometry":{"type":"Polygon","coordinates":[[[75.210,12.102],[74.733,13.683],[74.401,14.419],[73.841,15.390],[73.409,16.558],[73.064,18.031],[72.853,19.244],[72.759,20.057],[72.864,20.311],[75.032,20.514],[78.830,20.399],[78.946,19.018],[78.715,17.522],[78.946,16.486],[79.061,13.033],[77.680,12.918],[75.734,11.253],[75.210,12.102]]]}},{"type":"Feature","properties":{"name":"Nan-Zhao","name_zh":"南诏","focus":false,"label":[104.93,22.93],"area":34.8,"color":"#a07d5a"},"geometry":{"type":"Polygon","coordinates":[[[104.035,26.384],[104.841,26.039],[105.301,26.039],[106.222,26.614],[108.754,26.154],[108.294,24.312],[108.524,23.852],[108.409,23.161],[107.258,22.701],[105.762,21.895],[104.611,20.284],[104.370,19.482],[102.079,19.824],[100.698,19.478],[100.122,20.169],[100.352,20.744],[101.964,22.586],[102.424,24.888],[104.035,26.384]]]}},{"type":"Feature","properties":{"name":"Dvaravati","name_zh":"堕罗钵底","focus":false,"label":[99.6,13.58],"area":5.2,"color":"#8a6f9e"},"geometry":{"type":"Polygon","coordinates":[[[99.777,14.990],[100.583,14.990],[101.273,14.414],[100.908,13.447],[100.473,13.509],[100.239,13.490],[100.040,13.394],[99.930,13.261],[100.023,12.994],[99.977,12.841],[98.654,12.244],[98.596,12.737],[98.485,13.111],[98.198,13.644],[97.979,14.235],[99.777,14.990]]]}},{"type":"Feature","properties":{"name":"Chen-La","name_zh":"真腊","focus":false,"label":[104.88,11.61],"area":21.2,"color":"#8a6f9e"},"geometry":{"type":"Polygon","coordinates":[[[107.897,13.681],[107.897,12.568],[106.929,11.842],[106.773,10.639],[106.704,10.448],[106.748,10.067],[106.656,9.743],[106.482,9.552],[106.335,9.520],[106.229,9.551],[106.118,9.335],[105.926,9.188],[105.503,9.029],[105.208,8.653],[105.025,8.519],[104.907,8.474],[104.742,8.493],[104.822,9.472],[104.890,9.694],[104.987,9.822],[104.978,9.980],[104.764,10.177],[104.427,10.284],[104.160,10.519],[104.003,10.537],[103.830,10.473],[103.606,10.473],[103.524,10.524],[103.670,10.765],[103.652,10.880],[103.524,11.057],[103.400,11.038],[103.192,10.904],[103.039,10.897],[102.962,11.367],[102.658,12.066],[102.529,12.148],[102.323,12.186],[102.180,12.327],[103.000,13.839],[104.726,14.529],[107.487,14.913],[107.897,13.681]]]}},{"type":"Feature","properties":{"name":"Rajput Clans and Small States","name_zh":"","focus":false,"label":[100.98,18.66],"area":73.2,"color":"#4f8f86"},"geometry":{"type":"Polygon","coordinates":[[[101.273,14.414],[100.583,14.990],[99.777,14.990],[97.979,14.235],[97.822,14.616],[97.742,15.009],[97.573,16.445],[97.418,16.482],[97.734,18.376],[97.443,19.102],[97.008,19.198],[96.699,19.124],[96.475,21.763],[95.895,22.635],[95.459,22.731],[94.878,22.683],[94.298,22.296],[93.965,19.194],[93.839,18.952],[93.457,19.174],[93.814,19.257],[93.723,19.594],[93.334,20.025],[93.065,19.992],[92.894,20.113],[92.921,20.373],[92.827,20.424],[92.662,20.404],[92.403,20.613],[92.176,20.886],[91.946,21.362],[91.845,21.908],[91.651,22.356],[92.987,24.082],[94.483,24.657],[97.936,24.888],[98.396,24.427],[98.281,22.586],[99.432,21.895],[101.429,21.975],[100.352,20.744],[100.122,20.169],[100.698,19.478],[102.079,19.824],[104.370,19.482],[104.266,19.133],[104.381,18.327],[105.416,17.407],[107.487,14.913],[104.726,14.529],[103.000,13.839],[102.180,12.327],[101.918,12.585],[101.723,12.654],[101.586,12.661],[101.329,12.558],[101.023,12.672],[100.871,12.678],[100.956,13.364],[100.908,13.447],[101.273,14.414]]]}},{"type":"Feature","properties":{"name":"Silla","name_zh":"新罗","focus":false,"label":[127.93,37.19],"area":14.7,"color":"#5f87a3"},"geometry":{"type":"Polygon","coordinates":[[[127.671,39.866],[127.440,39.623],[127.276,39.221],[127.404,39.075],[127.956,38.694],[128.451,38.255],[129.129,37.307],[129.249,37.008],[129.235,36.245],[129.177,35.958],[129.241,35.907],[129.466,35.927],[129.285,35.507],[128.917,35.029],[128.808,35.010],[128.552,35.105],[128.438,35.060],[128.164,34.799],[127.970,34.837],[127.840,34.938],[127.596,34.893],[127.359,34.804],[126.824,34.428],[126.616,34.409],[126.409,34.269],[126.360,34.668],[126.225,35.163],[126.300,35.367],[126.524,35.577],[126.524,35.737],[126.626,35.928],[126.436,36.131],[126.361,36.627],[125.960,36.722],[126.390,36.958],[126.685,36.838],[126.799,36.946],[126.786,37.073],[126.442,37.474],[126.391,37.614],[126.209,37.754],[125.909,37.511],[125.741,37.784],[125.561,37.835],[125.269,37.484],[125.076,37.770],[124.769,37.935],[124.693,38.139],[124.736,38.279],[124.929,38.464],[125.268,38.567],[125.293,38.688],[125.027,38.815],[125.296,39.364],[125.206,39.485],[124.922,39.618],[124.688,39.605],[124.548,39.541],[124.442,39.573],[124.149,39.821],[126.708,39.965],[127.671,39.866]]]}},{"type":"Feature","properties":{"name":"Balhae","name_zh":"渤海","focus":false,"label":[127.85,42.01],"area":25.0,"color":"#6f9460"},"geometry":{"type":"Polygon","coordinates":[[[129.590,41.469],[129.631,41.277],[129.477,40.682],[129.177,40.630],[128.446,40.065],[128.236,39.969],[127.931,39.956],[127.671,39.866],[126.708,39.965],[124.149,39.821],[124.104,39.884],[123.916,39.807],[123.039,39.672],[122.027,39.255],[121.488,38.878],[121.216,38.756],[121.065,38.750],[121.123,38.865],[121.660,39.331],[121.448,39.382],[121.282,39.349],[121.213,39.483],[121.239,39.553],[122.036,40.264],[122.107,40.353],[122.082,40.488],[126.018,42.151],[128.550,43.647],[130.391,44.798],[131.772,45.144],[132.923,44.338],[132.827,42.861],[132.484,42.880],[132.333,42.963],[132.181,43.194],[131.674,43.026],[131.865,43.290],[131.584,43.212],[131.064,42.749],[129.824,41.861],[129.641,41.655],[129.590,41.469]]]}},{"type":"Feature","properties":{"name":"Pallava state","name_zh":"","focus":false,"label":[77.78,11.35],"area":10.5,"color":"#a07d5a"},"geometry":{"type":"Polygon","coordinates":[[[80.313,13.104],[79.769,11.730],[79.710,11.444],[79.826,10.358],[79.789,10.250],[79.306,10.255],[79.222,10.192],[79.072,9.759],[78.926,9.492],[77.449,9.581],[76.644,10.616],[76.046,10.612],[75.734,11.253],[77.680,12.918],[80.313,13.104]]]}},{"type":"Feature","properties":{"name":"Pandya state","name_zh":"","focus":false,"label":[77.76,9.36],"area":3.2,"color":"#a07d5a"},"geometry":{"type":"Polygon","coordinates":[[[78.937,9.435],[79.159,9.277],[78.313,8.995],[78.181,8.811],[78.135,8.499],[78.064,8.385],[77.484,8.028],[77.341,8.053],[76.703,8.706],[76.537,9.118],[76.385,9.747],[76.046,10.612],[76.644,10.616],[77.449,9.581],[78.926,9.492],[78.937,9.435]]]}},{"type":"Feature","properties":{"name":"Sinhalese kingdoms","name_zh":"","focus":false,"label":[80.73,7.62],"area":5.0,"color":"#9a8a4a"},"geometry":{"type":"Polygon","coordinates":[[[80.341,5.969],[80.222,6.058],[80.127,6.216],[79.854,7.061],[79.832,8.103],[79.724,8.416],[79.808,8.647],[79.674,8.804],[79.705,8.930],[79.896,8.920],[80.052,9.113],[80.076,9.279],[80.178,9.445],[80.109,9.686],[80.347,9.470],[80.662,9.299],[81.093,8.626],[81.060,8.410],[81.326,8.258],[81.445,7.928],[81.804,7.313],[81.866,7.084],[81.779,6.753],[81.599,6.448],[81.202,6.079],[80.851,5.951],[80.341,5.969]]]}},{"type":"Feature","properties":{"name":"Japan","name_zh":"日本","focus":false,"label":[139.25,36.9],"area":27.0,"color":"#8a6f9e"},"geometry":{"type":"MultiPolygon","coordinates":[[[[130.554,30.969],[130.674,31.211],[130.732,31.478],[130.581,31.528],[130.474,31.439],[130.404,31.229],[130.232,31.026],[130.086,31.121],[130.060,31.216],[130.205,31.426],[130.219,31.559],[130.058,31.972],[130.443,32.283],[130.496,32.557],[130.257,32.912],[130.107,32.930],[129.845,32.587],[129.733,32.637],[129.630,32.866],[129.460,32.986],[129.343,33.151],[129.528,33.297],[129.858,33.260],[130.176,33.337],[130.426,33.674],[130.644,33.700],[130.859,33.675],[130.971,33.503],[131.092,33.427],[131.286,33.390],[131.568,33.486],[131.669,33.308],[131.413,33.111],[131.795,32.807],[131.830,32.693],[131.562,32.432],[131.453,32.247],[131.319,31.511],[131.210,31.352],[130.959,31.193],[130.744,30.887],[130.579,30.906],[130.554,30.969]]],[[[132.467,32.757],[132.342,33.106],[132.121,33.347],[132.449,33.519],[132.784,33.907],[132.968,33.793],[133.245,33.800],[133.462,33.883],[133.805,34.176],[134.010,34.189],[134.540,34.012],[134.609,33.898],[134.519,33.650],[133.998,33.148],[133.726,33.376],[133.516,33.394],[133.240,33.299],[133.154,33.216],[132.969,32.765],[132.900,32.669],[132.698,32.548],[132.467,32.757]]],[[[137.334,37.273],[137.013,37.037],[136.983,36.833],[137.045,36.668],[137.176,36.643],[137.464,36.853],[138.492,37.301],[138.698,37.448],[138.856,37.735],[139.197,37.920],[139.353,38.067],[139.439,38.188],[139.503,38.417],[139.745,38.679],[139.967,39.208],[140.030,39.483],[140.011,39.693],[139.862,39.782],[139.804,39.890],[141.467,40.514],[141.675,40.316],[141.998,39.671],[141.998,39.448],[141.887,39.129],[141.568,38.785],[141.467,38.587],[141.496,38.421],[141.024,38.210],[140.872,37.917],[140.982,37.268],[140.963,36.956],[140.655,36.618],[140.546,36.287],[140.555,35.969],[140.834,35.677],[140.394,35.409],[140.316,35.033],[139.830,34.835],[139.788,34.962],[140.002,35.497],[139.913,35.554],[139.682,35.445],[139.422,35.165],[139.208,35.165],[139.052,35.024],[139.022,34.688],[138.863,34.567],[138.779,34.579],[138.749,34.649],[138.751,34.922],[138.683,34.992],[138.450,34.902],[138.295,34.763],[138.149,34.527],[137.759,34.552],[137.248,34.481],[137.041,34.728],[136.733,34.874],[136.616,34.759],[136.507,34.518],[136.898,34.258],[136.766,34.169],[136.393,34.111],[136.199,34.003],[135.755,33.342],[135.062,33.690],[134.969,34.134],[135.236,34.350],[135.317,34.471],[135.286,34.598],[135.205,34.617],[134.935,34.540],[134.427,34.628],[133.825,34.385],[133.589,34.442],[132.481,34.129],[132.386,34.268],[132.183,34.287],[131.997,34.090],[131.994,33.804],[131.654,33.911],[130.899,33.903],[130.779,33.966],[130.892,34.246],[131.334,34.291],[131.672,34.501],[132.662,35.380],[132.980,35.444],[133.006,35.254],[133.804,35.427],[134.755,35.531],[135.156,35.646],[135.188,35.443],[135.357,35.322],[135.727,35.450],[135.928,35.603],[135.977,35.972],[136.668,36.667],[136.640,37.170],[136.721,37.265],[137.309,37.432],[137.334,37.273]]]]}},{"type":"Feature","properties":{"name":"Ainu","name_zh":"","focus":false,"label":[143.26,43.52],"area":19.2,"color":"#7272a8"},"geometry":{"type":"MultiPolygon","coordinates":[[[[140.159,40.729],[140.386,40.985],[140.472,40.985],[140.656,40.723],[141.152,40.865],[141.076,41.102],[140.936,41.114],[140.774,41.255],[141.087,41.441],[141.436,41.269],[141.467,40.514],[139.804,39.890],[139.985,40.114],[139.915,40.574],[140.159,40.729]]],[[[139.852,42.035],[139.777,42.112],[139.711,42.477],[139.973,42.651],[140.499,42.896],[140.516,43.057],[140.373,43.185],[140.498,43.320],[140.598,43.326],[140.896,43.134],[141.064,43.096],[141.303,43.187],[141.301,43.720],[141.709,43.914],[141.745,44.628],[141.566,44.969],[141.522,45.182],[141.597,45.279],[141.875,45.435],[143.020,44.463],[143.790,44.027],[144.613,43.842],[144.750,43.881],[145.139,44.178],[145.347,44.243],[145.059,43.785],[145.448,43.169],[144.994,42.937],[144.754,42.866],[144.590,42.859],[144.370,42.949],[144.166,42.942],[144.002,42.877],[143.508,42.420],[143.330,42.196],[143.213,41.926],[143.033,41.958],[141.928,42.501],[141.721,42.539],[141.396,42.519],[140.929,42.255],[140.860,42.390],[140.693,42.550],[140.540,42.537],[140.223,42.363],[140.245,42.228],[140.767,42.005],[141.155,41.749],[140.979,41.652],[140.588,41.677],[140.268,41.324],[140.112,41.273],[140.012,41.381],[139.977,41.503],[140.124,41.792],[140.099,41.945],[139.852,42.035]]],[[[146.124,43.459],[146.080,43.518],[146.226,43.525],[146.205,43.481],[146.124,43.459]]],[[[146.904,43.839],[146.655,43.704],[146.598,43.732],[146.599,43.793],[146.842,43.874],[146.904,43.839]]],[[[146.344,44.421],[146.568,44.438],[146.508,44.358],[146.102,44.243],[145.930,44.119],[145.779,43.928],[145.595,43.858],[145.554,43.650],[145.437,43.716],[145.409,43.835],[145.744,44.051],[146.127,44.507],[146.344,44.421]]],[[[148.582,45.316],[148.265,45.213],[147.868,44.971],[147.762,44.938],[147.620,44.966],[147.585,44.918],[147.622,44.897],[147.548,44.812],[147.291,44.666],[147.209,44.550],[147.021,44.507],[146.948,44.408],[146.840,44.415],[146.846,44.476],[147.153,44.673],[147.111,44.793],[147.479,44.974],[147.504,45.043],[147.656,45.075],[147.763,45.189],[147.894,45.223],[147.856,45.356],[147.932,45.421],[148.000,45.273],[148.069,45.248],[148.321,45.270],[148.700,45.520],[148.856,45.474],[148.825,45.334],[148.582,45.316]]],[[[149.437,45.583],[149.667,45.850],[149.856,45.923],[150.0,46.045],[150.0,45.831],[149.684,45.633],[149.437,45.583]]],[[[142.944,51.961],[142.943,51.617],[143.074,51.267],[143.340,50.885],[143.633,50.234],[144.038,49.508],[144.539,48.753],[143.598,49.233],[143.152,49.258],[142.853,49.127],[142.646,48.657],[142.489,47.901],[142.614,47.459],[142.993,46.953],[143.236,46.863],[143.444,46.571],[143.303,46.011],[143.004,46.577],[142.614,46.712],[142.513,46.699],[142.327,46.563],[141.898,45.914],[141.708,46.139],[141.622,46.558],[141.909,47.073],[141.731,47.471],[141.810,47.675],[142.036,47.959],[141.977,48.284],[141.739,48.807],[141.921,48.943],[142.049,49.354],[142.152,50.890],[142.112,51.219],[142.016,51.430],[141.643,51.813],[141.598,52.216],[141.811,52.628],[141.840,52.960],[141.689,53.165],[141.767,53.272],[142.214,53.299],[142.674,53.540],[142.863,53.340],[143.056,53.061],[143.138,52.856],[143.143,52.511],[143.033,52.312],[142.944,51.961]]]]}},{"type":"Feature","properties":{"name":"Srivijaya Empire","name_zh":"","focus":false,"label":[102.99,5.11],"area":0.1,"color":"#b0805f"},"geometry":{"type":"Polygon","coordinates":[[[103.057,5.223],[103.212,5.0],[102.641,5.0],[103.057,5.223]]]}},{"type":"Feature","properties":{"name":"minor Hindu and Buddhist states","name_zh":"","focus":false,"label":[99.05,8.82],"area":10.7,"color":"#5f87a3"},"geometry":{"type":"MultiPolygon","coordinates":[[[[95.190,5.410],[95.283,5.550],[95.464,5.569],[95.740,5.468],[96.024,5.215],[96.187,5.145],[96.752,5.064],[97.384,5.180],[97.561,5.0],[95.293,5.0],[95.190,5.410]]],[[[99.833,12.523],[99.895,12.079],[99.186,10.489],[99.071,9.898],[99.118,9.371],[99.298,9.161],[99.724,9.257],[99.837,9.226],[99.898,9.067],[99.865,8.711],[100.009,8.490],[100.131,8.532],[100.301,7.886],[100.344,7.440],[100.539,7.048],[100.614,6.978],[100.975,6.852],[101.217,6.802],[101.427,6.828],[101.559,6.739],[101.679,6.464],[102.089,6.143],[102.325,6.099],[102.802,5.560],[103.057,5.223],[102.641,5.0],[100.393,5.0],[100.139,6.177],[100.221,6.520],[100.154,6.603],[99.969,6.507],[99.833,6.538],[99.662,6.710],[99.610,6.938],[99.639,7.065],[99.571,7.262],[99.468,7.338],[99.293,7.319],[99.024,7.871],[98.544,8.264],[98.292,8.155],[98.195,8.327],[98.177,8.600],[98.250,8.937],[98.632,10.100],[98.431,10.201],[98.397,10.563],[98.605,10.862],[98.738,11.435],[98.867,11.645],[98.590,11.695],[98.588,11.822],[98.676,12.051],[98.654,12.244],[99.977,12.841],[99.833,12.523]]]]}},{"type":"Feature","properties":{"name":"Malay","name_zh":"","focus":false,"label":[120.59,15.69],"area":22.8,"color":"#8a6f9e"},"geometry":{"type":"MultiPolygon","coordinates":[[[[114.853,5.015],[114.849,5.0],[114.799,5.0],[114.853,5.015]]],[[[115.291,5.453],[115.717,5.467],[115.787,5.740],[115.970,5.881],[116.098,6.097],[116.337,6.358],[116.595,6.899],[116.740,6.689],[116.889,6.645],[117.031,6.836],[117.168,6.614],[117.507,6.392],[117.540,6.240],[117.353,5.877],[117.370,5.788],[117.866,5.904],[117.918,5.802],[117.761,5.580],[118.256,5.663],[118.377,5.638],[118.997,5.277],[119.042,5.169],[118.908,5.0],[115.432,5.0],[115.417,5.111],[115.203,5.275],[115.291,5.453]]],[[[125.614,7.236],[125.280,6.593],[125.465,6.244],[125.532,5.939],[125.461,5.717],[125.289,5.488],[125.072,5.722],[125.163,5.907],[125.129,6.053],[124.965,6.084],[124.803,5.785],[124.224,6.089],[123.973,6.336],[123.880,6.565],[123.864,6.851],[124.073,7.258],[124.024,7.474],[123.815,7.658],[123.464,7.790],[123.333,7.771],[123.247,7.593],[123.022,7.478],[122.725,7.452],[122.713,7.674],[122.635,7.782],[122.455,7.693],[121.991,6.872],[121.839,6.967],[121.824,7.056],[122.093,7.775],[122.211,7.902],[122.384,7.985],[122.637,8.004],[122.736,8.062],[122.796,8.272],[122.888,8.342],[123.135,8.450],[123.485,8.496],[123.616,8.337],[123.662,8.013],[123.805,8.083],[124.023,8.109],[124.117,8.192],[124.210,8.446],[124.371,8.561],[124.670,8.428],[124.741,8.918],[124.872,8.924],[124.990,8.715],[125.224,8.995],[125.401,8.951],[125.460,9.053],[125.439,9.370],[125.362,9.624],[125.428,9.783],[125.933,9.174],[126.037,8.958],[126.074,8.812],[125.923,8.482],[126.029,8.380],[126.271,8.425],[126.306,8.235],[126.254,8.044],[126.279,7.733],[126.372,7.536],[126.321,7.148],[126.045,6.608],[125.954,6.652],[125.910,6.849],[125.747,7.185],[125.614,7.236]]],[[[118.088,9.431],[118.508,9.921],[118.557,9.673],[118.504,9.482],[118.384,9.349],[117.967,9.113],[117.857,8.833],[117.710,8.712],[117.444,8.635],[117.270,8.450],[117.127,8.469],[117.378,8.895],[118.088,9.431]]],[[[122.700,10.031],[122.920,10.851],[123.117,10.934],[123.239,10.922],[123.312,10.738],[123.104,10.229],[122.962,9.594],[123.132,9.251],[123.037,9.066],[122.941,9.047],[122.395,9.478],[122.303,9.649],[122.347,9.815],[122.602,9.910],[122.700,10.031]]],[[[119.108,10.627],[119.207,11.129],[119.353,11.212],[119.416,11.130],[119.344,11.002],[119.564,10.501],[118.864,10.023],[118.699,10.035],[118.756,10.169],[118.847,10.214],[118.989,10.392],[119.108,10.627]]],[[[122.470,11.454],[122.635,11.442],[122.919,11.525],[122.896,11.150],[122.706,10.940],[122.297,10.647],[121.873,10.468],[121.993,11.758],[122.210,11.580],[122.470,11.454]]],[[[124.916,11.643],[124.875,11.834],[124.330,12.208],[124.264,12.417],[124.952,12.527],[125.119,12.476],[125.246,12.292],[125.333,11.562],[125.448,11.206],[125.398,11.149],[125.323,11.123],[125.069,11.244],[124.883,11.434],[124.854,11.491],[124.916,11.643]]],[[[120.340,13.387],[121.039,13.407],[121.180,13.332],[121.304,13.129],[121.316,12.741],[121.273,12.525],[121.094,12.201],[120.733,12.549],[120.546,13.152],[120.340,13.387]]],[[[119.681,16.187],[119.762,16.359],[120.202,16.042],[120.293,16.233],[120.246,16.874],[120.311,17.071],[120.393,18.043],[120.564,18.431],[120.800,18.552],[121.036,18.527],[121.580,18.294],[121.839,18.275],[122.049,18.447],[122.139,18.384],[122.147,18.206],[122.027,18.009],[122.007,17.793],[122.070,17.437],[122.313,17.260],[122.395,17.114],[122.203,16.542],[122.063,16.332],[121.402,15.873],[121.368,15.498],[121.242,15.307],[121.456,14.882],[121.728,14.108],[121.973,13.949],[122.106,13.918],[122.397,14.306],[122.486,14.319],[122.674,14.269],[122.776,14.174],[122.856,13.888],[122.985,13.729],[123.131,13.692],[123.359,13.952],[123.701,13.820],[123.736,13.763],[123.397,13.527],[123.818,12.975],[123.676,12.892],[123.238,13.025],[123.196,13.241],[123.093,13.380],[122.485,13.881],[122.369,13.880],[122.325,13.779],[122.491,13.430],[122.394,13.302],[122.067,13.651],[121.624,13.898],[121.486,13.891],[121.331,13.827],[121.187,13.681],[121.009,13.655],[120.598,13.921],[120.510,14.112],[120.798,14.385],[121.104,14.253],[121.285,14.342],[121.217,14.418],[120.896,14.551],[120.706,14.728],[120.471,14.804],[120.363,14.530],[119.971,14.904],[119.771,15.469],[119.812,15.978],[119.681,16.187]]]]}},{"type":"Feature","properties":{"name":"Uyghurs","name_zh":"回鹘","focus":false,"label":[110.6,44.6],"area":438.2,"color":"#7d6b5a"},"geometry":{"type":"Polygon","coordinates":[[[80.718,46.436],[82.208,51.329],[93.941,51.095],[105.301,51.212],[130.255,50.150],[137.256,45.612],[136.494,44.966],[136.033,44.398],[135.414,44.036],[134.962,43.515],[134.568,43.212],[134.138,42.992],[132.952,42.669],[132.827,42.861],[132.923,44.338],[131.772,45.144],[130.391,44.798],[128.550,43.647],[126.018,42.151],[125.097,42.957],[123.371,42.957],[116.235,41.576],[110.711,40.885],[107.488,41.115],[104.841,41.231],[104.150,40.310],[104.035,38.008],[102.194,38.468],[101.273,39.389],[100.813,40.310],[98.971,41.000],[96.324,40.655],[94.598,41.115],[92.066,43.302],[90.959,43.549],[91.333,45.920],[80.718,46.436]]]}},{"type":"Feature","properties":{"name":"Tungus","name_zh":"靺鞨","focus":false,"label":[126.05,51.66],"area":220.8,"color":"#9a8a4a"},"geometry":{"type":"Polygon","coordinates":[[[140.028,57.644],[138.866,57.124],[138.345,56.804],[137.229,55.982],[136.521,55.589],[135.269,55.028],[134.985,54.853],[134.893,54.719],[134.902,54.559],[135.094,54.432],[135.725,54.407],[136.196,54.474],[136.491,54.455],[136.343,53.887],[136.350,53.701],[136.487,53.654],[136.770,53.695],[137.040,53.862],[137.382,53.809],[137.121,53.589],[137.071,53.489],[137.979,53.464],[138.234,53.571],[138.409,53.805],[138.416,54.091],[139.378,54.080],[139.805,53.961],[140.102,53.801],[140.321,53.535],[141.121,53.051],[141.089,52.985],[140.828,52.825],[141.031,52.726],[141.090,52.586],[140.939,52.261],[141.160,52.209],[141.257,52.103],[141.126,51.871],[140.730,51.441],[140.404,50.827],[140.323,50.517],[140.456,50.103],[140.328,49.357],[140.081,48.502],[139.213,47.810],[139.046,47.615],[138.949,47.322],[138.351,46.873],[137.984,46.269],[137.256,45.612],[130.255,50.150],[110.701,50.982],[115.637,58.0],[140.347,58.0],[140.028,57.644]]]}},{"type":"Feature","properties":{"name":"Gurjara Pratihara","name_zh":"","focus":false,"label":[78.6,24.04],"area":60.2,"color":"#a07d5a"},"geometry":{"type":"Polygon","coordinates":[[[76.105,26.998],[79.047,27.760],[79.866,27.305],[81.593,25.233],[82.744,24.773],[84.041,24.832],[83.984,24.781],[84.819,23.853],[84.903,22.849],[78.830,20.399],[75.032,20.514],[72.880,20.337],[73.109,20.687],[73.112,20.827],[72.931,20.953],[72.765,21.150],[72.665,21.848],[72.693,22.104],[73.915,23.111],[72.265,24.223],[76.105,26.998]]]}},{"type":"Feature","properties":{"name":"Tibetan Empire","name_zh":"吐蕃","focus":false,"label":[90.19,32.55],"area":435.9,"color":"#6f9460"},"geometry":{"type":"Polygon","coordinates":[[[87.867,27.017],[87.187,25.105],[85.932,25.244],[85.097,25.801],[84.041,24.832],[82.744,24.773],[81.593,25.233],[79.866,27.305],[79.280,27.630],[79.246,27.811],[79.853,27.970],[79.148,28.336],[79.061,28.801],[78.485,30.527],[77.564,31.103],[77.104,31.333],[76.759,31.908],[76.759,33.183],[76.529,35.131],[76.529,36.972],[75.953,37.433],[75.148,37.778],[75.148,39.274],[75.378,40.195],[77.910,40.425],[79.981,40.770],[82.053,41.461],[85.621,43.417],[87.577,43.762],[90.0,43.762],[92.066,43.302],[94.598,41.115],[96.324,40.655],[98.971,41.000],[100.813,40.310],[101.273,39.389],[102.194,38.468],[104.035,38.008],[104.266,37.202],[104.266,36.512],[102.769,33.404],[104.266,31.908],[103.575,30.297],[104.150,28.686],[104.150,27.995],[103.000,26.384],[102.424,24.888],[101.964,22.586],[101.429,21.975],[99.432,21.895],[98.281,22.586],[98.396,24.427],[97.936,24.888],[94.483,24.657],[93.413,24.246],[93.117,24.868],[91.580,27.169],[87.867,27.017]]]}},{"type":"Feature","properties":{"name":"Paleo-Siberian hunter-gatherers","name_zh":"","focus":false,"label":[84.12,57.03],"area":66.7,"color":"#7d6b5a","nolabel":true},"geometry":{"type":"MultiPolygon","coordinates":[[[[65.855,58.0],[104.256,58.0],[99.485,55.658],[99.537,55.281],[93.700,56.484],[78.362,56.410],[69.663,55.501],[64.625,57.578],[65.855,58.0]]],[[[114.867,58.0],[115.637,58.0],[115.205,57.386],[114.867,58.0]]]]}},{"type":"Feature","properties":{"name":"Bashkirs","name_zh":"","focus":false,"label":[63.3,53.2],"area":42.6,"color":"#6f9460"},"geometry":{"type":"Polygon","coordinates":[[[64.625,57.578],[69.663,55.501],[70.384,55.576],[62.741,50.759],[60.0,50.894],[60.0,56.559],[62.805,56.955],[64.625,57.578]]]}},{"type":"Feature","properties":{"name":"Permians","name_zh":"","focus":false,"label":[60.09,57.3],"area":0.3,"color":"#5f87a3"},"geometry":{"type":"Polygon","coordinates":[[[60.313,56.603],[60.0,56.559],[60.0,58.0],[60.042,58.0],[60.313,56.603]]]}},{"type":"Feature","properties":{"name":"Finno-Ugric taiga hunter-gatherers","name_zh":"","focus":false,"label":[62.24,57.48],"area":4.8,"color":"#5f87a3","nolabel":true},"geometry":{"type":"Polygon","coordinates":[[[60.042,58.0],[65.855,58.0],[62.805,56.955],[60.313,56.603],[60.042,58.0]]]}},{"type":"Feature","properties":{"name":"Palas","name_zh":"波罗王朝","focus":false,"label":[88.62,23.3],"area":39.0,"color":"#7272a8"},"geometry":{"type":"Polygon","coordinates":[[[87.640,21.563],[86.937,21.288],[86.818,21.186],[86.844,20.875],[86.926,20.691],[86.637,20.319],[86.632,20.203],[86.119,19.806],[85.379,19.605],[84.726,20.885],[84.726,21.905],[84.912,22.740],[84.819,23.853],[83.984,24.781],[85.097,25.801],[85.932,25.244],[87.187,25.105],[87.867,27.017],[91.580,27.169],[93.117,24.868],[93.413,24.246],[92.987,24.082],[91.651,22.356],[91.571,22.543],[91.410,22.720],[91.081,22.561],[90.0,22.560],[90.0,21.930],[89.869,22.133],[89.796,21.832],[89.670,21.719],[89.578,21.700],[89.456,21.941],[89.233,21.655],[89.072,21.774],[88.994,21.629],[89.025,21.546],[88.723,21.539],[88.656,21.857],[88.567,21.895],[88.377,21.577],[88.299,21.551],[88.053,21.938],[87.867,21.696],[87.640,21.563]]]}},{"type":"Feature","properties":{"name":"Chauhans","name_zh":"","focus":false,"label":[76.13,28.17],"area":11.1,"color":"#5f87a3"},"geometry":{"type":"Polygon","coordinates":[[[74.117,26.544],[72.627,28.366],[77.060,29.420],[79.853,27.970],[76.309,27.045],[74.117,26.544]]]}},{"type":"Feature","properties":{"name":"Tang Empire","name_zh":"唐","focus":true,"label":[112.68,29.52],"area":308.9},"geometry":{"type":"Polygon","coordinates":[[[104.150,27.995],[104.150,28.686],[103.575,30.297],[104.266,31.908],[102.769,33.404],[104.266,36.512],[104.266,37.202],[104.035,38.008],[104.150,40.310],[104.841,41.231],[107.488,41.115],[110.711,40.885],[116.235,41.576],[123.371,42.957],[125.097,42.957],[126.018,42.151],[122.082,40.488],[121.753,40.736],[121.426,40.864],[121.010,40.850],[120.788,40.683],[120.272,40.151],[120.112,40.081],[119.823,40.042],[119.385,39.843],[119.210,39.639],[119.090,39.339],[118.977,39.224],[118.781,39.166],[118.559,39.172],[118.274,38.999],[118.069,39.254],[117.910,39.260],[117.752,39.202],[117.439,38.602],[117.479,38.449],[117.589,38.284],[117.840,38.163],[118.200,38.043],[118.744,38.063],[118.875,37.949],[118.811,37.446],[118.837,37.204],[118.954,37.077],[119.284,37.045],[119.598,37.116],[119.940,37.352],[120.169,37.576],[120.658,37.736],[120.787,37.704],[121.189,37.425],[121.434,37.336],[121.894,37.375],[122.392,37.300],[122.281,36.982],[122.255,36.733],[121.846,36.860],[121.609,36.834],[120.855,36.584],[120.537,36.386],[120.504,36.055],[120.269,35.985],[120.139,36.194],[119.913,36.143],[119.975,35.933],[119.907,35.768],[119.060,35.041],[119.003,34.939],[119.020,34.691],[119.299,34.590],[119.973,34.135],[120.149,33.894],[120.340,33.336],[120.640,33.044],[120.719,32.847],[120.660,32.543],[120.738,32.460],[121.050,32.328],[121.230,32.061],[121.483,31.948],[121.605,31.827],[121.623,31.618],[121.268,31.452],[121.498,31.281],[121.640,30.926],[121.631,30.792],[121.568,30.710],[121.328,30.690],[121.035,30.594],[120.608,30.346],[120.226,30.250],[119.943,30.116],[120.437,29.996],[120.862,30.187],[121.082,30.213],[121.155,30.188],[121.391,29.922],[121.565,29.846],[121.770,29.834],[121.774,29.764],[121.670,29.624],[121.361,29.414],[121.411,29.344],[121.649,29.319],[121.432,28.836],[121.345,28.544],[121.358,28.385],[121.259,28.182],[121.165,28.124],[121.008,28.276],[120.505,27.590],[120.351,27.177],[120.084,26.985],[119.971,26.788],[119.857,26.706],[119.600,26.692],[119.428,26.590],[119.554,26.267],[119.436,26.038],[119.470,25.771],[119.428,25.650],[119.335,25.530],[119.095,25.440],[118.812,24.849],[118.531,24.690],[118.345,24.467],[117.924,24.561],[117.796,24.421],[117.849,24.047],[117.405,23.690],[116.962,23.556],[116.709,23.346],[116.452,23.250],[116.403,23.199],[116.400,22.983],[116.340,22.913],[115.860,22.836],[115.706,22.638],[115.308,22.771],[115.185,22.745],[115.043,22.599],[114.847,22.510],[114.558,22.464],[114.537,22.674],[113.989,22.552],[113.845,22.463],[113.716,22.482],[113.462,22.773],[113.376,22.646],[113.419,22.570],[113.377,22.163],[113.283,22.030],[113.096,21.979],[112.871,22.061],[112.815,21.826],[112.749,21.756],[112.039,21.659],[111.831,21.754],[111.733,21.709],[111.536,21.493],[111.434,21.461],[111.085,21.479],[110.749,21.377],[110.566,21.230],[110.238,21.280],[110.202,21.096],[110.072,20.918],[110.293,20.582],[110.414,20.525],[110.433,20.436],[110.271,20.315],[109.928,20.244],[109.711,20.568],[109.602,20.879],[109.608,21.057],[109.786,21.406],[109.779,21.482],[109.516,21.596],[109.414,21.564],[109.321,21.431],[109.117,21.399],[108.813,21.493],[108.554,21.823],[108.466,21.785],[108.387,21.530],[108.265,21.473],[107.900,21.479],[107.417,21.185],[107.465,20.976],[107.374,20.880],[106.807,20.905],[106.746,20.815],[106.771,20.638],[106.380,20.110],[105.964,19.880],[105.843,19.702],[105.532,18.844],[106.364,18.007],[106.433,17.550],[106.622,17.328],[107.114,16.954],[107.375,16.691],[106.451,16.187],[105.416,17.407],[104.381,18.327],[104.266,19.133],[104.611,20.284],[105.762,21.895],[107.258,22.701],[108.409,23.161],[108.524,23.852],[108.294,24.312],[108.754,26.154],[106.222,26.614],[105.301,26.039],[104.841,26.039],[104.035,26.384],[102.424,24.888],[103.000,26.384],[104.150,27.995]]]}}]}