{"type":"FeatureCollection","features":[{"type":"Feature","properties":{"name":"Hainan","name_zh":"","focus":false,"label":[109.47,19.04],"area":2.6,"color":"#5f87a3"},"geometry":{"type":"Polygon","coordinates":[[[108.651,18.482],[108.576,19.187],[109.198,19.684],[109.420,19.659],[109.550,19.913],[109.915,19.800],[110.060,19.940],[110.617,20.017],[110.885,19.706],[110.612,19.471],[110.427,19.229],[110.298,18.898],[110.361,18.765],[110.262,18.625],[109.669,18.414],[109.429,18.096],[108.651,18.482]]]}},{"type":"Feature","properties":{"name":"Champa","name_zh":"林邑","focus":false,"label":[108.42,13.33],"area":9.6,"color":"#9a8a4a"},"geometry":{"type":"Polygon","coordinates":[[[107.636,13.743],[107.268,15.118],[106.451,16.187],[107.375,16.691],[107.809,16.282],[108.095,16.251],[108.236,16.080],[108.363,15.623],[108.498,15.363],[108.786,15.090],[108.917,14.792],[109.071,14.170],[109.307,12.906],[109.068,12.486],[109.073,11.635],[108.897,11.342],[108.695,11.145],[108.164,10.966],[107.938,10.806],[107.672,10.526],[107.412,10.367],[107.265,10.347],[107.035,10.436],[106.773,10.639],[106.929,11.842],[107.543,12.259],[107.636,13.743]]]}},{"type":"Feature","properties":{"name":"Simhala","name_zh":"","focus":false,"label":[80.73,7.62],"area":5.0,"color":"#6f9460"},"geometry":{"type":"Polygon","coordinates":[[[80.222,6.058],[80.016,6.495],[79.854,7.061],[79.832,8.103],[79.724,8.416],[79.808,8.647],[79.674,8.804],[79.705,8.930],[79.896,8.920],[80.052,9.113],[80.076,9.279],[80.178,9.445],[80.109,9.686],[80.347,9.470],[80.662,9.299],[81.093,8.626],[81.060,8.410],[81.326,8.258],[81.445,7.928],[81.804,7.313],[81.866,7.084],[81.779,6.753],[81.599,6.448],[81.202,6.079],[80.851,5.951],[80.562,5.931],[80.341,5.969],[80.222,6.058]]]}},{"type":"Feature","properties":{"name":"Thai Kingdoms","name_zh":"掸泰诸部","focus":false,"label":[102.63,22.3],"area":26.4,"color":"#8a6f9e"},"geometry":{"type":"Polygon","coordinates":[[[103.682,26.056],[106.430,24.873],[103.833,20.143],[103.234,20.122],[100.698,19.478],[100.122,20.169],[100.352,20.744],[100.123,23.853],[100.679,24.131],[101.514,24.688],[102.256,25.337],[103.682,26.056]]]}},{"type":"Feature","properties":{"name":"Dvaravati","name_zh":"堕罗钵底","focus":false,"label":[100.13,13.79],"area":5.9,"color":"#8a6f9e"},"geometry":{"type":"Polygon","coordinates":[[[100.473,13.509],[100.239,13.490],[100.040,13.394],[99.930,13.261],[100.023,12.994],[99.977,12.841],[98.654,12.244],[98.596,12.737],[98.485,13.111],[98.194,13.657],[100.494,14.856],[101.607,15.320],[102.627,14.671],[102.163,13.929],[100.908,13.447],[100.473,13.509]]]}},{"type":"Feature","properties":{"name":"Chen-La","name_zh":"真腊","focus":false,"label":[105.76,13.98],"area":13.4,"color":"#8a6f9e"},"geometry":{"type":"Polygon","coordinates":[[[107.636,13.743],[107.543,12.259],[106.929,11.842],[104.389,11.981],[104.018,12.908],[103.926,14.207],[104.111,15.505],[104.575,15.784],[106.451,16.187],[107.268,15.118],[107.636,13.743]]]}},{"type":"Feature","properties":{"name":"Kanauj","name_zh":"戒日王朝","focus":false,"label":[81.11,28.91],"area":47.0,"color":"#a07d5a"},"geometry":{"type":"Polygon","coordinates":[[[88.327,28.013],[88.344,26.450],[87.602,25.059],[85.932,25.244],[85.097,25.801],[83.984,24.781],[82.593,24.781],[80.460,25.708],[76.935,29.233],[76.842,30.253],[78.342,32.593],[80.738,30.902],[85.654,28.583],[88.327,28.013]]]}},{"type":"Feature","properties":{"name":"Hindu states","name_zh":"","focus":false,"label":[92.91,25.29],"area":14.0,"color":"#9a8a4a"},"geometry":{"type":"Polygon","coordinates":[[[94.465,26.450],[94.558,25.708],[93.909,24.966],[92.987,24.082],[91.651,22.356],[91.571,22.543],[91.590,24.039],[91.683,25.059],[91.590,25.523],[88.344,26.450],[88.327,28.013],[93.909,26.821],[94.465,26.450]]]}},{"type":"Feature","properties":{"name":"Maitraka Kingdom","name_zh":"","focus":false,"label":[72.83,23.47],"area":28.8,"color":"#4f8f86"},"geometry":{"type":"Polygon","coordinates":[[[68.761,24.208],[71.000,24.359],[71.674,25.109],[73.645,25.155],[75.311,25.512],[75.832,26.130],[76.112,26.324],[76.939,26.278],[76.926,26.039],[76.773,25.833],[76.952,25.063],[77.448,24.613],[77.460,23.615],[77.282,23.171],[76.812,22.327],[76.049,22.091],[74.090,21.879],[73.454,21.985],[72.685,21.684],[72.695,22.128],[72.319,22.115],[72.127,21.828],[72.131,21.746],[72.288,21.549],[72.256,21.352],[72.120,21.155],[71.894,20.989],[71.528,20.823],[71.024,20.657],[70.855,20.650],[70.467,20.777],[70.209,20.947],[69.126,21.968],[68.894,22.285],[69.492,22.248],[69.968,22.351],[70.176,22.478],[70.410,22.752],[70.380,22.860],[70.045,22.777],[69.664,22.789],[69.107,22.898],[68.790,23.028],[68.372,23.326],[68.072,23.675],[68.046,23.764],[67.681,23.820],[68.761,24.208]]]}},{"type":"Feature","properties":{"name":"Palas","name_zh":"波罗王朝","focus":false,"label":[88.22,23.3],"area":30.0,"color":"#7272a8"},"geometry":{"type":"Polygon","coordinates":[[[87.867,21.696],[86.937,21.288],[86.818,21.186],[86.844,20.875],[86.926,20.691],[86.637,20.319],[86.632,20.203],[86.119,19.806],[85.379,19.605],[84.726,20.885],[84.726,21.905],[84.912,22.740],[84.819,23.853],[83.984,24.781],[85.097,25.801],[85.932,25.244],[87.602,25.059],[88.344,26.450],[91.590,25.523],[91.683,25.059],[91.590,24.039],[91.571,22.543],[91.410,22.720],[91.081,22.561],[90.0,22.560],[90.0,21.930],[89.869,22.133],[89.796,21.832],[89.670,21.719],[89.578,21.700],[89.456,21.941],[89.233,21.655],[89.072,21.774],[88.994,21.629],[89.025,21.546],[88.723,21.539],[88.656,21.857],[88.567,21.895],[88.377,21.577],[88.299,21.551],[88.053,21.938],[87.867,21.696]]]}},{"type":"Feature","properties":{"name":"Western Gangas","name_zh":"","focus":false,"label":[75.63,13.16],"area":2.7,"color":"#7d6b5a"},"geometry":{"type":"Polygon","coordinates":[[[75.364,11.865],[75.210,12.102],[74.733,13.683],[74.520,14.155],[75.080,14.392],[75.637,13.929],[76.471,13.743],[76.286,12.630],[76.350,12.609],[75.747,12.328],[75.364,11.865]]]}},{"type":"Feature","properties":{"name":"Pallavas","name_zh":"","focus":false,"label":[77.75,14.16],"area":19.8,"color":"#8a6f9e"},"geometry":{"type":"Polygon","coordinates":[[[80.313,13.104],[79.769,11.730],[79.712,11.424],[78.697,11.053],[77.121,11.239],[77.121,12.074],[76.842,12.445],[76.286,12.630],[76.471,13.743],[75.637,13.929],[75.080,14.392],[78.048,17.453],[78.976,17.639],[79.068,17.268],[79.068,15.227],[79.439,14.949],[80.087,14.946],[80.169,13.891],[80.075,13.669],[80.319,13.333],[80.313,13.104]]]}},{"type":"Feature","properties":{"name":"Balhae","name_zh":"渤海","focus":false,"label":[127.26,42.09],"area":31.8,"color":"#6f9460"},"geometry":{"type":"Polygon","coordinates":[[[129.631,41.277],[129.477,40.682],[129.177,40.630],[128.446,40.065],[128.236,39.969],[127.931,39.956],[127.671,39.866],[127.552,39.764],[127.440,39.623],[127.276,39.221],[127.404,39.075],[125.293,38.688],[125.027,38.815],[125.296,39.364],[125.206,39.485],[124.922,39.618],[124.688,39.605],[124.548,39.541],[124.442,39.573],[124.208,39.738],[124.104,39.884],[123.916,39.807],[123.039,39.672],[122.027,39.255],[121.488,38.878],[121.216,38.756],[121.065,38.750],[121.123,38.865],[121.660,39.331],[121.448,39.382],[121.282,39.349],[121.213,39.483],[121.239,39.553],[122.036,40.264],[122.107,40.353],[122.082,40.488],[124.702,42.310],[127.299,43.238],[129.247,45.186],[130.545,45.371],[132.122,44.629],[132.827,42.861],[132.484,42.880],[132.333,42.963],[132.181,43.194],[131.674,43.026],[131.865,43.290],[131.584,43.212],[131.064,42.749],[129.824,41.861],[129.641,41.655],[129.590,41.469],[129.631,41.277]]]}},{"type":"Feature","properties":{"name":"Yamato","name_zh":"倭","focus":false,"label":[138.33,35.82],"area":22.9,"color":"#7d6b5a"},"geometry":{"type":"MultiPolygon","coordinates":[[[[130.674,31.211],[130.732,31.478],[130.581,31.528],[130.474,31.439],[130.404,31.229],[130.232,31.026],[130.086,31.121],[130.060,31.216],[130.205,31.426],[130.219,31.559],[130.058,31.972],[130.481,32.347],[130.496,32.557],[130.257,32.912],[130.107,32.930],[129.845,32.587],[129.733,32.637],[129.630,32.866],[129.460,32.986],[129.343,33.151],[129.528,33.297],[129.858,33.260],[130.176,33.337],[130.426,33.674],[130.644,33.700],[130.859,33.675],[130.971,33.503],[131.092,33.427],[131.286,33.390],[131.568,33.486],[131.669,33.308],[131.413,33.111],[131.795,32.807],[131.830,32.693],[131.562,32.432],[131.453,32.247],[131.319,31.511],[131.210,31.352],[130.959,31.193],[130.744,30.887],[130.579,30.906],[130.554,30.969],[130.674,31.211]]],[[[132.342,33.106],[132.121,33.347],[132.449,33.519],[132.784,33.907],[132.968,33.793],[133.245,33.800],[133.462,33.883],[133.805,34.176],[134.010,34.189],[134.540,34.012],[134.609,33.898],[134.519,33.650],[133.998,33.148],[133.726,33.376],[133.516,33.394],[133.240,33.299],[133.154,33.216],[132.969,32.765],[132.900,32.669],[132.698,32.548],[132.467,32.757],[132.342,33.106]]],[[[137.334,37.273],[137.013,37.037],[136.983,36.833],[137.045,36.668],[137.176,36.643],[137.464,36.853],[138.317,37.205],[138.698,37.448],[138.856,37.735],[139.197,37.920],[139.353,38.067],[139.478,38.325],[140.872,37.917],[140.982,37.268],[140.963,36.956],[140.655,36.618],[140.546,36.287],[140.555,35.969],[140.834,35.677],[140.394,35.409],[140.316,35.033],[139.830,34.835],[139.788,34.962],[140.002,35.497],[139.913,35.554],[139.682,35.445],[139.422,35.165],[139.208,35.165],[139.052,35.024],[139.022,34.688],[138.863,34.567],[138.779,34.579],[138.749,34.649],[138.751,34.922],[138.683,34.992],[138.450,34.902],[138.295,34.763],[138.149,34.527],[137.759,34.552],[137.248,34.481],[137.041,34.728],[136.733,34.874],[136.616,34.759],[136.507,34.518],[136.898,34.258],[136.766,34.169],[136.393,34.111],[136.199,34.003],[135.755,33.342],[135.062,33.690],[134.969,34.134],[135.236,34.350],[135.317,34.471],[135.286,34.598],[135.205,34.617],[134.935,34.540],[134.427,34.628],[133.825,34.385],[133.589,34.442],[132.481,34.129],[132.386,34.268],[132.183,34.287],[131.997,34.090],[131.994,33.804],[131.654,33.911],[130.899,33.903],[130.779,33.966],[130.892,34.246],[131.334,34.291],[131.672,34.501],[132.662,35.380],[132.980,35.444],[133.006,35.254],[133.804,35.427],[134.755,35.531],[135.156,35.646],[135.188,35.443],[135.357,35.322],[135.727,35.450],[135.928,35.603],[135.977,35.972],[136.668,36.667],[136.640,37.170],[136.810,37.310],[137.309,37.432],[137.334,37.273]]]]}},{"type":"Feature","properties":{"name":"minor states under Indian influence","name_zh":"","focus":false,"label":[101.0,6.34],"area":5.1,"color":"#7272a8"},"geometry":{"type":"Polygon","coordinates":[[[100.344,7.440],[100.614,6.978],[101.217,6.802],[101.427,6.828],[101.559,6.739],[101.679,6.464],[101.978,6.219],[102.089,6.143],[102.325,6.099],[102.802,5.560],[103.212,5.0],[100.393,5.0],[100.139,6.177],[100.221,6.520],[100.154,6.603],[99.969,6.507],[99.833,6.538],[99.662,6.710],[99.610,6.938],[99.639,7.065],[99.571,7.262],[99.468,7.338],[99.293,7.319],[99.118,7.642],[100.301,7.886],[100.344,7.440]]]}},{"type":"Feature","properties":{"name":"Ainu","name_zh":"","focus":false,"label":[143.26,43.52],"area":18.1,"color":"#7272a8"},"geometry":{"type":"MultiPolygon","coordinates":[[[[139.852,42.035],[139.777,42.112],[139.711,42.477],[139.973,42.651],[140.499,42.896],[140.516,43.057],[140.373,43.185],[140.498,43.320],[140.598,43.326],[140.896,43.134],[141.064,43.096],[141.303,43.187],[141.301,43.720],[141.709,43.914],[141.745,44.628],[141.566,44.969],[141.522,45.182],[141.597,45.279],[141.875,45.435],[143.020,44.463],[143.790,44.027],[144.613,43.842],[144.750,43.881],[145.139,44.178],[145.347,44.243],[145.059,43.785],[145.448,43.169],[144.994,42.937],[144.754,42.866],[144.590,42.859],[144.370,42.949],[144.166,42.942],[144.002,42.877],[143.508,42.420],[143.330,42.196],[143.213,41.926],[143.033,41.958],[141.928,42.501],[141.721,42.539],[141.396,42.519],[140.929,42.255],[140.860,42.390],[140.693,42.550],[140.540,42.537],[140.223,42.363],[140.245,42.228],[140.767,42.005],[141.155,41.749],[140.979,41.652],[140.588,41.677],[140.268,41.324],[140.112,41.273],[140.012,41.381],[139.977,41.503],[140.124,41.792],[140.099,41.945],[139.852,42.035]]],[[[146.076,43.513],[146.152,43.545],[146.226,43.525],[146.130,43.458],[146.076,43.513]]],[[[146.682,43.707],[146.598,43.732],[146.604,43.803],[146.842,43.874],[146.904,43.839],[146.682,43.707]]],[[[146.568,44.438],[146.508,44.358],[146.119,44.251],[145.940,44.128],[145.779,43.928],[145.595,43.858],[145.554,43.650],[145.437,43.716],[145.409,43.835],[145.744,44.051],[146.127,44.507],[146.344,44.421],[146.568,44.438]]],[[[148.582,45.316],[148.235,45.198],[147.877,44.974],[147.762,44.938],[147.620,44.966],[147.585,44.918],[147.622,44.897],[147.548,44.812],[147.291,44.666],[147.209,44.550],[147.021,44.507],[146.948,44.408],[146.840,44.415],[146.846,44.476],[147.153,44.673],[147.111,44.793],[147.479,44.974],[147.504,45.043],[147.656,45.075],[147.763,45.189],[147.894,45.223],[147.856,45.356],[147.932,45.421],[148.000,45.273],[148.069,45.248],[148.321,45.270],[148.700,45.520],[148.856,45.474],[148.825,45.334],[148.582,45.316]]],[[[149.442,45.589],[149.667,45.850],[149.856,45.923],[150.0,46.045],[150.0,45.831],[149.684,45.633],[149.442,45.589]]],[[[142.943,51.617],[143.074,51.267],[143.340,50.885],[143.633,50.234],[144.038,49.508],[144.539,48.753],[143.598,49.233],[143.152,49.258],[142.853,49.127],[142.646,48.657],[142.489,47.901],[142.614,47.459],[142.993,46.953],[143.236,46.863],[143.444,46.571],[143.303,46.011],[143.004,46.577],[142.614,46.712],[142.513,46.699],[142.327,46.563],[141.898,45.914],[141.708,46.139],[141.622,46.558],[141.909,47.073],[141.731,47.471],[141.810,47.675],[142.036,47.959],[141.977,48.284],[141.739,48.807],[141.921,48.943],[142.049,49.354],[142.152,50.890],[142.112,51.219],[142.016,51.430],[141.643,51.813],[141.598,52.216],[141.811,52.628],[141.840,52.960],[141.689,53.165],[141.767,53.272],[142.214,53.299],[142.674,53.540],[142.863,53.340],[143.056,53.061],[143.138,52.856],[143.143,52.511],[143.033,52.312],[142.944,51.961],[142.943,51.617]]]]}},{"type":"Feature","properties":{"name":"Paleo-Siberian hunter-gatherers","name_zh":"","focus":false,"label":[80.62,56.52],"area":79.0,"color":"#7d6b5a","nolabel":true},"geometry":{"type":"MultiPolygon","coordinates":[[[[93.700,56.484],[78.362,56.410],[65.311,55.046],[60.0,56.229],[60.0,56.559],[62.805,56.955],[65.855,58.0],[104.256,58.0],[99.485,55.658],[99.537,55.281],[93.700,56.484]]],[[[115.637,58.0],[115.205,57.386],[114.867,58.0],[115.637,58.0]]]]}},{"type":"Feature","properties":{"name":"Finno-Ugric taiga hunter-gatherers","name_zh":"","focus":false,"label":[62.17,57.48],"area":5.1,"color":"#5f87a3","nolabel":true},"geometry":{"type":"Polygon","coordinates":[[[60.0,58.0],[65.855,58.0],[62.805,56.955],[60.0,56.559],[60.0,58.0]]]}},{"type":"Feature","properties":{"name":"Göktürks","name_zh":"突厥","focus":false,"label":[110.17,45.08],"area":434.6,"color":"#b0805f"},"geometry":{"type":"Polygon","coordinates":[[[102.442,38.879],[101.885,39.806],[101.050,40.084],[100.953,40.029],[100.813,40.310],[98.971,41.000],[98.172,40.896],[95.5,42.0],[94.469,41.227],[92.066,43.302],[90.959,43.549],[91.333,45.920],[80.718,46.436],[82.208,51.329],[93.941,51.095],[105.301,51.212],[130.255,50.150],[137.256,45.612],[136.494,44.966],[136.033,44.398],[135.414,44.036],[134.962,43.515],[134.568,43.212],[134.138,42.992],[132.952,42.669],[132.827,42.861],[132.122,44.629],[130.545,45.371],[129.247,45.186],[127.299,43.238],[124.702,42.310],[123.867,43.052],[121.919,42.681],[119.044,42.310],[118.209,40.826],[117.560,40.641],[116.169,40.641],[110.711,40.885],[107.488,41.115],[104.841,41.231],[103.555,40.734],[102.905,38.879],[102.442,38.879]]]}},{"type":"Feature","properties":{"name":"Kwarezm","name_zh":"","focus":false,"label":[60.37,40.68],"area":1.4,"color":"#7272a8"},"geometry":{"type":"Polygon","coordinates":[[[60.380,40.091],[60.0,40.066],[60.0,42.128],[61.107,41.272],[60.380,40.091]]]}},{"type":"Feature","properties":{"name":"Western Turkic oasis states","name_zh":"西域诸国","focus":false,"label":[87.65,38.69],"area":56.3,"color":"#7d6b5a"},"geometry":{"type":"Polygon","coordinates":[[[84.764,40.574],[93.229,39.958],[93.0,39.5],[95.0,39.2],[96.510,39.048],[96.413,38.322],[99.352,37.587],[97.896,36.755],[91.489,37.786],[81.923,36.502],[76.093,40.628],[84.764,40.574]]]}},{"type":"Feature","properties":{"name":"Karluks","name_zh":"葛逻禄","focus":false,"label":[89.05,42.26],"area":44.5,"color":"#6f9460"},"geometry":{"type":"MultiPolygon","coordinates":[[[[100.813,40.310],[100.953,40.029],[101.050,40.084],[100.401,39.713],[100.105,39.736],[98.172,40.896],[98.971,41.000],[100.813,40.310]]],[[[90.959,43.549],[92.066,43.302],[94.469,41.227],[93.5,40.5],[93.229,39.958],[84.559,40.575],[85.451,46.206],[91.333,45.920],[90.959,43.549]]]]}},{"type":"Feature","properties":{"name":"Tungus","name_zh":"靺鞨","focus":false,"label":[126.05,51.66],"area":220.8,"color":"#9a8a4a"},"geometry":{"type":"Polygon","coordinates":[[[139.293,57.336],[138.345,56.804],[137.229,55.982],[136.521,55.589],[135.269,55.028],[134.985,54.853],[134.893,54.719],[134.902,54.559],[135.094,54.432],[135.725,54.407],[136.196,54.474],[136.491,54.455],[136.343,53.887],[136.350,53.701],[136.487,53.654],[136.770,53.695],[137.040,53.862],[137.382,53.809],[137.121,53.589],[137.071,53.489],[137.979,53.464],[138.234,53.571],[138.409,53.805],[138.416,54.091],[139.378,54.080],[139.805,53.961],[140.102,53.801],[140.321,53.535],[141.121,53.051],[141.089,52.985],[140.828,52.825],[141.031,52.726],[141.090,52.586],[140.939,52.261],[141.160,52.209],[141.257,52.103],[141.126,51.871],[140.730,51.441],[140.404,50.827],[140.323,50.517],[140.456,50.103],[140.328,49.357],[140.081,48.502],[139.213,47.810],[139.046,47.615],[138.949,47.322],[138.351,46.873],[137.984,46.269],[137.256,45.612],[130.255,50.150],[110.701,50.982],[115.637,58.0],[140.347,58.0],[140.028,57.644],[139.293,57.336]]]}},{"type":"Feature","properties":{"name":"Silla","name_zh":"新罗","focus":false,"label":[127.97,36.7],"area":12.3,"color":"#5f87a3"},"geometry":{"type":"Polygon","coordinates":[[[128.154,34.894],[128.020,34.986],[127.767,34.960],[127.643,34.900],[127.593,34.941],[127.576,34.886],[127.638,34.814],[127.773,34.843],[127.747,34.727],[127.634,34.614],[127.554,34.656],[127.567,34.766],[127.522,34.856],[127.418,34.818],[127.363,34.751],[127.514,34.591],[127.389,34.471],[127.315,34.443],[127.124,34.537],[127.201,34.633],[127.192,34.569],[127.242,34.569],[127.328,34.652],[127.328,34.743],[127.009,34.602],[126.889,34.412],[126.800,34.463],[126.783,34.587],[126.600,34.300],[126.478,34.345],[126.463,34.484],[126.288,34.590],[126.289,34.742],[126.451,34.578],[126.451,34.648],[126.618,34.619],[126.476,34.724],[126.659,34.812],[126.539,34.873],[126.510,34.775],[126.375,34.785],[126.433,34.963],[126.318,34.932],[126.249,35.116],[126.344,35.151],[126.359,35.069],[126.431,35.023],[126.458,35.090],[126.360,35.180],[126.421,35.406],[126.523,35.524],[126.687,35.533],[126.664,35.591],[126.498,35.578],[126.474,35.635],[126.751,35.778],[126.801,35.861],[126.788,35.894],[126.615,35.890],[126.631,35.967],[126.761,35.995],[126.872,36.054],[126.685,35.999],[126.544,36.136],[126.464,36.574],[126.527,36.592],[126.497,36.723],[126.347,36.739],[126.293,36.581],[126.272,36.717],[126.172,36.672],[126.128,36.751],[126.191,36.819],[126.184,36.878],[126.291,36.962],[126.321,36.884],[126.289,36.785],[126.401,36.851],[126.413,36.933],[126.348,36.952],[126.355,36.996],[126.442,36.999],[126.483,36.842],[126.502,37.052],[126.619,36.972],[126.781,36.963],[126.838,36.753],[127.000,36.929],[126.908,36.919],[126.752,37.048],[126.776,37.123],[126.869,37.176],[126.694,37.121],[126.661,37.156],[126.661,37.253],[126.865,37.266],[126.722,37.328],[126.741,37.386],[126.656,37.411],[126.621,37.481],[126.674,37.488],[126.658,37.554],[126.547,37.647],[126.560,37.794],[126.441,37.850],[126.338,37.826],[126.338,37.673],[126.209,37.754],[125.909,37.511],[125.741,37.784],[125.561,37.835],[125.269,37.484],[125.076,37.770],[124.769,37.935],[124.693,38.139],[124.736,38.279],[124.929,38.464],[125.268,38.567],[125.293,38.688],[127.404,39.075],[128.269,38.420],[128.303,38.583],[128.363,38.625],[128.634,38.125],[129.049,37.685],[129.342,37.257],[129.433,37.058],[129.416,36.942],[129.474,36.774],[129.416,36.616],[129.438,36.400],[129.381,36.314],[129.388,36.025],[129.463,35.994],[129.557,36.078],[129.588,36.007],[129.466,35.537],[129.237,35.189],[129.136,35.112],[128.978,35.084],[128.973,35.134],[128.810,35.084],[128.572,35.169],[128.378,35.036],[128.372,35.004],[128.477,35.053],[128.501,35.008],[128.445,34.838],[128.335,34.871],[128.329,34.949],[128.154,34.894]]]}},{"type":"Feature","properties":{"name":"Pandyas","name_zh":"","focus":false,"label":[77.52,9.64],"area":2.7,"color":"#8a6f9e"},"geometry":{"type":"Polygon","coordinates":[[[78.672,9.124],[78.313,8.995],[78.181,8.811],[78.135,8.499],[78.064,8.385],[77.484,8.028],[77.341,8.053],[76.703,8.706],[76.538,9.118],[77.234,10.164],[77.434,10.346],[78.672,9.124]]]}},{"type":"Feature","properties":{"name":"Cholas","name_zh":"","focus":false,"label":[78.64,10.3],"area":2.9,"color":"#a07d5a"},"geometry":{"type":"Polygon","coordinates":[[[77.434,10.346],[78.268,11.104],[78.697,11.053],[79.712,11.424],[79.826,10.358],[79.789,10.250],[79.306,10.255],[79.222,10.192],[79.072,9.759],[78.926,9.492],[78.937,9.435],[79.159,9.277],[78.797,9.130],[78.672,9.124],[77.434,10.346]]]}},{"type":"Feature","properties":{"name":"Cheras","name_zh":"","focus":false,"label":[76.95,10.83],"area":4.3,"color":"#b0805f"},"geometry":{"type":"Polygon","coordinates":[[[76.350,12.609],[76.842,12.445],[77.121,12.074],[77.121,11.239],[78.268,11.104],[77.234,10.164],[76.538,9.118],[76.385,9.747],[76.075,10.553],[75.651,11.423],[75.364,11.865],[75.747,12.328],[76.350,12.609]]]}},{"type":"Feature","properties":{"name":"Nan-Zhao","name_zh":"南诏","focus":false,"label":[98.12,21.54],"area":19.4,"color":"#a07d5a"},"geometry":{"type":"Polygon","coordinates":[[[96.338,19.575],[95.774,22.336],[97.640,24.083],[100.136,23.676],[100.352,20.744],[100.122,20.169],[100.259,20.004],[97.605,18.176],[96.338,19.575]]]}},{"type":"Feature","properties":{"name":"Tibetan Empire","name_zh":"吐蕃","focus":false,"label":[89.2,33.08],"area":229.1,"color":"#6f9460"},"geometry":{"type":"Polygon","coordinates":[[[72.315,35.821],[72.315,36.037],[72.665,36.413],[73.819,36.743],[73.934,39.165],[76.093,40.628],[81.923,36.502],[91.489,37.786],[97.896,36.755],[99.352,37.587],[100.151,37.609],[101.578,36.752],[100.679,32.850],[99.752,27.470],[99.908,26.908],[96.453,25.670],[94.491,26.243],[94.465,26.450],[93.909,26.821],[85.654,28.583],[80.738,30.902],[77.337,33.303],[77.051,34.167],[76.038,34.693],[75.672,35.054],[75.034,35.323],[74.855,35.308],[74.822,35.354],[74.404,35.250],[72.993,35.337],[72.938,35.472],[73.189,35.880],[72.315,35.821]]]}},{"type":"Feature","properties":{"name":"Kingdom of Kashmir","name_zh":"迦湿弥罗","focus":false,"label":[74.52,34.07],"area":11.1,"color":"#7d6b5a"},"geometry":{"type":"Polygon","coordinates":[[[76.139,33.002],[75.180,32.944],[74.358,33.155],[73.331,33.135],[72.555,32.791],[71.619,32.637],[71.048,32.867],[71.276,33.479],[71.779,33.973],[72.395,34.294],[72.737,35.250],[73.011,35.343],[74.404,35.250],[74.822,35.354],[74.855,35.308],[75.034,35.323],[75.672,35.054],[76.038,34.693],[77.051,34.167],[77.337,33.303],[77.232,33.377],[77.258,33.059],[76.756,32.752],[76.139,33.002]]]}},{"type":"Feature","properties":{"name":"Sasanian Empire","name_zh":"萨珊","focus":false,"label":[62.7,33.4],"area":70.7,"color":"#9a8a4a"},"geometry":{"type":"Polygon","coordinates":[[[66.322,34.058],[64.496,32.735],[64.415,31.690],[63.046,31.484],[62.884,31.094],[62.965,30.772],[62.858,30.332],[62.884,29.867],[63.314,29.634],[64.012,29.611],[64.469,29.774],[64.791,29.751],[65.463,30.541],[66.618,30.818],[67.147,31.240],[67.024,30.252],[66.634,30.286],[64.904,28.459],[63.560,27.759],[61.627,27.235],[60.670,26.637],[60.589,25.252],[60.298,25.323],[60.0,25.322],[60.0,40.066],[60.380,40.091],[60.939,40.999],[61.956,41.290],[62.698,39.992],[65.017,38.508],[66.779,38.044],[67.057,37.116],[67.167,34.111],[66.322,34.058]]]}},{"type":"Feature","properties":{"name":"Kingdom of Sind","name_zh":"","focus":false,"label":[66.75,27.57],"area":43.4,"color":"#b0805f"},"geometry":{"type":"Polygon","coordinates":[[[71.702,30.934],[72.598,30.356],[72.862,29.934],[72.496,29.332],[72.508,28.983],[71.328,28.527],[71.193,28.103],[70.462,27.372],[69.636,27.150],[69.444,27.286],[68.963,26.790],[69.386,26.446],[69.578,26.549],[70.078,26.205],[70.405,25.547],[69.510,24.251],[68.761,24.208],[67.681,23.820],[67.486,23.928],[67.315,24.092],[67.204,24.588],[67.153,24.651],[66.654,24.783],[66.700,25.114],[66.620,25.317],[66.432,25.488],[66.300,25.494],[65.768,25.309],[64.851,25.205],[64.424,25.173],[64.238,25.210],[64.059,25.401],[63.650,25.336],[63.403,25.164],[62.449,25.162],[61.813,25.053],[61.343,25.026],[60.858,25.095],[60.589,25.252],[60.670,26.637],[61.627,27.235],[63.560,27.759],[64.904,28.459],[66.634,30.286],[68.038,30.163],[69.708,30.304],[71.031,30.689],[71.702,30.934]]]}},{"type":"Feature","properties":{"name":"Western Gokturk Khaganate","name_zh":"西突厥","focus":false,"label":[67.31,41.71],"area":117.3,"color":"#5f87a3"},"geometry":{"type":"MultiPolygon","coordinates":[[[[69.351,36.353],[68.612,35.827],[67.902,35.418],[67.606,35.080],[67.895,34.878],[68.366,34.640],[67.724,34.410],[67.362,34.048],[67.169,34.043],[67.057,37.116],[66.779,38.044],[65.017,38.508],[62.698,39.992],[61.956,41.290],[60.939,40.999],[61.107,41.272],[60.0,42.128],[60.0,43.621],[60.076,43.608],[60.943,44.441],[61.109,44.716],[61.727,44.933],[61.861,45.048],[61.174,45.187],[61.020,45.487],[61.040,45.738],[60.998,45.921],[61.034,46.014],[60.998,46.077],[61.119,46.103],[61.368,46.355],[61.654,46.768],[61.465,46.766],[61.249,46.611],[60.938,46.489],[60.799,46.568],[60.783,46.632],[60.858,46.697],[60.842,46.773],[60.657,46.821],[60.503,46.805],[60.523,46.727],[60.728,46.676],[60.725,46.625],[60.604,46.578],[60.501,46.611],[60.429,46.528],[60.270,46.699],[60.073,46.618],[60.0,46.514],[60.0,49.447],[67.019,47.468],[69.980,43.893],[76.093,40.628],[73.934,39.165],[73.819,36.743],[70.041,35.663],[69.982,35.955],[69.647,36.122],[69.489,36.519],[69.351,36.353]]],[[[60.211,46.287],[60.822,46.243],[60.824,46.213],[60.785,46.151],[60.605,46.126],[60.478,46.204],[60.300,46.163],[60.0,46.210],[60.0,46.497],[60.211,46.287]]]]}},{"type":"Feature","properties":{"name":"Kingdom of Kapisa","name_zh":"","focus":false,"label":[69.87,34.2],"area":15.8,"color":"#5f87a3"},"geometry":{"type":"Polygon","coordinates":[[[67.522,33.706],[68.080,33.823],[67.607,33.931],[67.423,34.109],[67.724,34.410],[68.366,34.640],[67.895,34.878],[67.606,35.080],[67.902,35.418],[68.612,35.827],[69.351,36.353],[69.489,36.519],[69.647,36.122],[69.982,35.955],[70.041,35.663],[72.665,36.413],[72.315,36.037],[72.315,35.821],[73.189,35.880],[72.938,35.472],[72.993,35.337],[72.737,35.250],[72.395,34.294],[71.779,33.973],[71.276,33.479],[71.095,32.994],[71.018,32.982],[70.986,32.712],[70.625,31.743],[70.476,31.989],[69.683,32.481],[69.189,32.036],[68.804,32.242],[68.702,32.176],[67.202,33.149],[67.189,33.490],[67.522,33.706]]]}},{"type":"Feature","properties":{"name":"Kingdom of Zunbil","name_zh":"","focus":false,"label":[66.37,32.46],"area":8.3,"color":"#b0805f"},"geometry":{"type":"Polygon","coordinates":[[[65.911,31.399],[65.547,31.520],[64.420,31.747],[64.496,32.735],[66.322,34.058],[67.167,34.111],[67.169,34.043],[67.362,34.048],[67.423,34.109],[67.607,33.931],[68.080,33.823],[67.522,33.706],[67.189,33.490],[67.202,33.149],[68.702,32.176],[68.231,31.869],[67.634,31.629],[67.375,31.308],[67.139,31.180],[67.147,31.240],[66.618,30.818],[65.503,30.550],[65.517,30.672],[65.911,31.399]]]}},{"type":"Feature","properties":{"name":"Hindu kingdoms","name_zh":"","focus":false,"label":[80.9,22.53],"area":81.8,"color":"#9a8a4a"},"geometry":{"type":"MultiPolygon","coordinates":[[[[76.952,25.063],[76.773,25.833],[76.926,26.039],[76.939,26.278],[76.112,26.324],[75.832,26.130],[75.311,25.512],[73.645,25.155],[71.674,25.109],[71.789,25.270],[72.058,25.877],[72.423,26.067],[72.808,26.515],[73.423,27.030],[73.808,27.235],[73.630,27.140],[74.117,26.544],[76.309,27.045],[78.541,27.627],[80.460,25.708],[82.593,24.781],[83.984,24.781],[84.819,23.853],[84.912,22.740],[84.726,21.905],[84.726,20.885],[85.379,19.605],[85.113,19.442],[84.262,18.455],[83.987,18.207],[83.684,18.083],[83.381,17.710],[82.353,17.085],[80.274,19.865],[80.089,22.091],[79.439,22.184],[77.447,21.807],[76.753,22.309],[76.812,22.327],[77.282,23.171],[77.460,23.615],[77.448,24.613],[76.952,25.063]]],[[[73.289,29.015],[72.508,28.983],[72.496,29.332],[72.862,29.934],[72.598,30.356],[71.702,30.934],[71.031,30.689],[69.708,30.304],[68.038,30.163],[67.024,30.252],[67.139,31.180],[67.375,31.308],[67.634,31.629],[68.231,31.869],[68.804,32.242],[69.189,32.036],[69.683,32.481],[70.476,31.989],[70.625,31.743],[70.986,32.712],[71.018,32.982],[71.095,32.994],[71.048,32.867],[71.619,32.637],[72.555,32.791],[73.331,33.135],[74.358,33.155],[75.180,32.944],[76.139,33.002],[76.756,32.752],[77.258,33.059],[77.232,33.377],[78.342,32.593],[76.842,30.253],[76.921,29.387],[74.852,28.895],[74.673,28.998],[74.154,29.485],[73.827,29.485],[73.289,29.015]]]]}},{"type":"Feature","properties":{"name":"Chalukyas","name_zh":"","focus":false,"label":[76.94,18.95],"area":49.9,"color":"#6f9460"},"geometry":{"type":"Polygon","coordinates":[[[74.520,14.155],[73.841,15.390],[73.409,16.558],[73.064,18.031],[72.759,20.057],[72.864,20.311],[73.109,20.687],[73.112,20.827],[72.931,20.953],[72.765,21.150],[72.685,21.684],[73.454,21.985],[74.090,21.879],[76.049,22.091],[76.753,22.309],[77.447,21.807],[79.439,22.184],[80.089,22.091],[80.274,19.865],[82.353,17.085],[82.234,16.647],[82.081,16.462],[81.788,16.328],[81.596,16.302],[81.369,16.346],[81.253,16.225],[81.087,15.826],[80.963,15.723],[80.735,15.837],[80.459,15.773],[80.300,15.645],[80.163,15.391],[80.089,15.175],[80.087,14.946],[79.439,14.949],[79.068,15.227],[79.068,17.268],[78.976,17.639],[78.048,17.453],[75.080,14.392],[74.520,14.155]]]}},{"type":"Feature","properties":{"name":"Chauhans","name_zh":"","focus":false,"label":[77.05,28.1],"area":5.8,"color":"#5f87a3"},"geometry":{"type":"Polygon","coordinates":[[[74.481,27.355],[74.750,27.662],[74.923,27.440],[74.807,27.132],[75.057,27.150],[75.307,27.406],[75.538,27.798],[75.942,27.900],[76.115,28.307],[75.730,28.425],[74.852,28.895],[76.921,29.387],[76.935,29.233],[78.541,27.627],[76.309,27.045],[74.117,26.544],[73.630,27.140],[73.808,27.235],[74.481,27.355]]]}},{"type":"Feature","properties":{"name":"Tang Empire","name_zh":"唐","focus":true,"label":[110.81,29.52],"area":382.1,"approx":true},"geometry":{"type":"Polygon","coordinates":[[[100.401,39.713],[101.050,40.084],[101.885,39.806],[102.442,38.879],[102.905,38.879],[103.555,40.734],[104.841,41.231],[107.488,41.115],[110.711,40.885],[116.169,40.641],[117.560,40.641],[118.209,40.826],[119.044,42.310],[121.919,42.681],[123.867,43.052],[124.702,42.310],[122.082,40.488],[121.753,40.736],[121.426,40.864],[121.010,40.850],[120.788,40.683],[120.272,40.151],[120.112,40.081],[119.823,40.042],[119.385,39.843],[119.210,39.639],[119.090,39.339],[118.977,39.224],[118.781,39.166],[118.559,39.172],[118.274,38.999],[118.069,39.254],[117.910,39.260],[117.752,39.202],[117.439,38.602],[117.589,38.284],[117.840,38.163],[118.200,38.043],[118.744,38.063],[118.875,37.949],[118.811,37.446],[118.837,37.204],[118.954,37.077],[119.284,37.045],[119.598,37.116],[119.940,37.352],[120.169,37.576],[120.658,37.736],[120.787,37.704],[121.189,37.425],[121.434,37.336],[121.894,37.375],[122.392,37.300],[122.281,36.982],[122.255,36.733],[121.846,36.860],[121.609,36.834],[120.855,36.584],[120.537,36.386],[120.504,36.055],[120.269,35.985],[120.139,36.194],[119.913,36.143],[119.975,35.933],[119.907,35.768],[119.060,35.041],[119.003,34.939],[119.020,34.691],[119.299,34.590],[119.973,34.135],[120.149,33.894],[120.340,33.336],[120.640,33.044],[120.719,32.847],[120.660,32.543],[120.738,32.460],[121.050,32.328],[121.230,32.061],[121.483,31.948],[121.605,31.827],[121.623,31.618],[121.268,31.452],[121.498,31.281],[121.640,30.926],[121.631,30.792],[121.568,30.710],[121.328,30.690],[121.035,30.594],[120.608,30.346],[120.226,30.250],[119.943,30.116],[120.437,29.996],[120.862,30.187],[121.082,30.213],[121.155,30.188],[121.391,29.922],[121.565,29.846],[121.770,29.834],[121.774,29.764],[121.670,29.624],[121.361,29.414],[121.411,29.344],[121.649,29.319],[121.432,28.836],[121.345,28.544],[121.358,28.385],[121.259,28.182],[121.165,28.124],[121.008,28.276],[120.505,27.590],[120.351,27.177],[120.084,26.985],[119.971,26.788],[119.857,26.706],[119.600,26.692],[119.428,26.590],[119.554,26.267],[119.436,26.038],[119.470,25.771],[119.428,25.650],[119.335,25.530],[119.095,25.440],[118.812,24.849],[118.531,24.690],[118.345,24.467],[117.924,24.561],[117.796,24.421],[117.849,24.047],[117.405,23.690],[116.962,23.556],[116.709,23.346],[116.452,23.250],[116.403,23.199],[116.400,22.983],[116.340,22.913],[115.860,22.836],[115.706,22.638],[115.308,22.771],[115.185,22.745],[115.043,22.599],[114.847,22.510],[114.558,22.464],[114.537,22.674],[113.989,22.552],[113.845,22.463],[113.716,22.482],[113.462,22.773],[113.376,22.646],[113.419,22.570],[113.377,22.163],[113.283,22.030],[113.096,21.979],[112.871,22.061],[112.815,21.826],[112.749,21.756],[112.039,21.659],[111.831,21.754],[111.733,21.709],[111.536,21.493],[111.434,21.461],[111.085,21.479],[110.749,21.377],[110.566,21.230],[110.238,21.280],[110.202,21.096],[110.072,20.918],[110.293,20.582],[110.414,20.525],[110.433,20.436],[110.271,20.315],[109.928,20.244],[109.711,20.568],[109.602,20.879],[109.608,21.057],[109.786,21.406],[109.779,21.482],[109.516,21.596],[109.414,21.564],[109.321,21.431],[109.117,21.399],[108.813,21.493],[108.554,21.823],[108.466,21.785],[108.387,21.530],[108.265,21.473],[107.900,21.479],[107.417,21.185],[107.465,20.976],[107.374,20.880],[106.807,20.905],[106.746,20.815],[106.771,20.638],[106.380,20.110],[105.964,19.880],[105.843,19.702],[105.532,18.844],[106.364,18.007],[106.433,17.550],[106.622,17.328],[107.114,16.954],[107.375,16.691],[106.451,16.187],[105.416,17.407],[104.381,18.327],[103.234,20.122],[103.833,20.143],[106.430,24.873],[103.682,26.056],[102.256,25.337],[101.514,24.688],[100.679,24.131],[99.752,27.470],[100.679,32.850],[101.578,36.752],[99.5,38.0],[100.151,37.609],[99.381,37.580],[96.413,38.322],[96.510,39.048],[95.0,39.2],[93.0,39.5],[93.5,40.5],[95.5,42.0],[98.0,41.0],[100.105,39.736],[100.401,39.713]]]}}]}