{"type":"FeatureCollection","features":[{"type":"Feature","properties":{"name":"Saka Kingdom","name_zh":"塞种诸国","focus":false,"label":[71.72,26.06],"area":108.6,"color":"#7d6b5a"},"geometry":{"type":"Polygon","coordinates":[[[73.032,18.215],[72.759,20.057],[72.864,20.311],[73.109,20.687],[73.112,20.827],[72.931,20.953],[72.765,21.15],[72.665,21.848],[72.695,22.128],[72.319,22.115],[72.232,22.019],[72.127,21.828],[72.131,21.746],[72.288,21.549],[72.256,21.352],[72.12,21.155],[71.894,20.989],[71.024,20.657],[70.855,20.65],[70.467,20.777],[70.209,20.947],[69.126,21.968],[68.894,22.285],[69.492,22.248],[69.968,22.351],[70.176,22.478],[70.41,22.752],[70.38,22.86],[70.045,22.777],[69.664,22.789],[69.107,22.898],[68.79,23.028],[68.372,23.326],[68.072,23.675],[68.046,23.764],[67.692,23.814],[67.486,23.928],[67.315,24.092],[67.204,24.588],[67.153,24.651],[66.654,24.783],[66.7,25.114],[66.62,25.317],[66.432,25.488],[67.387,28.226],[70.287,31.287],[74.139,32.608],[74.75,33.655],[75.506,33.615],[76.046,33.509],[75.71,31.997],[75.361,29.641],[75.448,28.332],[76.059,26.587],[77.542,25.54],[79.462,24.842],[79.462,23.969],[78.677,23.533],[78.939,23.097],[79.637,22.486],[79.637,21.352],[73.032,18.215]]]}},{"type":"Feature","properties":{"name":"Satavahanihara","name_zh":"","focus":false,"label":[78.04,17.4],"area":54.6,"color":"#9a8a4a"},"geometry":{"type":"Polygon","coordinates":[[[80.617,21.016],[80.422,20.043],[80.684,19.345],[82.865,19.17],[84.261,19.258],[84.753,19.028],[84.262,18.455],[83.987,18.207],[83.684,18.083],[83.381,17.71],[82.353,17.085],[82.234,16.647],[82.081,16.462],[81.788,16.328],[81.596,16.302],[81.369,16.346],[81.253,16.225],[81.087,15.826],[80.963,15.723],[80.735,15.837],[80.459,15.773],[80.3,15.645],[80.089,15.175],[80.169,13.891],[80.075,13.669],[80.319,13.333],[78.939,12.975],[77.63,12.975],[74.777,13.527],[74.401,14.419],[73.841,15.39],[73.572,16.037],[73.409,16.558],[73.032,18.215],[79.637,21.352],[80.617,21.016]]]}},{"type":"Feature","properties":{"name":"Gupta Empire","name_zh":"笈多王朝","focus":false,"label":[79.91,27.37],"area":87.3,"color":"#4f8f86"},"geometry":{"type":"Polygon","coordinates":[[[79.637,21.352],[79.637,22.486],[78.939,23.097],[78.677,23.533],[79.462,23.969],[79.462,24.842],[77.542,25.54],[76.059,26.587],[75.448,28.332],[75.361,29.641],[75.71,31.997],[76.046,33.509],[77.197,33.284],[79.113,31.037],[82.865,27.896],[86.181,26.413],[87.926,26.064],[89.758,25.976],[91.591,26.587],[93.074,26.849],[93.772,26.5],[93.685,25.715],[93.423,25.017],[92.085,23.168],[91.571,22.543],[91.41,22.72],[91.081,22.561],[90.904,22.56],[90.619,22.96],[90.564,22.979],[90.495,22.922],[90.483,22.68],[90.651,22.325],[90.649,22.134],[90.585,22.058],[90.38,22.019],[90.274,21.778],[90.157,21.733],[89.869,22.133],[89.796,21.832],[89.67,21.719],[89.578,21.7],[89.456,21.941],[89.233,21.655],[89.072,21.774],[88.994,21.629],[89.025,21.546],[88.88,21.514],[88.723,21.539],[88.656,21.857],[88.567,21.895],[88.377,21.577],[88.299,21.551],[88.053,21.938],[87.867,21.696],[87.64,21.563],[86.937,21.288],[86.818,21.186],[86.094,24.929],[85.483,25.802],[84.61,26.151],[83.825,25.889],[83.04,22.748],[82.254,21.963],[80.945,21.701],[80.684,21.352],[80.617,21.016],[79.637,21.352]]]}},{"type":"Feature","properties":{"name":"Hainan","name_zh":"","focus":false,"label":[109.47,19.04],"area":2.6,"color":"#5f87a3"},"geometry":{"type":"Polygon","coordinates":[[[109.915,19.8],[110.06,19.94],[110.617,20.017],[110.885,19.706],[110.612,19.471],[110.427,19.229],[110.298,18.898],[110.361,18.765],[110.262,18.625],[109.669,18.414],[109.429,18.096],[108.651,18.482],[108.576,19.187],[109.198,19.684],[109.42,19.659],[109.55,19.913],[109.915,19.8]]]}},{"type":"Feature","properties":{"name":"Simhala","name_zh":"","focus":false,"label":[80.73,7.62],"area":5.0,"color":"#6f9460"},"geometry":{"type":"Polygon","coordinates":[[[79.674,8.804],[79.705,8.93],[79.896,8.92],[80.052,9.113],[80.076,9.279],[80.178,9.445],[80.109,9.686],[80.347,9.47],[80.662,9.299],[81.093,8.626],[81.06,8.41],[81.326,8.258],[81.445,7.928],[81.804,7.313],[81.866,7.084],[81.779,6.753],[81.599,6.448],[81.202,6.079],[80.851,5.951],[80.562,5.931],[80.341,5.969],[80.222,6.058],[80.127,6.216],[79.854,7.061],[79.832,8.103],[79.724,8.416],[79.808,8.647],[79.674,8.804]]]}},{"type":"Feature","properties":{"name":"Parthian Empire","name_zh":"","focus":false,"label":[60.7,31.44],"area":14.1,"color":"#4f8f86"},"geometry":{"type":"Polygon","coordinates":[[[62.796,34.615],[60.0,28.265],[60.0,37.521],[60.964,37.32],[62.796,34.615]]]}},{"type":"Feature","properties":{"name":"Suren Kingdom","name_zh":"","focus":false,"label":[64.76,29.78],"area":85.0,"color":"#8a6f9e"},"geometry":{"type":"Polygon","coordinates":[[[65.768,25.309],[64.424,25.173],[64.238,25.21],[64.059,25.401],[63.65,25.336],[63.403,25.164],[62.449,25.162],[61.813,25.053],[61.343,25.026],[60.858,25.095],[60.479,25.298],[60.0,25.322],[60.0,28.265],[62.796,34.615],[70.562,34.876],[73.092,34.615],[74.227,34.178],[74.75,33.655],[74.139,32.608],[70.287,31.287],[67.387,28.226],[66.432,25.488],[66.3,25.494],[65.768,25.309]]]}},{"type":"Feature","properties":{"name":"Kalinga","name_zh":"","focus":false,"label":[84.62,22.36],"area":27.4,"color":"#4f8f86"},"geometry":{"type":"Polygon","coordinates":[[[86.844,20.875],[86.926,20.691],[86.637,20.319],[86.632,20.203],[86.119,19.806],[85.379,19.605],[85.113,19.442],[84.753,19.028],[84.261,19.258],[82.865,19.17],[80.684,19.345],[80.422,20.043],[80.684,21.352],[80.945,21.701],[82.254,21.963],[83.04,22.748],[83.825,25.889],[84.61,26.151],[85.483,25.802],[86.094,24.929],[86.818,21.186],[86.844,20.875]]]}},{"type":"Feature","properties":{"name":"Hindu kingdoms","name_zh":"","focus":false,"label":[77.81,10.99],"area":17.2,"color":"#9a8a4a"},"geometry":{"type":"Polygon","coordinates":[[[80.313,13.104],[79.769,11.73],[79.71,11.444],[79.826,10.358],[79.789,10.25],[79.306,10.255],[79.222,10.192],[79.072,9.759],[78.926,9.492],[78.937,9.435],[79.159,9.277],[78.313,8.995],[78.181,8.811],[78.135,8.499],[78.064,8.385],[77.484,8.028],[77.341,8.053],[76.703,8.706],[76.537,9.118],[76.385,9.747],[76.075,10.553],[75.651,11.423],[75.21,12.102],[74.777,13.527],[77.63,12.975],[78.939,12.975],[80.319,13.333],[80.313,13.104]]]}},{"type":"Feature","properties":{"name":"Yueban","name_zh":"悦般","focus":false,"label":[72.74,45.79],"area":8.1,"color":"#a07d5a"},"geometry":{"type":"Polygon","coordinates":[[[71.419,44.614],[71.495,46.687],[73.663,47.772],[75.298,47.413],[75.336,46.844],[74.119,46.216],[73.929,45.367],[73.435,44.505],[71.419,44.614]]]}},{"type":"Feature","properties":{"name":"Han Zhao","name_zh":"汉赵","focus":false,"label":[109.06,37.87],"area":34.6,"color":"#6f9460"},"geometry":{"type":"Polygon","coordinates":[[[106.357,42.043],[106.02,41.373],[107.0,41.3],[112.059,41.507],[112.068,41.202],[112.418,38.959],[112.287,36.257],[109.75,35.619],[105.812,36.784],[105.639,39.588],[105.924,41.183],[106.357,42.043]]]}},{"type":"Feature","properties":{"name":"Ainu","name_zh":"","focus":false,"label":[143.26,43.52],"area":18.1,"color":"#7272a8"},"geometry":{"type":"MultiPolygon","coordinates":[[[[139.852,42.035],[139.777,42.112],[139.711,42.477],[139.973,42.651],[140.499,42.896],[140.516,43.057],[140.373,43.185],[140.498,43.32],[140.598,43.326],[140.896,43.134],[141.064,43.096],[141.303,43.187],[141.301,43.72],[141.709,43.914],[141.745,44.628],[141.566,44.969],[141.522,45.182],[141.597,45.279],[141.875,45.435],[143.02,44.463],[143.79,44.027],[144.613,43.842],[144.75,43.881],[145.139,44.178],[145.347,44.243],[145.059,43.785],[145.448,43.169],[144.994,42.937],[144.754,42.866],[144.59,42.859],[144.37,42.949],[144.166,42.942],[144.002,42.877],[143.508,42.42],[143.33,42.196],[143.213,41.926],[143.033,41.958],[141.928,42.501],[141.721,42.539],[141.396,42.519],[140.929,42.255],[140.86,42.39],[140.693,42.55],[140.54,42.537],[140.223,42.363],[140.245,42.228],[140.767,42.005],[141.155,41.749],[140.979,41.652],[140.588,41.677],[140.268,41.324],[140.112,41.273],[140.012,41.381],[139.977,41.503],[140.124,41.792],[140.099,41.945],[139.852,42.035]]],[[[146.076,43.513],[146.152,43.545],[146.226,43.525],[146.13,43.458],[146.076,43.513]]],[[[146.682,43.707],[146.598,43.732],[146.604,43.803],[146.842,43.874],[146.904,43.839],[146.682,43.707]]],[[[146.568,44.438],[146.508,44.358],[146.119,44.251],[145.94,44.128],[145.779,43.928],[145.595,43.858],[145.554,43.65],[145.437,43.716],[145.409,43.835],[145.744,44.051],[146.127,44.507],[146.344,44.421],[146.568,44.438]]],[[[148.582,45.316],[148.235,45.198],[147.877,44.974],[147.762,44.938],[147.62,44.966],[147.585,44.918],[147.622,44.897],[147.548,44.812],[147.291,44.666],[147.209,44.55],[147.021,44.507],[146.948,44.408],[146.84,44.415],[146.846,44.476],[147.153,44.673],[147.111,44.793],[147.479,44.974],[147.504,45.043],[147.656,45.075],[147.763,45.189],[147.894,45.223],[147.856,45.356],[147.932,45.421],[148.0,45.273],[148.069,45.248],[148.321,45.27],[148.7,45.52],[148.856,45.474],[148.825,45.334],[148.582,45.316]]],[[[149.442,45.589],[149.667,45.85],[149.856,45.923],[150.0,46.045],[150.0,45.831],[149.684,45.633],[149.442,45.589]]],[[[142.943,51.617],[143.074,51.267],[143.34,50.885],[143.633,50.234],[144.038,49.508],[144.539,48.753],[143.598,49.233],[143.152,49.258],[142.853,49.127],[142.646,48.657],[142.489,47.901],[142.614,47.459],[142.993,46.953],[143.236,46.863],[143.444,46.571],[143.303,46.011],[143.004,46.577],[142.614,46.712],[142.513,46.699],[142.327,46.563],[141.898,45.914],[141.708,46.139],[141.622,46.558],[141.909,47.073],[141.731,47.471],[141.81,47.675],[142.036,47.959],[141.977,48.284],[141.739,48.807],[141.921,48.943],[142.049,49.354],[142.152,50.89],[142.112,51.219],[142.016,51.43],[141.643,51.813],[141.598,52.216],[141.811,52.628],[141.84,52.96],[141.689,53.165],[141.767,53.272],[142.214,53.299],[142.674,53.54],[142.863,53.34],[143.056,53.061],[143.138,52.856],[143.143,52.511],[143.033,52.312],[142.944,51.961],[142.943,51.617]]]]}},{"type":"Feature","properties":{"name":"Paleo-Siberian hunter-gatherers","name_zh":"","focus":false,"label":[126.85,54.02],"area":224.3,"color":"#7d6b5a","nolabel":true},"geometry":{"type":"MultiPolygon","coordinates":[[[[138.866,57.124],[138.345,56.804],[137.229,55.982],[136.521,55.589],[135.269,55.028],[134.985,54.853],[134.893,54.719],[134.902,54.559],[135.094,54.432],[135.312,54.413],[135.725,54.407],[136.196,54.474],[136.491,54.455],[136.343,53.887],[136.35,53.701],[136.487,53.654],[136.77,53.695],[137.04,53.862],[137.382,53.809],[137.121,53.589],[137.071,53.489],[137.239,53.456],[137.979,53.464],[138.234,53.571],[138.409,53.805],[138.416,54.091],[139.378,54.08],[139.805,53.961],[140.102,53.801],[140.321,53.535],[141.121,53.051],[141.089,52.985],[140.828,52.825],[141.047,52.689],[134.869,52.009],[127.335,49.977],[119.935,51.257],[116.706,54.659],[114.867,58.0],[140.347,58.0],[140.028,57.644],[138.866,57.124]]],[[[93.7,56.484],[78.362,56.41],[65.311,55.046],[60.0,56.229],[60.0,56.559],[62.805,56.955],[65.855,58.0],[104.256,58.0],[99.485,55.658],[99.537,55.281],[93.7,56.484]]]]}},{"type":"Feature","properties":{"name":"Finno-Ugric taiga hunter-gatherers","name_zh":"","focus":false,"label":[62.17,57.48],"area":5.1,"color":"#5f87a3","nolabel":true},"geometry":{"type":"Polygon","coordinates":[[[60.0,56.559],[60.0,58.0],[65.855,58.0],[62.805,56.955],[60.0,56.559]]]}},{"type":"Feature","properties":{"name":"Gaya","name_zh":"","focus":false,"label":[128.08,35.19],"area":0.2,"color":"#9a8a4a"},"geometry":{"type":"Polygon","coordinates":[[[128.03,35.332],[128.401,35.053],[128.372,35.004],[128.487,35.047],[128.445,34.838],[128.335,34.871],[128.329,34.949],[128.216,34.93],[128.203,34.888],[128.066,34.924],[128.02,34.986],[127.816,34.949],[128.03,35.332]]]}},{"type":"Feature","properties":{"name":"Koguryo","name_zh":"高句丽","focus":false,"label":[127.13,40.02],"area":13.6,"color":"#a07d5a"},"geometry":{"type":"Polygon","coordinates":[[[126.393,37.608],[126.209,37.754],[126.168,37.713],[125.653,42.653],[126.667,42.991],[129.641,41.655],[129.59,41.469],[129.631,41.277],[129.477,40.682],[129.177,40.63],[128.446,40.065],[128.236,39.969],[127.931,39.956],[127.671,39.866],[127.44,39.623],[127.546,39.335],[127.276,39.221],[127.469,39.131],[127.734,39.115],[128.363,38.625],[128.611,38.172],[126.755,37.057],[126.776,37.123],[126.869,37.176],[126.694,37.121],[126.658,37.248],[126.766,37.231],[126.861,37.262],[126.847,37.304],[126.722,37.328],[126.741,37.386],[126.66,37.407],[126.621,37.481],[126.674,37.488],[126.658,37.554],[126.541,37.674],[126.393,37.608]]]}},{"type":"Feature","properties":{"name":"Paekche","name_zh":"百济","focus":false,"label":[127.32,35.93],"area":3.9,"color":"#7d6b5a"},"geometry":{"type":"Polygon","coordinates":[[[128.03,35.332],[127.816,34.949],[127.569,34.917],[127.638,34.814],[127.773,34.843],[127.747,34.727],[127.64,34.616],[127.556,34.651],[127.567,34.766],[127.493,34.851],[127.363,34.751],[127.514,34.591],[127.389,34.471],[127.315,34.443],[127.124,34.537],[127.201,34.633],[127.192,34.569],[127.242,34.569],[127.328,34.652],[127.328,34.743],[127.009,34.602],[126.889,34.412],[126.8,34.463],[126.783,34.587],[126.6,34.3],[126.478,34.345],[126.463,34.484],[126.288,34.59],[126.289,34.742],[126.451,34.578],[126.451,34.648],[126.618,34.619],[126.476,34.724],[126.659,34.812],[126.539,34.873],[126.51,34.775],[126.375,34.785],[126.433,34.963],[126.318,34.932],[126.249,35.116],[126.344,35.151],[126.359,35.069],[126.431,35.023],[126.458,35.09],[126.36,35.18],[126.421,35.406],[126.523,35.524],[126.687,35.533],[126.664,35.591],[126.498,35.578],[126.474,35.635],[126.751,35.778],[126.801,35.861],[126.788,35.894],[126.615,35.89],[126.631,35.967],[126.761,35.995],[126.872,36.054],[126.685,35.999],[126.544,36.136],[126.464,36.574],[126.527,36.592],[126.497,36.723],[126.347,36.739],[126.293,36.581],[126.272,36.717],[126.186,36.67],[126.123,36.709],[126.184,36.878],[126.304,36.962],[126.294,36.787],[126.415,36.896],[126.334,36.985],[126.429,37.004],[126.478,36.839],[126.517,37.052],[126.619,36.972],[126.781,36.963],[126.846,36.752],[127.0,36.929],[126.908,36.919],[126.755,37.057],[127.666,37.606],[128.148,35.243],[128.03,35.332]]]}},{"type":"Feature","properties":{"name":"Silla","name_zh":"新罗","focus":false,"label":[128.66,36.51],"area":4.1,"color":"#5f87a3"},"geometry":{"type":"Polygon","coordinates":[[[127.683,37.616],[128.611,38.172],[129.049,37.685],[129.342,37.257],[129.433,37.058],[129.416,36.942],[129.474,36.774],[129.416,36.616],[129.438,36.4],[129.381,36.314],[129.388,36.025],[129.463,35.994],[129.557,36.078],[129.588,36.007],[129.439,35.475],[129.136,35.112],[128.978,35.084],[128.973,35.134],[128.919,35.089],[128.734,35.092],[128.611,35.173],[128.401,35.053],[128.148,35.243],[127.683,37.616]]]}},{"type":"Feature","properties":{"name":"Xianbei","name_zh":"鲜卑","focus":false,"label":[106.25,46.0],"area":268.1,"approx":true,"color":"#a3727a"},"geometry":{"type":"Polygon","coordinates":[[[92.0,49.0],[100.0,51.5],[110.0,51.0],[118.0,50.0],[123.0,47.0],[124.5,44.0],[121.0,42.6],[113.039,41.629],[112.053,41.751],[112.059,41.507],[112.0,41.5],[107.0,41.3],[106.02,41.373],[106.357,42.043],[106.017,41.373],[103.0,41.6],[97.0,42.6],[92.0,43.8],[88.0,45.0],[92.0,49.0]]]}},{"type":"Feature","properties":{"name":"Jin","name_zh":"西晋","focus":true,"label":[110.87,30.2],"area":352.0},"geometry":{"type":"MultiPolygon","coordinates":[[[[105.812,36.784],[109.75,35.619],[112.287,36.257],[112.418,38.959],[112.068,41.202],[112.053,41.751],[113.317,41.595],[118.546,41.425],[120.472,41.682],[121.345,42.555],[122.305,42.729],[123.264,41.857],[125.653,42.653],[126.167,37.713],[126.052,37.6],[125.909,37.511],[125.741,37.784],[125.561,37.835],[125.269,37.484],[125.076,37.77],[124.769,37.935],[124.693,38.139],[124.736,38.279],[124.929,38.464],[125.268,38.567],[125.293,38.688],[125.027,38.815],[125.296,39.364],[125.206,39.485],[124.922,39.618],[124.688,39.605],[124.548,39.541],[124.442,39.573],[124.208,39.738],[124.104,39.884],[123.916,39.807],[123.039,39.672],[122.027,39.255],[121.488,38.878],[121.216,38.756],[121.065,38.75],[121.123,38.865],[121.66,39.331],[121.448,39.382],[121.282,39.349],[121.213,39.483],[121.239,39.553],[121.668,39.905],[121.788,40.078],[122.107,40.353],[122.082,40.488],[121.753,40.736],[121.426,40.864],[121.01,40.85],[120.788,40.683],[120.272,40.151],[120.112,40.081],[119.823,40.042],[119.385,39.843],[119.21,39.639],[119.09,39.339],[118.977,39.224],[118.781,39.166],[118.559,39.172],[118.274,38.999],[118.069,39.254],[117.91,39.26],[117.752,39.202],[117.439,38.602],[117.589,38.284],[117.84,38.163],[118.2,38.043],[118.744,38.063],[118.875,37.949],[118.811,37.446],[118.837,37.204],[118.954,37.077],[119.284,37.045],[119.598,37.116],[119.94,37.352],[120.169,37.576],[120.658,37.736],[120.787,37.704],[121.189,37.425],[121.434,37.336],[121.894,37.375],[122.392,37.3],[122.281,36.982],[122.255,36.733],[121.846,36.86],[121.609,36.834],[120.855,36.584],[120.537,36.386],[120.504,36.055],[120.269,35.985],[120.139,36.194],[119.913,36.143],[119.975,35.933],[119.907,35.768],[119.06,35.041],[119.003,34.939],[119.02,34.691],[119.299,34.59],[119.973,34.135],[120.149,33.894],[120.34,33.336],[120.64,33.044],[120.719,32.847],[120.664,32.565],[120.664,32.565],[120.662,32.565],[120.660,32.565],[119.499,32.519],[119.497,32.519],[119.494,32.519],[117.995,32.119],[113.998,31.519],[111.999,31.419],[111.997,31.419],[110.197,31.219],[110.195,31.219],[110.193,31.219],[110.192,31.218],[110.190,31.217],[110.188,31.216],[110.187,31.215],[110.185,31.214],[110.184,31.212],[110.183,31.211],[110.182,31.209],[110.181,31.207],[110.180,31.205],[110.180,31.203],[110.180,31.201],[110.18,31.2],[110.18,29.004],[108.983,26.512],[106.487,24.515],[106.486,24.514],[106.484,24.513],[106.483,24.511],[106.482,24.510],[106.481,24.508],[106.481,24.506],[106.480,24.504],[106.480,24.503],[105.671,19.246],[105.671,19.244],[105.671,19.242],[105.671,19.240],[105.671,19.238],[105.672,19.236],[105.672,19.234],[105.673,19.233],[105.532,18.844],[105.598,18.776],[105.598,18.775],[105.598,18.773],[105.480,17.785],[104.381,18.327],[103.234,20.122],[102.383,24.01],[102.011,24.68],[100.414,25.085],[99.752,27.47],[102.672,31.735],[103.894,31.648],[103.545,34.789],[102.934,35.225],[101.102,35.574],[100.229,35.574],[100.84,37.145],[98.833,38.367],[96.332,39.466],[94.732,40.025],[94.645,40.461],[95.081,40.81],[96.39,40.897],[97.524,41.159],[98.222,41.508],[98.746,41.421],[98.484,39.85],[99.444,39.675],[100.578,39.588],[100.84,40.374],[101.363,40.635],[102.672,40.548],[103.37,40.286],[103.806,39.501],[104.592,39.414],[105.639,39.588],[105.812,36.784]]],[[[121.645,31.688],[121.638,31.668],[121.633,31.727],[121.645,31.688]]]]}},{"type":"Feature","properties":{"name":"Wu","name_zh":"吴","focus":true,"label":[113.85,25.91],"area":112.6},"geometry":{"type":"MultiPolygon","coordinates":[[[[106.364,18.007],[106.393,17.664],[105.5,17.779],[105.618,18.771],[106.364,18.007]]],[[[120.738,32.46],[121.05,32.328],[121.23,32.061],[121.483,31.948],[121.605,31.827],[121.623,31.618],[121.268,31.452],[121.498,31.281],[121.64,30.926],[121.631,30.792],[121.568,30.71],[121.328,30.69],[121.035,30.594],[120.608,30.346],[120.226,30.25],[119.943,30.116],[120.437,29.996],[120.862,30.187],[121.082,30.213],[121.155,30.188],[121.391,29.922],[121.565,29.846],[121.77,29.834],[121.774,29.764],[121.67,29.624],[121.361,29.414],[121.411,29.344],[121.649,29.319],[121.432,28.836],[121.345,28.544],[121.358,28.385],[121.259,28.182],[121.165,28.124],[121.008,28.276],[120.505,27.59],[120.351,27.177],[120.084,26.985],[119.971,26.788],[119.857,26.706],[119.6,26.692],[119.428,26.59],[119.554,26.267],[119.436,26.038],[119.47,25.771],[119.428,25.65],[119.335,25.53],[119.095,25.44],[118.812,24.849],[118.531,24.69],[118.345,24.467],[117.924,24.561],[117.796,24.421],[117.849,24.047],[117.405,23.69],[116.962,23.556],[116.709,23.346],[116.452,23.25],[116.403,23.199],[116.4,22.983],[116.34,22.913],[115.86,22.836],[115.706,22.638],[115.308,22.771],[115.185,22.745],[115.043,22.599],[114.847,22.51],[114.558,22.464],[114.537,22.674],[113.989,22.552],[113.845,22.463],[113.716,22.482],[113.462,22.773],[113.376,22.646],[113.419,22.57],[113.377,22.163],[113.283,22.03],[113.096,21.979],[112.871,22.061],[112.815,21.826],[112.749,21.756],[112.039,21.659],[111.831,21.754],[111.733,21.709],[111.536,21.493],[111.434,21.461],[111.085,21.479],[110.749,21.377],[110.566,21.23],[110.238,21.28],[110.202,21.096],[110.072,20.918],[110.293,20.582],[110.414,20.525],[110.433,20.436],[110.271,20.315],[109.928,20.244],[109.711,20.568],[109.602,20.879],[109.608,21.057],[109.786,21.406],[109.779,21.482],[109.516,21.596],[109.414,21.564],[109.321,21.431],[109.117,21.399],[108.813,21.493],[108.554,21.823],[108.466,21.785],[108.387,21.53],[108.265,21.473],[107.9,21.479],[107.417,21.185],[107.465,20.976],[107.374,20.88],[106.807,20.905],[106.746,20.815],[106.771,20.638],[106.38,20.11],[105.964,19.88],[105.843,19.702],[105.691,19.243],[106.5,24.5],[109.0,26.5],[110.2,29.0],[110.2,31.2],[112.0,31.4],[114.0,31.5],[118.0,32.1],[119.5,32.5],[120.661,32.546],[120.738,32.46]]]]}}]}