{"type":"FeatureCollection","features":[{"type":"Feature","properties":{"name":"Austronesians","name_zh":"","focus":false,"label":[116.73,6.0],"area":4.2,"color":"#5f87a3"},"geometry":{"type":"MultiPolygon","coordinates":[[[[114.849,5.0],[114.799,5.0],[114.853,5.015],[114.849,5.0]]],[[[95.216,5.499],[95.283,5.55],[95.464,5.569],[95.627,5.525],[96.024,5.215],[96.187,5.145],[96.752,5.064],[97.384,5.18],[97.561,5.0],[95.293,5.0],[95.205,5.245],[95.216,5.499]]],[[[115.203,5.275],[115.291,5.453],[115.717,5.467],[115.787,5.74],[115.97,5.881],[116.098,6.097],[116.337,6.358],[116.595,6.899],[116.74,6.689],[116.889,6.645],[117.031,6.836],[117.168,6.614],[117.507,6.392],[117.54,6.24],[117.353,5.877],[117.37,5.788],[117.866,5.904],[117.918,5.802],[117.761,5.58],[118.256,5.663],[118.377,5.638],[118.997,5.277],[119.042,5.169],[118.908,5.0],[115.432,5.0],[115.417,5.111],[115.203,5.275]]]]}},{"type":"Feature","properties":{"name":"Austro-Asiatic rice cultures","name_zh":"","focus":false,"label":[102.27,16.79],"area":185.0,"color":"#4f8f86"},"geometry":{"type":"MultiPolygon","coordinates":[[[[94.25,19.75],[94.075,19.825],[94.05,20.05],[93.975,20.15],[93.975,20.425],[93.85,20.525],[93.825,20.725],[93.75,20.85],[93.75,21.075],[93.85,21.175],[93.9,20.95],[94.0,20.9],[94.175,20.9],[94.2,20.95],[94.45,20.95],[94.625,21.075],[94.8,21.1],[94.825,21.225],[94.975,21.225],[95.025,21.3],[95.15,21.3],[95.225,21.375],[95.4,21.375],[95.775,21.575],[96.05,21.575],[96.25,21.625],[96.375,21.725],[96.525,21.725],[96.775,22.025],[96.875,22.025],[96.875,21.8],[97.075,21.6],[97.075,21.525],[97.375,21.2],[97.45,21.375],[97.425,21.7],[97.65,21.85],[97.7,22.05],[97.925,22.1],[98.125,22.25],[98.225,22.375],[98.525,22.35],[98.55,22.175],[98.75,22.075],[98.675,21.875],[98.9,21.925],[98.95,22.0],[99.1,22.0],[99.175,21.925],[99.325,21.9],[99.375,22.125],[99.5,22.175],[99.5,22.35],[99.55,22.4],[99.775,22.325],[99.825,22.525],[99.8,22.65],[99.9,22.675],[100.05,22.55],[100.125,22.425],[100.275,22.425],[100.275,22.35],[100.45,22.225],[100.5,22.325],[100.725,22.175],[100.8,22.0],[100.875,22.0],[100.95,21.85],[101.075,21.85],[101.175,21.75],[101.475,21.775],[101.575,21.85],[101.575,22.075],[101.8,22.1],[102.05,22.35],[102.0,22.55],[102.075,22.625],[102.45,22.6],[102.575,22.7],[102.875,22.625],[102.9,22.7],[103.05,22.825],[103.05,22.9],[103.175,22.9],[103.325,22.8],[103.45,22.8],[103.575,22.925],[103.575,23.075],[103.775,23.325],[103.95,23.325],[104.15,23.15],[104.15,23.075],[104.3,23.05],[104.35,23.175],[104.475,23.275],[104.475,23.45],[104.6,23.625],[104.65,23.825],[105.05,23.75],[105.325,23.55],[105.6,23.55],[105.875,23.45],[105.975,23.35],[106.25,23.325],[106.5,23.5],[106.7,23.525],[106.725,23.75],[106.925,23.75],[106.975,23.65],[107.2,23.675],[107.35,23.875],[107.45,23.95],[107.7,23.95],[107.85,23.725],[108.0,23.725],[108.05,23.825],[108.275,23.9],[108.325,24.0],[108.6,24.0],[108.7,23.875],[108.8,23.875],[108.925,24.075],[109.05,24.1],[109.15,23.975],[109.35,23.975],[109.5,23.875],[109.7,23.95],[109.85,23.875],[109.875,23.8],[110.1,23.95],[110.15,24.125],[110.225,24.175],[110.15,24.325],[110.15,24.675],[110.4,24.625],[110.65,24.925],[110.65,25.125],[110.75,25.175],[110.75,25.3],[110.9,25.4],[111.0,25.275],[111.125,25.3],[111.275,25.475],[111.5,25.475],[111.675,25.4],[111.85,25.2],[112.0,25.225],[112.375,25.225],[112.425,25.35],[112.525,25.425],[112.75,25.4],[112.875,25.3],[113.15,25.25],[113.15,25.325],[113.3,25.475],[113.5,25.475],[113.55,25.575],[113.8,25.75],[113.925,25.9],[113.975,26.025],[114.225,26.025],[114.5,26.175],[114.85,26.2],[114.9,26.15],[114.925,26.3],[114.85,26.45],[115.1,26.475],[115.225,26.625],[115.725,26.625],[115.725,26.8],[116.0,27.075],[116.15,27.0],[116.3,27.0],[116.5,26.925],[116.6,26.8],[116.725,26.95],[116.925,26.975],[117.15,27.125],[117.35,27.425],[117.325,27.6],[117.425,27.7],[117.55,27.7],[117.725,27.85],[118.1,28.0],[118.175,28.075],[118.4,28.075],[118.6,28.3],[118.825,28.3],[118.875,28.3],[119.0,28.275],[119.1,28.375],[119.275,28.275],[119.225,28.125],[119.3,28.1],[119.325,27.8],[119.45,27.7],[119.5,27.55],[119.65,27.45],[119.95,27.425],[119.975,27.1],[120.225,27.1],[120.255,27.061],[120.139,26.886],[120.097,26.781],[120.087,26.672],[120.043,26.634],[119.968,26.586],[119.882,26.61],[119.879,26.683],[119.842,26.689],[119.836,26.705],[119.613,26.693],[119.624,26.676],[119.638,26.621],[119.726,26.609],[119.785,26.547],[119.831,26.45],[119.84,26.414],[119.876,26.371],[119.881,26.334],[119.797,26.3],[119.693,26.236],[119.567,26.127],[119.463,26.055],[119.445,26.055],[119.436,26.038],[119.444,25.972],[119.501,26.009],[119.619,26.004],[119.648,25.919],[119.617,25.823],[119.553,25.699],[119.539,25.591],[119.619,25.437],[119.622,25.391],[119.593,25.368],[119.499,25.409],[119.422,25.46],[119.344,25.446],[119.263,25.468],[119.18,25.45],[119.146,25.414],[119.169,25.356],[119.244,25.307],[119.286,25.232],[119.236,25.206],[119.025,25.223],[118.986,25.212],[118.927,25.089],[118.956,25.005],[118.909,24.929],[118.844,24.916],[118.812,24.849],[118.693,24.781],[118.719,24.746],[118.657,24.621],[118.56,24.58],[118.452,24.595],[118.361,24.486],[118.407,24.522],[118.451,24.456],[118.433,24.414],[118.295,24.436],[118.287,24.477],[118.328,24.471],[118.179,24.504],[118.183,24.496],[118.15,24.436],[118.091,24.446],[118.089,24.489],[118.077,24.501],[118.086,24.525],[118.012,24.541],[118.006,24.482],[117.935,24.474],[117.897,24.48],[117.845,24.475],[117.843,24.472],[117.848,24.432],[117.879,24.396],[118.024,24.38],[118.051,24.327],[118.056,24.246],[117.904,24.106],[117.839,24.012],[117.807,24.013],[117.647,23.884],[117.628,23.837],[117.601,23.848],[117.462,23.736],[117.417,23.621],[117.368,23.589],[117.347,23.636],[117.339,23.67],[117.19,23.625],[117.148,23.599],[117.083,23.579],[117.071,23.589],[116.962,23.556],[116.867,23.477],[116.861,23.453],[116.76,23.383],[116.745,23.376],[116.709,23.346],[116.672,23.332],[116.682,23.327],[116.699,23.278],[116.669,23.228],[116.586,23.218],[116.538,23.18],[116.52,23.007],[116.471,22.946],[116.365,22.942],[116.34,22.913],[116.012,22.86],[115.852,22.802],[115.836,22.805],[115.706,22.638],[115.464,22.719],[115.383,22.719],[115.301,22.769],[115.185,22.745],[115.043,22.599],[114.847,22.51],[114.558,22.464],[114.552,22.529],[114.496,22.527],[114.42,22.583],[114.341,22.593],[114.266,22.541],[114.291,22.499],[114.285,22.458],[114.325,22.437],[114.335,22.396],[114.291,22.374],[114.288,22.325],[114.268,22.296],[114.139,22.348],[114.033,22.376],[113.937,22.365],[113.903,22.396],[113.896,22.428],[114.007,22.484],[114.015,22.512],[113.949,22.527],[113.845,22.463],[113.716,22.482],[113.462,22.773],[113.444,22.747],[113.45,22.726],[113.485,22.692],[113.546,22.604],[113.475,22.675],[113.475,22.575],[113.549,22.6],[113.553,22.594],[113.551,22.404],[113.589,22.35],[113.576,22.297],[113.548,22.223],[113.499,22.202],[113.416,22.178],[113.377,22.168],[113.377,22.163],[113.283,22.03],[113.096,21.979],[112.994,22.016],[112.984,21.938],[112.954,21.907],[112.904,21.881],[112.839,21.925],[112.815,21.826],[112.749,21.756],[112.039,21.659],[111.885,21.73],[111.873,21.717],[111.825,21.71],[111.776,21.719],[111.712,21.655],[111.682,21.608],[111.603,21.559],[111.596,21.558],[111.536,21.493],[111.434,21.461],[111.085,21.479],[111.003,21.454],[110.997,21.43],[110.878,21.396],[110.784,21.388],[110.766,21.382],[110.652,21.279],[110.567,21.214],[110.504,21.207],[110.458,21.231],[110.454,21.247],[110.399,21.256],[110.397,21.248],[110.375,21.172],[110.331,21.131],[110.194,21.038],[110.154,20.945],[110.18,20.859],[110.365,20.838],[110.388,20.791],[110.371,20.752],[110.326,20.72],[110.313,20.672],[110.512,20.518],[110.518,20.46],[110.487,20.427],[110.45,20.355],[110.345,20.295],[110.123,20.264],[110.068,20.273],[109.928,20.244],[109.711,20.568],[109.602,20.879],[109.608,21.057],[109.786,21.406],[109.779,21.482],[109.537,21.587],[109.544,21.538],[109.436,21.479],[109.347,21.454],[109.336,21.453],[109.321,21.431],[109.117,21.399],[108.813,21.493],[108.554,21.823],[108.485,21.793],[108.493,21.739],[108.526,21.671],[108.502,21.633],[108.444,21.607],[108.42,21.636],[108.387,21.53],[108.265,21.473],[107.9,21.479],[107.517,21.246],[107.563,21.22],[107.603,21.217],[107.459,21.092],[107.438,21.092],[107.465,20.976],[107.374,20.88],[106.815,20.905],[106.855,20.858],[106.866,20.816],[106.854,20.796],[106.803,20.844],[106.776,20.86],[106.746,20.815],[106.771,20.638],[106.532,20.315],[106.518,20.289],[106.507,20.281],[106.38,20.11],[105.964,19.88],[105.935,19.837],[105.814,19.587],[105.812,19.467],[105.785,19.379],[105.791,19.294],[105.716,19.128],[105.639,19.057],[105.622,18.966],[105.732,18.779],[105.744,18.746],[105.808,18.646],[105.839,18.574],[105.888,18.502],[106.066,18.316],[106.145,18.259],[106.24,18.221],[106.412,18.053],[106.499,17.946],[106.459,17.874],[106.479,17.72],[106.403,17.748],[106.406,17.726],[106.517,17.663],[106.736,17.367],[106.926,17.221],[107.12,17.056],[107.18,16.898],[107.355,16.794],[107.549,16.643],[107.541,16.609],[107.593,16.568],[107.724,16.488],[107.803,16.403],[107.834,16.322],[107.882,16.31],[107.936,16.329],[107.991,16.337],[108.029,16.331],[108.082,16.252],[108.095,16.251],[108.156,16.177],[108.17,16.164],[108.175,16.154],[108.223,16.095],[108.241,16.101],[108.267,16.09],[108.274,16.029],[108.286,15.989],[108.395,15.872],[108.447,15.763],[108.578,15.585],[108.674,15.484],[108.743,15.427],[108.821,15.378],[108.898,15.181],[108.94,15.001],[109.022,14.803],[109.085,14.716],[109.087,14.553],[109.137,14.384],[109.191,14.27],[109.207,14.154],[109.224,14.097],[109.245,14.053],[109.303,13.856],[109.288,13.765],[109.247,13.855],[109.252,13.591],[109.288,13.451],[109.272,13.279],[109.31,13.219],[109.377,13.025],[109.424,12.956],[109.42,12.719],[109.445,12.6],[109.381,12.671],[109.336,12.752],[109.274,12.709],[109.219,12.646],[109.305,12.391],[109.207,12.415],[109.216,12.073],[109.256,11.993],[109.259,11.955],[109.247,11.909],[109.22,11.959],[109.215,12.01],[109.199,11.999],[109.2,11.972],[109.167,11.912],[109.158,11.837],[109.193,11.773],[109.199,11.725],[109.173,11.665],[109.133,11.601],[109.048,11.593],[109.037,11.574],[109.018,11.468],[108.987,11.336],[108.877,11.323],[108.695,11.145],[108.439,11.059],[108.419,11.041],[108.272,10.934],[108.176,10.92],[108.095,10.897],[108.001,10.72],[107.845,10.7],[107.83,10.692],[107.672,10.526],[107.412,10.367],[107.265,10.347],[107.156,10.389],[107.084,10.337],[107.078,10.388],[107.116,10.405],[107.035,10.436],[106.971,10.486],[106.966,10.441],[106.947,10.4],[106.902,10.383],[106.813,10.433],[106.733,10.529],[106.708,10.458],[106.741,10.444],[106.778,10.376],[106.776,10.339],[106.757,10.296],[106.722,10.294],[106.734,10.19],[106.785,10.151],[106.785,10.116],[106.746,10.085],[106.748,10.067],[106.656,9.743],[106.571,9.65],[106.572,9.641],[106.539,9.604],[106.501,9.573],[106.482,9.552],[106.335,9.52],[106.229,9.551],[106.205,9.504],[106.206,9.502],[106.193,9.448],[106.168,9.397],[106.144,9.386],[106.118,9.335],[105.926,9.188],[105.503,9.029],[105.208,8.653],[105.025,8.519],[104.907,8.474],[104.742,8.493],[104.822,9.472],[104.84,9.53],[104.845,9.606],[104.903,9.816],[104.984,9.867],[104.978,9.98],[104.764,10.177],[104.722,10.19],[104.663,10.17],[104.613,10.208],[104.607,10.227],[104.427,10.284],[104.16,10.519],[104.003,10.537],[103.83,10.473],[103.606,10.473],[103.524,10.524],[103.558,10.58],[103.532,10.605],[103.54,10.669],[103.592,10.721],[103.661,10.75],[103.67,10.765],[103.652,10.88],[103.524,11.057],[103.447,11.045],[103.411,10.977],[103.354,10.922],[103.272,10.909],[103.204,10.912],[103.192,10.904],[103.039,10.897],[102.962,11.367],[102.658,12.066],[102.556,12.131],[102.54,12.109],[102.463,12.16],[102.323,12.186],[101.934,12.569],[101.894,12.59],[101.599,12.658],[101.543,12.644],[101.329,12.558],[101.055,12.66],[100.954,12.621],[100.898,12.654],[100.884,12.677],[100.871,12.678],[100.873,12.697],[100.863,12.715],[100.883,12.777],[100.9,12.908],[100.904,13.035],[100.924,13.109],[100.939,13.228],[100.926,13.303],[100.947,13.358],[100.95,13.374],[100.908,13.447],[100.477,13.508],[100.236,13.484],[100.19,13.466],[100.105,13.426],[100.017,13.353],[99.991,13.243],[100.051,13.171],[100.09,13.046],[99.982,12.771],[99.964,12.69],[100.006,12.355],[99.989,12.171],[99.93,12.047],[99.837,11.937],[99.799,11.749],[99.725,11.662],[99.627,11.463],[99.561,11.215],[99.514,11.101],[99.487,10.89],[99.285,10.569],[99.237,10.388],[99.165,10.32],[99.19,10.266],[99.195,10.175],[99.169,9.934],[99.161,9.734],[99.191,9.627],[99.288,9.415],[99.265,9.353],[99.254,9.265],[99.335,9.225],[99.394,9.214],[99.724,9.314],[99.836,9.288],[99.878,9.195],[99.905,9.113],[99.961,8.671],[99.99,8.589],[100.056,8.511],[100.06,8.507],[100.131,8.532],[100.154,8.444],[100.159,8.474],[100.163,8.508],[100.229,8.425],[100.279,8.269],[100.336,8.0],[100.271,8.0],[100.301,7.886],[100.344,7.44],[100.539,7.048],[100.614,6.978],[100.975,6.852],[101.217,6.802],[101.427,6.828],[101.559,6.739],[101.679,6.464],[102.089,6.143],[102.325,6.099],[102.802,5.56],[103.212,5.0],[100.393,5.0],[100.139,6.177],[100.221,6.52],[100.154,6.603],[99.969,6.507],[99.833,6.538],[99.662,6.71],[99.61,6.938],[99.639,7.065],[99.571,7.262],[99.468,7.338],[99.293,7.319],[99.024,7.871],[98.866,8.0],[98.799,8.056],[98.789,8.06],[98.786,8.066],[98.544,8.264],[98.459,8.227],[98.421,8.178],[98.365,8.186],[98.292,8.155],[98.195,8.327],[98.177,8.6],[98.25,8.937],[98.286,9.047],[98.251,9.041],[98.258,9.095],[98.274,9.13],[98.301,9.139],[98.307,9.11],[98.632,10.1],[98.612,10.11],[98.563,10.035],[98.521,10.107],[98.503,10.165],[98.431,10.201],[98.397,10.563],[98.467,10.664],[98.465,10.676],[98.501,10.719],[98.509,10.724],[98.577,10.822],[98.599,10.864],[98.61,10.881],[98.733,11.412],[98.733,11.435],[98.746,11.521],[98.741,11.592],[98.787,11.659],[98.59,11.695],[98.588,11.822],[98.676,12.051],[98.669,12.107],[98.664,12.127],[98.666,12.134],[98.656,12.225],[98.631,12.225],[98.6,12.245],[98.619,12.3],[98.645,12.321],[98.632,12.428],[98.624,12.441],[98.629,12.452],[98.596,12.737],[98.485,13.111],[98.198,13.644],[98.163,13.735],[98.15,13.648],[98.111,13.713],[98.098,13.898],[98.094,13.913],[97.822,14.616],[97.64,15.956],[97.584,16.02],[97.609,16.144],[97.612,16.155],[97.585,16.355],[97.575,16.253],[97.537,16.24],[97.48,16.306],[97.469,16.461],[97.489,16.476],[97.351,16.527],[97.286,16.722],[97.267,16.743],[97.212,16.893],[97.199,16.959],[96.983,17.244],[96.881,17.345],[96.877,17.344],[96.878,17.342],[96.91,17.305],[96.851,17.203],[96.909,17.031],[96.858,16.921],[96.811,16.778],[96.765,16.71],[96.622,16.564],[96.507,16.514],[96.462,16.509],[96.323,16.443],[96.293,16.41],[96.135,16.343],[96.118,16.346],[96.037,16.308],[96.032,16.285],[96.012,16.254],[95.763,16.169],[95.711,16.073],[95.679,15.977],[95.556,15.838],[95.39,15.723],[95.382,15.724],[95.329,15.677],[95.222,15.804],[95.221,15.872],[95.177,15.826],[95.078,15.839],[94.943,15.818],[94.937,15.837],[94.828,15.842],[94.82,15.852],[94.805,15.819],[94.784,15.794],[94.743,15.812],[94.733,15.823],[94.791,15.889],[94.753,15.937],[94.756,15.951],[94.662,15.904],[94.656,15.989],[94.651,16.065],[94.681,16.133],[94.68,16.164],[94.618,16.143],[94.619,16.141],[94.566,16.019],[94.477,15.946],[94.412,15.848],[94.388,15.994],[94.494,16.075],[94.517,16.11],[94.415,16.076],[94.304,15.948],[94.144,16.005],[94.143,16.215],[94.392,16.908],[94.464,17.264],[94.42,18.14],[94.124,18.827],[94.091,18.849],[94.07,18.893],[94.06,18.974],[93.977,19.167],[93.941,19.146],[93.968,18.995],[93.961,18.958],[93.929,18.9],[93.8,18.961],[93.705,19.027],[93.703,19.031],[93.661,19.055],[93.85,19.225],[93.9,19.375],[94.025,19.55],[94.25,19.75]],[[112.4,25.2],[112.4,25.225],[112.375,25.225],[112.4,25.2]],[[107.44,21.199],[107.417,21.185],[107.424,21.154],[107.44,21.199]]],[[[119.829,25.607],[119.838,25.591],[119.839,25.56],[119.809,25.508],[119.832,25.48],[119.821,25.457],[119.747,25.411],[119.7,25.433],[119.699,25.495],[119.723,25.551],[119.696,25.591],[119.723,25.639],[119.778,25.653],[119.797,25.623],[119.829,25.607]]],[[[114.207,22.195],[114.139,22.268],[114.134,22.292],[114.187,22.297],[114.247,22.264],[114.244,22.234],[114.232,22.211],[114.207,22.195]]],[[[113.839,22.242],[113.882,22.28],[114.044,22.333],[114.003,22.278],[113.998,22.21],[113.877,22.21],[113.852,22.22],[113.839,22.242]]],[[[112.742,21.618],[112.733,21.67],[112.713,21.698],[112.761,21.733],[112.782,21.772],[112.839,21.765],[112.863,21.753],[112.813,21.712],[112.801,21.695],[112.79,21.602],[112.771,21.582],[112.742,21.618]]],[[[112.648,21.71],[112.644,21.64],[112.546,21.619],[112.525,21.623],[112.559,21.675],[112.648,21.71]]],[[[110.522,21.083],[110.54,21.039],[110.539,21.018],[110.504,20.968],[110.422,21.007],[110.34,20.998],[110.281,21.001],[110.265,21.025],[110.31,21.075],[110.385,21.093],[110.422,21.059],[110.522,21.083]]],[[[107.479,20.952],[107.519,21.013],[107.551,21.034],[107.551,20.981],[107.521,20.927],[107.466,20.901],[107.399,20.903],[107.479,20.952]]],[[[107.031,20.747],[106.99,20.743],[106.911,20.824],[106.953,20.867],[107.044,20.837],[107.064,20.817],[107.064,20.8],[107.042,20.761],[107.031,20.747]]],[[[104.028,10.428],[104.064,10.391],[104.083,10.341],[104.076,10.225],[104.037,10.111],[104.048,10.061],[104.018,10.029],[103.952,10.243],[103.868,10.335],[103.85,10.371],[103.898,10.369],[103.986,10.427],[104.028,10.428]]],[[[103.223,10.76],[103.223,10.782],[103.318,10.719],[103.281,10.68],[103.223,10.76]]],[[[98.454,12.061],[98.466,12.084],[98.525,12.005],[98.61,11.957],[98.576,11.925],[98.516,11.905],[98.474,11.899],[98.454,12.061]]],[[[98.599,8.0],[98.558,8.0],[98.529,8.109],[98.604,8.057],[98.599,8.0]]],[[[98.524,11.805],[98.554,11.745],[98.528,11.539],[98.465,11.567],[98.435,11.567],[98.397,11.684],[98.4,11.715],[98.376,11.792],[98.524,11.805]]],[[[98.527,11.087],[98.542,10.962],[98.519,10.959],[98.498,10.964],[98.477,10.98],[98.527,11.087]]],[[[98.436,12.571],[98.468,12.571],[98.459,12.474],[98.381,12.354],[98.334,12.336],[98.314,12.336],[98.331,12.511],[98.303,12.612],[98.312,12.678],[98.396,12.647],[98.414,12.598],[98.436,12.571]]],[[[98.351,8.111],[98.435,8.086],[98.409,8.0],[98.276,8.0],[98.301,8.136],[98.322,8.166],[98.351,8.111]]]]}},{"type":"Feature","properties":{"name":"Proto-Altaic pastoralists","name_zh":"","focus":false,"label":[115.2,48.16],"area":609.4,"color":"#8a6f9e"},"geometry":{"type":"Polygon","coordinates":[[[80.5,43.075],[80.5,43.225],[80.6,43.275],[80.9,43.3],[80.775,43.475],[80.775,43.75],[80.725,43.825],[80.75,44.0],[80.75,44.45],[80.725,44.55],[80.6,44.7],[80.875,44.7],[81.0,44.525],[81.175,44.475],[81.45,44.5],[81.625,44.425],[81.875,44.225],[82.1,44.225],[82.275,44.1],[82.725,44.1],[82.9,44.075],[82.9,44.425],[82.975,44.6],[83.075,44.675],[83.25,45.075],[83.25,45.525],[83.5,45.55],[83.65,45.6],[83.825,45.725],[84.05,45.8],[84.125,45.875],[84.425,45.975],[84.45,46.175],[84.45,46.5],[84.525,46.525],[84.6,46.675],[84.725,46.8],[85.0,46.8],[85.15,47.025],[85.275,47.05],[86.6,47.05],[86.8,47.2],[86.85,47.4],[86.975,47.475],[87.025,47.575],[87.325,47.575],[87.425,47.45],[87.725,47.45],[88.025,47.325],[88.05,47.425],[88.15,47.5],[88.25,47.75],[88.25,47.875],[88.45,48.075],[88.475,48.275],[88.625,48.275],[88.675,48.2],[88.9,48.25],[89.125,48.35],[89.35,48.05],[89.5,48.025],[89.575,47.925],[89.975,47.925],[90.125,47.95],[90.35,47.7],[90.45,47.85],[90.65,48.05],[90.6,48.375],[90.725,48.475],[90.75,48.625],[91.025,48.625],[91.15,48.7],[91.375,48.725],[91.45,48.825],[91.75,48.8],[91.75,49.3],[91.775,49.45],[91.725,49.525],[91.925,49.525],[92.125,49.65],[92.35,49.725],[92.575,49.65],[92.825,49.625],[93.375,49.625],[93.75,49.525],[93.775,49.85],[93.825,49.9],[93.9,50.15],[94.0,50.375],[94.275,50.375],[94.4,50.3],[94.625,50.375],[94.925,50.4],[95.05,50.325],[95.225,50.325],[95.55,50.525],[95.9,50.5],[96.05,50.35],[96.225,50.4],[96.55,50.425],[96.625,50.325],[96.75,50.325],[96.8,50.225],[97.0,50.225],[97.05,50.175],[97.175,50.25],[97.25,50.375],[97.425,50.425],[97.425,50.625],[97.5,50.75],[97.525,50.975],[97.65,51.025],[97.675,51.125],[97.925,51.0],[98.2,51.025],[98.375,51.075],[98.525,50.95],[98.6,51.075],[98.8,51.225],[98.725,51.475],[98.825,51.475],[98.85,51.625],[98.925,51.65],[98.925,51.775],[99.05,51.85],[99.175,52.05],[99.325,51.975],[99.725,52.025],[99.9,52.15],[100.025,52.175],[100.025,52.3],[99.925,52.35],[99.9,52.45],[100.025,52.5],[99.95,52.625],[99.775,52.65],[99.775,52.875],[99.4,52.85],[99.25,52.975],[99.2,53.15],[99.325,53.325],[99.525,53.375],[99.525,53.675],[99.45,53.825],[99.275,53.85],[99.225,53.95],[99.25,54.275],[99.2,54.3],[99.2,54.5],[99.25,54.5],[99.275,54.675],[99.175,54.725],[99.125,54.875],[99.1,54.875],[99.05,55.025],[99.35,55.1],[99.4,55.175],[99.425,55.425],[99.525,55.425],[99.725,55.625],[99.9,55.65],[99.9,55.825],[99.85,56.0],[100.182,56.0],[104.256,58.0],[114.867,58.0],[115.968,56.0],[115.9,56.0],[115.975,55.825],[116.0,55.525],[116.225,55.525],[116.375,55.65],[116.575,55.6],[116.7,55.475],[116.725,55.375],[117.0,55.35],[117.175,55.475],[117.375,55.525],[117.55,55.525],[117.65,55.475],[117.675,55.25],[117.525,55.05],[117.525,54.9],[117.625,54.85],[117.675,54.725],[117.85,54.675],[117.825,54.475],[117.725,54.3],[117.7,54.125],[117.6,54.025],[117.575,53.775],[117.775,53.75],[117.975,53.575],[118.05,53.575],[118.25,53.4],[118.3,53.075],[118.4,52.825],[118.4,52.575],[118.5,52.4],[118.675,52.475],[118.75,52.575],[118.875,52.5],[118.975,52.225],[119.1,52.075],[119.2,52.05],[119.3,51.85],[119.525,51.925],[119.85,51.9],[120.0,51.775],[120.275,51.8],[120.15,51.575],[120.25,51.55],[120.325,51.4],[120.45,51.375],[120.475,51.3],[120.675,51.2],[120.775,51.075],[121.1,51.1],[121.125,51.025],[121.25,50.975],[121.525,51.0],[121.65,50.925],[121.725,50.775],[121.95,50.75],[122.0,50.825],[122.15,50.875],[122.45,50.9],[122.5,51.05],[122.6,51.125],[122.65,51.35],[122.75,51.4],[122.9,51.275],[123.15,51.275],[123.2,51.15],[123.55,51.25],[123.55,51.075],[123.6,50.975],[123.725,50.975],[123.875,50.8],[124.05,50.85],[124.4,50.8],[124.5,50.925],[124.6,50.925],[124.875,50.775],[125.025,50.75],[125.1,50.65],[125.45,50.575],[125.775,50.325],[126.3,50.325],[126.4,50.15],[126.675,50.15],[126.9,50.025],[127.15,50.05],[127.25,50.1],[127.525,50.075],[127.525,49.8],[127.7,49.75],[127.825,49.6],[127.975,49.625],[128.075,49.575],[128.2,49.75],[128.4,49.825],[128.625,50.05],[128.85,50.15],[129.0,50.15],[129.1,50.25],[129.425,50.375],[129.7,50.4],[129.75,50.45],[130.325,50.475],[130.525,50.575],[130.6,50.675],[130.725,50.675],[130.875,50.875],[131.1,50.925],[131.55,50.85],[131.6,50.925],[131.8,51.025],[131.725,51.275],[132.3,51.325],[132.325,51.375],[132.6,51.4],[132.8,51.55],[132.9,51.775],[132.925,51.975],[133.2,52.15],[133.3,52.175],[133.425,52.075],[133.6,52.15],[133.775,52.15],[133.85,52.025],[134.175,51.975],[134.225,52.2],[134.325,52.225],[134.4,52.4],[134.525,52.4],[134.75,52.5],[134.75,52.65],[134.925,52.7],[135.0,52.85],[135.1,52.925],[135.175,53.075],[135.175,53.3],[135.625,53.3],[135.825,53.375],[135.85,53.5],[136.025,53.5],[136.175,53.65],[136.375,53.65],[136.5,53.6],[136.5,53.525],[136.65,53.4],[136.7,53.2],[137.025,53.225],[137.075,53.175],[137.05,53.0],[137.15,52.775],[137.4,52.8],[137.55,52.65],[137.6,52.5],[137.7,52.45],[137.7,52.25],[138.15,52.25],[138.375,52.05],[138.65,52.075],[138.875,52.125],[138.925,52.2],[139.075,52.225],[139.225,52.35],[139.45,52.3],[139.65,52.3],[139.85,52.475],[140.05,52.45],[140.475,52.45],[140.55,52.525],[140.65,52.525],[140.75,52.275],[140.875,52.175],[140.9,52.0],[141.0,51.95],[141.1,51.725],[141.1,51.712],[140.933,51.62],[140.839,51.414],[140.688,51.232],[140.671,51.051],[140.646,50.987],[140.521,50.8],[140.476,50.546],[140.535,50.131],[140.564,50.107],[140.625,50.082],[140.613,50.054],[140.585,50.033],[140.463,49.911],[140.465,49.826],[140.511,49.762],[140.517,49.596],[140.431,49.331],[140.399,49.29],[140.364,49.221],[140.349,49.159],[140.326,49.12],[140.309,49.054],[140.334,48.995],[140.378,48.964],[140.224,48.773],[140.171,48.524],[140.113,48.423],[139.998,48.324],[139.761,48.181],[139.676,48.09],[139.521,47.975],[139.373,47.887],[139.167,47.635],[139.001,47.383],[138.958,47.349],[138.949,47.322],[138.576,47.042],[138.53,46.976],[138.5,46.89],[138.392,46.745],[138.337,46.543],[138.21,46.463],[138.106,46.251],[137.769,45.929],[137.685,45.818],[137.425,45.64],[137.147,45.394],[136.804,45.171],[136.737,45.08],[136.604,44.978],[136.46,44.822],[136.251,44.667],[136.209,44.562],[136.142,44.489],[136.095,44.474],[136.033,44.398],[135.76,44.238],[135.533,43.971],[135.489,43.899],[135.483,43.835],[135.26,43.685],[135.131,43.526],[134.917,43.427],[134.692,43.291],[134.637,43.265],[134.568,43.212],[134.138,42.992],[134.037,42.964],[134.01,42.947],[133.709,42.83],[133.587,42.828],[133.329,42.764],[133.16,42.697],[133.106,42.711],[132.952,42.669],[132.87,42.795],[132.864,42.794],[132.726,42.867],[132.614,42.873],[132.576,42.872],[132.567,42.875],[132.484,42.88],[132.441,42.904],[132.304,42.883],[132.313,42.993],[132.181,43.194],[132.115,43.172],[132.029,43.119],[131.947,43.095],[131.883,43.095],[131.674,43.026],[131.854,43.274],[131.795,43.255],[131.722,43.203],[131.516,42.996],[131.393,42.822],[131.292,42.772],[131.245,42.697],[131.158,42.626],[131.148,42.627],[131.025,42.8],[131.025,43.0],[130.725,43.225],[130.6,43.225],[130.25,43.375],[130.2,43.475],[129.825,43.575],[129.325,43.575],[129.275,43.525],[128.725,43.525],[128.7,43.75],[128.65,43.875],[128.575,43.9],[128.525,44.025],[128.35,44.225],[128.25,44.225],[128.125,44.125],[127.875,44.1],[127.85,44.15],[127.55,44.25],[127.475,44.125],[127.275,44.15],[127.1,44.025],[127.075,43.925],[126.975,43.975],[126.625,43.925],[126.475,44.05],[126.475,44.4],[126.4,44.525],[126.15,44.45],[126.025,44.55],[125.825,44.625],[125.575,44.625],[125.425,44.55],[125.1,44.525],[125.075,44.425],[124.95,44.325],[124.675,44.3],[124.575,44.225],[124.35,44.25],[124.125,44.225],[124.05,44.275],[123.85,44.275],[123.525,44.2],[123.475,44.15],[123.05,44.15],[122.875,44.025],[122.7,43.95],[122.3,44.0],[122.25,44.05],[122.0,44.05],[121.95,44.0],[121.55,44.0],[121.125,44.125],[120.875,44.25],[120.7,44.25],[120.475,44.5],[120.275,44.5],[120.15,44.55],[119.75,44.55],[119.675,44.45],[119.475,44.375],[119.4,44.5],[119.25,44.625],[119.175,44.5],[119.05,44.5],[118.925,44.35],[118.775,44.35],[118.775,44.15],[118.65,44.0],[118.65,43.725],[118.375,43.5],[118.325,43.425],[118.2,43.4],[118.175,43.325],[117.975,43.35],[117.9,43.275],[117.6,43.325],[117.5,43.125],[117.25,43.0],[117.25,42.825],[117.325,42.625],[116.85,42.625],[116.375,42.55],[116.3,42.45],[116.275,42.2],[116.075,42.05],[116.1,41.625],[115.95,41.45],[115.625,41.45],[115.45,41.375],[115.35,41.225],[114.975,41.225],[114.75,41.1],[114.2,41.075],[114.05,40.9],[114.05,40.775],[113.9,40.675],[113.85,40.55],[113.65,40.55],[113.425,40.525],[113.05,40.625],[113.0,40.75],[112.85,40.85],[112.675,41.025],[112.65,41.125],[112.5,41.15],[112.4,41.25],[112.1,41.275],[112.05,41.2],[111.925,41.2],[111.775,41.075],[111.65,41.025],[111.45,41.025],[111.175,40.975],[111.075,41.05],[110.8,41.05],[110.5,41.0],[110.425,40.95],[110.225,40.95],[110.125,40.825],[109.925,40.75],[109.925,40.675],[109.8,40.55],[109.475,40.55],[109.4,40.475],[109.2,40.525],[108.75,40.525],[108.625,40.65],[108.55,40.65],[108.425,40.8],[108.15,40.8],[108.15,40.85],[107.7,40.85],[107.65,40.75],[107.225,40.65],[107.075,40.7],[106.975,40.85],[106.975,41.075],[106.875,41.175],[106.75,41.175],[106.35,40.825],[106.225,40.575],[106.225,40.4],[106.15,40.3],[105.975,40.175],[105.775,39.95],[105.6,39.875],[105.35,39.875],[105.325,39.925],[105.175,39.9],[105.1,39.825],[104.8,39.825],[104.375,39.975],[104.3,40.1],[104.15,40.125],[104.075,40.275],[103.95,40.275],[103.7,40.025],[103.475,40.0],[103.4,39.95],[103.175,39.925],[103.05,39.875],[102.9,39.65],[102.675,39.575],[102.5,39.45],[102.375,39.425],[102.225,39.25],[101.85,39.25],[101.75,39.2],[101.55,39.2],[101.4,39.05],[101.225,39.0],[101.2,38.875],[101.075,38.875],[100.9,38.975],[100.875,38.75],[100.7,38.6],[100.625,38.425],[100.625,38.25],[100.55,38.2],[100.625,38.0],[100.325,38.0],[100.1,38.1],[99.925,38.1],[99.85,38.175],[99.7,38.175],[99.525,38.3],[99.35,38.35],[99.325,38.425],[98.975,38.425],[98.925,38.55],[98.75,38.525],[98.55,38.6],[98.35,38.6],[98.275,38.65],[98.075,38.675],[97.9,38.475],[97.8,38.475],[97.7,38.575],[97.525,38.525],[97.35,38.525],[97.325,38.575],[97.15,38.425],[96.925,38.375],[96.7,38.375],[96.625,38.425],[96.325,38.425],[96.275,38.55],[96.1,38.65],[95.875,38.85],[95.725,38.9],[95.625,39.025],[95.3,39.2],[94.975,39.2],[94.75,39.3],[94.55,39.325],[94.15,39.325],[93.925,39.25],[93.425,39.275],[93.275,39.225],[92.85,39.225],[92.85,39.4],[92.75,39.575],[92.575,39.6],[92.275,39.925],[92.175,40.0],[92.075,40.225],[92.0,40.55],[91.6,40.525],[91.375,40.825],[91.275,41.15],[91.1,41.475],[91.1,41.575],[90.975,41.6],[90.825,41.7],[90.675,41.725],[90.45,41.65],[90.375,41.55],[90.25,41.5],[90.15,41.375],[89.925,41.3],[89.6,41.3],[89.175,41.425],[89.1,41.5],[88.875,41.55],[88.8,41.625],[88.625,41.6],[88.525,41.5],[88.175,41.475],[88.175,41.7],[88.025,41.875],[87.875,41.95],[87.75,42.275],[87.5,42.375],[87.275,42.675],[87.125,42.675],[86.975,42.8],[86.9,42.975],[86.725,43.05],[86.425,43.1],[86.325,43.15],[86.05,43.175],[85.95,43.075],[85.775,43.05],[85.575,42.975],[85.5,42.725],[85.275,42.65],[85.1,42.65],[85.0,42.725],[84.85,42.75],[84.675,42.575],[84.425,42.575],[84.3,42.475],[84.125,42.5],[84.025,42.575],[83.8,42.575],[83.75,42.525],[83.575,42.525],[83.475,42.675],[83.35,42.725],[82.875,42.7],[82.675,42.75],[82.475,42.7],[82.3,42.55],[82.175,42.525],[82.025,42.425],[81.775,42.425],[81.675,42.5],[81.475,42.5],[81.4,42.425],[81.2,42.35],[81.125,42.275],[80.8,42.275],[80.775,42.325],[80.55,42.3],[80.525,42.525],[80.575,42.55],[80.575,42.9],[80.5,43.075]]]}},{"type":"Feature","properties":{"name":"Paleo-Siberian hunter-gatherers","name_zh":"","focus":false,"label":[126.85,54.02],"area":222.0,"color":"#7d6b5a","nolabel":true},"geometry":{"type":"MultiPolygon","coordinates":[[[[137.19,55.892],[137.033,55.807],[137.0,55.8],[137.0,55.79],[136.794,55.694],[136.566,55.614],[136.521,55.589],[136.369,55.521],[136.351,55.51],[136.175,55.352],[135.751,55.161],[135.541,55.114],[135.263,54.943],[135.235,54.903],[135.212,54.841],[135.258,54.731],[135.325,54.707],[135.438,54.692],[135.852,54.584],[136.238,54.614],[136.322,54.614],[136.35,54.6],[136.36,54.614],[136.58,54.614],[136.715,54.624],[136.797,54.621],[136.824,54.561],[136.82,54.452],[136.77,54.353],[136.729,54.061],[136.683,53.931],[136.719,53.804],[136.803,53.782],[136.886,53.839],[137.017,53.848],[137.04,53.862],[137.166,53.842],[137.258,54.025],[137.172,54.057],[137.096,54.129],[137.142,54.182],[137.378,54.282],[137.525,54.291],[137.666,54.283],[137.513,54.156],[137.451,54.13],[137.403,54.124],[137.339,54.101],[137.476,54.028],[137.623,53.97],[137.835,53.947],[137.786,53.903],[137.645,53.866],[137.517,53.707],[137.363,53.65],[137.35,53.65],[137.348,53.644],[137.314,53.632],[137.221,53.579],[137.254,53.546],[137.328,53.539],[137.738,53.56],[137.95,53.604],[138.253,53.726],[138.379,53.909],[138.412,53.924],[138.416,54.091],[138.715,54.088],[138.705,54.148],[138.716,54.223],[138.657,54.298],[138.696,54.32],[139.105,54.218],[139.32,54.193],[139.707,54.277],[139.796,54.256],[139.858,54.205],[140.179,54.052],[140.242,54.001],[140.347,53.813],[140.688,53.596],[141.006,53.495],[141.015,53.454],[141.05,53.434],[141.05,53.425],[141.061,53.427],[141.218,53.334],[141.374,53.293],[141.402,53.184],[141.328,53.097],[141.181,53.015],[141.112,53.033],[141.089,52.985],[141.02,52.943],[141.087,52.898],[141.256,52.84],[141.259,52.775],[141.05,52.775],[140.725,52.725],[140.625,52.65],[140.625,52.525],[140.55,52.525],[140.475,52.45],[140.05,52.45],[139.85,52.475],[139.65,52.3],[139.45,52.3],[139.225,52.35],[139.075,52.225],[138.925,52.2],[138.875,52.125],[138.65,52.075],[138.375,52.05],[138.15,52.25],[137.7,52.25],[137.7,52.45],[137.6,52.5],[137.55,52.65],[137.4,52.8],[137.15,52.775],[137.05,53.0],[137.075,53.175],[137.025,53.225],[136.7,53.2],[136.65,53.4],[136.5,53.525],[136.5,53.6],[136.375,53.65],[136.175,53.65],[136.025,53.5],[135.85,53.5],[135.825,53.375],[135.625,53.3],[135.175,53.3],[135.175,53.075],[135.1,52.925],[135.0,52.85],[134.925,52.7],[134.75,52.65],[134.75,52.5],[134.525,52.4],[134.4,52.4],[134.325,52.225],[134.225,52.2],[134.175,51.975],[133.85,52.025],[133.775,52.15],[133.6,52.15],[133.425,52.075],[133.3,52.175],[133.2,52.15],[132.925,51.975],[132.9,51.775],[132.8,51.55],[132.6,51.4],[132.325,51.375],[132.3,51.325],[131.725,51.275],[131.8,51.025],[131.6,50.925],[131.55,50.85],[131.1,50.925],[130.875,50.875],[130.725,50.675],[130.6,50.675],[130.525,50.575],[130.325,50.475],[129.75,50.45],[129.7,50.4],[129.425,50.375],[129.1,50.25],[129.0,50.15],[128.85,50.15],[128.625,50.05],[128.4,49.825],[128.2,49.75],[128.075,49.575],[127.975,49.625],[127.825,49.6],[127.7,49.75],[127.525,49.8],[127.525,50.075],[127.25,50.1],[127.15,50.05],[126.9,50.025],[126.675,50.15],[126.4,50.15],[126.3,50.325],[125.775,50.325],[125.45,50.575],[125.1,50.65],[125.025,50.75],[124.875,50.775],[124.6,50.925],[124.5,50.925],[124.4,50.8],[124.05,50.85],[123.875,50.8],[123.725,50.975],[123.6,50.975],[123.55,51.075],[123.55,51.25],[123.2,51.15],[123.15,51.275],[122.9,51.275],[122.75,51.4],[122.65,51.35],[122.6,51.125],[122.5,51.05],[122.45,50.9],[122.15,50.875],[122.0,50.825],[121.95,50.75],[121.725,50.775],[121.65,50.925],[121.525,51.0],[121.25,50.975],[121.125,51.025],[121.1,51.1],[120.775,51.075],[120.675,51.2],[120.475,51.3],[120.45,51.375],[120.325,51.4],[120.25,51.55],[120.15,51.575],[120.275,51.8],[120.0,51.775],[119.85,51.9],[119.525,51.925],[119.3,51.85],[119.2,52.05],[119.1,52.075],[118.975,52.225],[118.875,52.5],[118.75,52.575],[118.675,52.475],[118.5,52.4],[118.4,52.575],[118.4,52.825],[118.3,53.075],[118.25,53.4],[118.05,53.575],[117.975,53.575],[117.775,53.75],[117.575,53.775],[117.6,54.025],[117.7,54.125],[117.725,54.3],[117.825,54.475],[117.85,54.675],[117.675,54.725],[117.625,54.85],[117.525,54.9],[117.525,55.05],[117.675,55.25],[117.65,55.475],[117.55,55.525],[117.375,55.525],[117.175,55.475],[117.0,55.35],[116.725,55.375],[116.7,55.475],[116.575,55.6],[116.375,55.65],[116.225,55.525],[116.0,55.525],[115.975,55.825],[115.9,56.0],[115.968,56.0],[114.867,58.0],[140.347,58.0],[140.028,57.644],[139.293,57.336],[138.345,56.804],[137.253,56.0],[137.419,56.0],[137.384,55.975],[137.19,55.892]]],[[[99.725,55.625],[99.525,55.425],[99.425,55.425],[99.4,55.175],[99.35,55.1],[99.05,55.025],[99.1,54.875],[99.075,54.875],[98.9,54.775],[98.675,54.8],[98.55,54.85],[98.4,55.025],[98.175,55.2],[98.15,55.35],[98.0,55.4],[97.95,55.35],[97.65,55.3],[97.525,55.25],[97.275,55.4],[96.95,55.4],[96.85,55.575],[96.625,55.6],[96.6,56.0],[96.048,56.0],[93.7,56.484],[78.362,56.41],[74.439,56.0],[72.7,56.0],[72.6,55.8],[71.975,55.65],[71.775,55.575],[71.575,55.55],[71.0,55.55],[70.725,55.525],[70.375,55.45],[70.0,55.425],[70.0,55.536],[65.311,55.046],[60.0,56.229],[60.0,56.559],[62.805,56.955],[65.855,58.0],[104.256,58.0],[100.182,56.0],[99.85,56.0],[99.9,55.825],[99.9,55.65],[99.725,55.625]]]]}},{"type":"Feature","properties":{"name":"Finno-Ugric taiga hunter-gatherers","name_zh":"","focus":false,"label":[62.17,57.48],"area":5.1,"color":"#5f87a3","nolabel":true},"geometry":{"type":"Polygon","coordinates":[[[62.805,56.955],[60.0,56.559],[60.0,58.0],[65.855,58.0],[62.805,56.955]]]}},{"type":"Feature","properties":{"name":"Tibetans","name_zh":"","focus":false,"label":[89.97,35.77],"area":308.5,"color":"#9a8a4a"},"geometry":{"type":"Polygon","coordinates":[[[76.25,36.725],[76.15,36.825],[76.125,37.05],[76.2,37.125],[76.225,37.3],[76.35,37.35],[76.425,37.275],[76.475,37.1],[76.65,37.075],[76.725,37.225],[76.85,37.325],[76.95,37.525],[77.1,37.675],[77.3,37.775],[77.575,38.05],[77.625,38.25],[77.85,38.65],[77.85,38.825],[78.0,39.0],[78.175,39.05],[78.3,39.275],[78.475,39.475],[78.475,39.575],[78.65,39.575],[78.7,39.625],[78.925,39.625],[79.05,39.8],[79.1,39.8],[79.1,40.2],[79.2,40.275],[79.375,40.5],[79.4,40.875],[79.2,40.95],[78.95,40.95],[78.95,41.2],[78.825,41.375],[78.875,41.4],[78.95,41.675],[79.025,41.725],[78.95,42.075],[78.875,42.15],[78.9,42.15],[78.975,42.25],[79.525,42.25],[79.625,42.275],[79.875,42.125],[80.4,42.15],[80.55,42.3],[80.775,42.325],[80.8,42.275],[81.125,42.275],[81.2,42.35],[81.4,42.425],[81.475,42.5],[81.675,42.5],[81.775,42.425],[82.025,42.425],[82.175,42.525],[82.3,42.55],[82.475,42.7],[82.675,42.75],[82.875,42.7],[83.35,42.725],[83.475,42.675],[83.575,42.525],[83.75,42.525],[83.8,42.575],[84.025,42.575],[84.125,42.5],[84.3,42.475],[84.425,42.575],[84.675,42.575],[84.85,42.75],[85.0,42.725],[85.1,42.65],[85.275,42.65],[85.5,42.725],[85.575,42.975],[85.775,43.05],[85.95,43.075],[86.05,43.175],[86.325,43.15],[86.425,43.1],[86.725,43.05],[86.9,42.975],[86.975,42.8],[87.125,42.675],[87.275,42.675],[87.5,42.375],[87.75,42.275],[87.875,41.95],[88.025,41.875],[88.175,41.7],[88.175,41.475],[88.525,41.5],[88.625,41.6],[88.8,41.625],[88.875,41.55],[89.1,41.5],[89.175,41.425],[89.6,41.3],[89.925,41.3],[90.15,41.375],[90.25,41.5],[90.375,41.55],[90.45,41.65],[90.675,41.725],[90.825,41.7],[90.975,41.6],[91.1,41.575],[91.1,41.475],[91.275,41.15],[91.375,40.825],[91.6,40.525],[92.0,40.55],[92.075,40.225],[92.175,40.0],[92.275,39.925],[92.575,39.6],[92.75,39.575],[92.85,39.4],[92.85,39.225],[93.275,39.225],[93.425,39.275],[93.925,39.25],[94.15,39.325],[94.55,39.325],[94.75,39.3],[94.975,39.2],[95.3,39.2],[95.625,39.025],[95.725,38.9],[95.875,38.85],[96.1,38.65],[96.275,38.55],[96.325,38.425],[96.625,38.425],[96.7,38.375],[96.925,38.375],[97.15,38.425],[97.325,38.575],[97.35,38.525],[97.525,38.525],[97.7,38.575],[97.8,38.475],[97.9,38.475],[98.075,38.675],[98.275,38.65],[98.35,38.6],[98.55,38.6],[98.75,38.525],[98.925,38.55],[98.975,38.425],[99.325,38.425],[99.35,38.35],[99.525,38.3],[99.7,38.175],[99.85,38.175],[99.925,38.1],[100.1,38.1],[100.325,38.0],[100.625,38.0],[100.55,38.2],[100.625,38.25],[100.625,38.425],[100.7,38.6],[100.875,38.75],[100.9,38.975],[101.075,38.875],[101.2,38.875],[101.225,39.0],[101.4,39.05],[101.55,39.2],[101.75,39.2],[101.85,39.25],[102.225,39.25],[102.375,39.425],[102.5,39.45],[102.675,39.575],[102.9,39.65],[103.05,39.875],[103.175,39.925],[103.4,39.95],[103.475,40.0],[103.7,40.025],[103.95,40.275],[104.075,40.275],[104.15,40.125],[104.3,40.1],[104.375,39.975],[104.8,39.825],[105.1,39.825],[105.15,39.675],[105.05,39.575],[105.0,39.425],[104.85,39.275],[104.825,39.175],[104.825,38.85],[104.85,38.85],[104.85,38.325],[104.875,38.15],[104.8,38.1],[104.75,37.875],[104.55,37.6],[104.475,37.575],[104.5,37.425],[104.6,37.4],[104.575,37.3],[104.45,37.2],[104.35,37.2],[104.3,37.0],[104.225,36.975],[104.0,36.625],[104.1,36.5],[104.1,36.325],[104.0,36.25],[104.0,36.1],[103.7,36.075],[103.45,36.175],[103.325,36.025],[103.45,36.0],[103.525,35.75],[103.55,35.45],[103.325,35.175],[103.275,35.15],[103.275,34.95],[103.125,34.875],[103.125,34.675],[103.05,34.5],[102.95,34.475],[103.0,34.35],[103.375,34.3],[103.55,34.2],[103.7,34.2],[103.825,34.1],[104.0,34.1],[104.1,33.95],[104.25,33.875],[104.15,33.725],[104.025,33.625],[103.925,33.65],[103.775,33.525],[103.775,33.45],[103.6,33.35],[103.6,33.125],[103.675,33.025],[103.775,33.025],[103.825,32.925],[103.75,32.8],[103.725,32.525],[103.675,32.525],[103.625,32.225],[103.775,32.15],[103.75,31.975],[103.9,31.925],[103.9,31.775],[103.975,31.625],[103.8,31.425],[103.925,31.275],[103.95,30.875],[103.775,30.6],[103.75,30.5],[103.5,30.225],[103.375,30.15],[102.875,29.975],[102.65,29.875],[102.35,29.575],[102.3,29.575],[102.2,29.65],[102.2,29.975],[102.025,29.95],[101.85,29.8],[101.85,29.6],[101.725,29.475],[101.7,29.3],[101.55,29.275],[101.45,29.2],[101.2,29.225],[100.975,29.075],[100.9,29.225],[100.7,29.175],[100.625,29.275],[100.425,29.25],[100.375,29.175],[100.225,29.225],[100.15,29.125],[100.125,28.875],[100.025,28.625],[99.925,28.55],[99.85,28.4],[99.85,28.15],[99.8,28.1],[99.6,28.15],[99.55,28.25],[99.15,28.25],[99.025,28.3],[98.975,27.975],[98.775,28.1],[98.525,28.1],[98.375,28.325],[98.1,28.425],[97.9,28.625],[97.675,28.625],[97.425,28.475],[97.325,28.25],[97.125,28.25],[97.075,28.2],[96.9,28.2],[96.75,28.0],[96.5,28.075],[96.4,27.9],[96.1,27.9],[95.95,27.8],[95.85,27.8],[95.8,27.625],[95.7,27.525],[95.35,27.4],[95.275,27.3],[95.225,27.1],[95.0,27.15],[94.975,27.2],[94.575,27.2],[94.525,27.075],[94.325,26.925],[94.15,26.925],[93.975,26.875],[93.875,26.775],[93.75,26.825],[93.6,26.775],[93.325,26.75],[93.275,26.9],[93.15,27.025],[93.15,27.175],[93.275,27.25],[93.35,27.4],[93.15,27.375],[92.975,27.475],[92.85,27.6],[92.825,27.725],[92.55,28.025],[92.4,27.975],[92.225,27.975],[92.05,28.15],[91.575,28.15],[91.55,28.3],[91.3,28.475],[90.975,28.425],[90.875,28.325],[90.65,28.275],[90.5,28.1],[90.4,28.1],[90.3,28.225],[90.125,28.25],[89.875,28.175],[89.775,28.25],[89.55,28.175],[89.5,28.075],[89.3,27.925],[89.275,27.825],[89.075,27.825],[89.05,27.925],[88.725,28.075],[88.5,28.075],[88.175,27.9],[88.0,27.9],[87.925,27.95],[87.725,27.95],[87.525,28.2],[87.325,28.275],[87.1,28.275],[86.975,28.1],[86.65,28.175],[86.45,28.35],[86.3,28.35],[86.225,28.5],[85.9,28.525],[85.75,28.475],[85.625,28.625],[85.45,28.7],[85.375,28.975],[84.9,28.975],[84.75,29.025],[84.525,28.925],[84.375,28.925],[84.375,29.1],[84.325,29.175],[84.325,29.375],[84.05,29.5],[83.85,29.525],[83.775,29.375],[83.6,29.2],[83.45,29.2],[83.4,29.325],[83.15,29.575],[82.875,29.7],[82.725,29.825],[82.475,30.1],[82.4,30.1],[82.2,30.25],[82.1,30.4],[81.65,30.4],[81.35,30.375],[81.15,30.55],[80.9,30.6],[80.85,30.525],[80.7,30.525],[80.45,30.625],[80.35,30.625],[80.15,30.925],[79.925,30.95],[79.8,31.025],[79.625,31.025],[79.375,31.125],[79.25,31.35],[79.15,31.425],[78.825,31.375],[78.825,31.55],[78.925,31.65],[78.975,31.9],[78.875,32.025],[78.975,32.15],[78.975,32.275],[78.65,32.25],[78.55,32.3],[78.375,32.3],[78.275,32.425],[78.125,32.425],[77.95,32.575],[77.825,32.575],[77.675,32.675],[77.65,33.075],[77.75,33.15],[77.775,33.275],[77.975,33.45],[78.0,33.65],[77.85,33.75],[77.8,33.875],[77.625,34.075],[77.425,34.15],[77.45,34.3],[77.525,34.425],[77.625,34.475],[77.825,34.675],[77.875,34.775],[77.75,34.9],[77.725,35.3],[77.625,35.375],[77.65,35.725],[77.45,35.725],[77.3,35.875],[77.075,35.975],[77.05,36.05],[76.825,36.05],[76.55,36.2],[76.425,36.3],[76.45,36.3],[76.475,36.55],[76.375,36.7],[76.25,36.725]]]}},{"type":"Feature","properties":{"name":"Wu","name_zh":"吴","focus":false,"label":[119.53,31.1],"area":23.5,"color":"#a3727a"},"geometry":{"type":"MultiPolygon","coordinates":[[[[122.404,29.892],[122.394,29.846],[122.368,29.853],[122.332,29.935],[122.351,29.955],[122.402,29.95],[122.404,29.892]]],[[[121.969,30.143],[122.111,30.14],[122.284,30.068],[122.322,30.031],[122.296,29.963],[122.282,29.944],[122.158,30.001],[122.024,30.013],[121.978,30.064],[121.969,30.143]]],[[[116.625,32.3],[116.65,32.525],[116.75,32.65],[117.075,32.675],[117.2,32.95],[117.525,32.975],[117.575,33.075],[117.575,33.3],[117.725,33.475],[117.9,33.625],[118.05,33.925],[118.225,34.1],[118.25,34.2],[118.425,34.35],[118.625,34.65],[118.725,34.675],[118.875,34.825],[118.9,34.975],[119.075,35.15],[119.075,35.325],[119.225,35.475],[119.225,35.65],[119.375,35.675],[119.7,35.85],[119.95,35.85],[120.032,35.809],[120.027,35.799],[119.979,35.74],[119.912,35.693],[119.866,35.644],[119.811,35.618],[119.72,35.589],[119.608,35.47],[119.526,35.359],[119.43,35.301],[119.353,35.114],[119.216,35.012],[119.165,34.849],[119.201,34.748],[119.351,34.749],[119.427,34.714],[119.583,34.582],[119.725,34.517],[119.725,34.375],[119.9,34.4],[119.95,34.3],[120.075,34.35],[120.084,34.386],[120.201,34.326],[120.267,34.274],[120.291,34.229],[120.275,34.225],[120.275,34.075],[120.36,34.058],[120.426,33.866],[120.5,33.716],[120.505,33.638],[120.571,33.55],[120.55,33.525],[120.4,33.525],[120.5,33.375],[120.65,33.35],[120.669,33.376],[120.734,33.237],[120.871,33.017],[120.897,32.843],[120.853,32.764],[120.853,32.661],[120.99,32.567],[121.293,32.457],[121.342,32.425],[121.401,32.372],[121.404,32.206],[121.451,32.153],[121.491,32.121],[121.674,32.051],[121.751,31.993],[121.832,31.9],[121.856,31.816],[121.866,31.704],[121.764,31.7],[121.681,31.712],[121.612,31.743],[121.623,31.62],[121.808,31.552],[121.844,31.526],[121.863,31.492],[121.78,31.464],[121.52,31.55],[121.499,31.56],[121.347,31.489],[121.351,31.485],[121.661,31.32],[121.786,31.163],[121.834,31.062],[121.878,30.917],[121.769,30.87],[121.675,30.864],[121.635,30.858],[121.631,30.792],[121.568,30.71],[121.328,30.69],[121.185,30.643],[120.998,30.558],[120.938,30.47],[120.897,30.393],[120.821,30.355],[120.672,30.383],[120.608,30.346],[120.271,30.261],[120.353,30.247],[120.495,30.303],[120.633,30.133],[120.774,30.147],[120.862,30.187],[120.977,30.201],[121.159,30.302],[121.258,30.304],[121.341,30.282],[121.433,30.227],[121.678,29.979],[121.812,29.952],[121.944,29.894],[122.017,29.888],[122.083,29.87],[121.906,29.78],[121.677,29.584],[121.575,29.537],[121.506,29.485],[121.69,29.511],[121.822,29.605],[121.888,29.628],[121.941,29.606],[121.968,29.491],[121.918,29.135],[121.854,29.129],[121.791,29.226],[121.717,29.256],[121.656,29.236],[121.612,29.236],[121.549,29.097],[121.665,29.011],[121.68,28.953],[121.641,28.916],[121.54,28.932],[121.663,28.851],[121.63,28.768],[121.59,28.735],[121.519,28.714],[121.475,28.641],[121.538,28.521],[121.602,28.367],[121.61,28.292],[121.51,28.324],[121.355,28.23],[121.279,28.223],[121.259,28.182],[121.24,28.17],[121.251,28.145],[121.251,28.086],[121.164,28.063],[121.132,28.063],[121.134,28.135],[121.144,28.145],[121.065,28.22],[121.035,28.157],[120.959,28.037],[120.892,28.004],[120.813,28.013],[120.801,28.013],[120.771,27.973],[120.833,27.938],[120.833,27.891],[120.685,27.745],[120.661,27.688],[120.665,27.639],[120.588,27.581],[120.629,27.482],[120.608,27.412],[120.54,27.318],[120.469,27.256],[120.385,27.156],[120.279,27.097],[120.255,27.061],[120.225,27.1],[119.975,27.1],[119.95,27.425],[119.65,27.45],[119.5,27.55],[119.45,27.7],[119.325,27.8],[119.3,28.1],[119.225,28.125],[119.275,28.275],[119.1,28.375],[119.0,28.275],[118.875,28.3],[118.775,28.4],[118.8,28.6],[118.675,28.75],[118.675,29.025],[118.725,29.25],[118.8,29.275],[118.8,29.45],[118.7,29.7],[118.475,29.675],[118.475,29.8],[118.35,29.925],[118.275,30.075],[117.95,30.075],[117.875,30.05],[117.725,30.125],[117.7,30.275],[117.775,30.4],[117.625,30.525],[117.6,30.775],[117.725,30.875],[117.7,31.0],[117.575,31.0],[117.575,31.175],[117.4,31.325],[117.25,31.55],[117.175,31.6],[116.725,31.775],[116.325,31.8],[116.375,31.925],[116.5,32.025],[116.55,32.2],[116.625,32.3]],[[120.35,33.55],[120.35,33.625],[120.275,33.6],[120.35,33.55]],[[120.229,30.25],[120.235,30.252],[120.226,30.25],[120.221,30.248],[120.229,30.25]]]]}},{"type":"Feature","properties":{"name":"Dravidians","name_zh":"","focus":false,"label":[74.45,22.32],"area":249.3,"color":"#7d6b5a"},"geometry":{"type":"Polygon","coordinates":[[[70.875,26.575],[71.175,26.3],[71.15,26.15],[71.3,26.05],[71.475,26.0],[71.575,25.875],[71.975,25.725],[72.25,25.7],[72.375,25.525],[72.55,25.425],[72.6,25.3],[72.725,25.25],[72.775,25.125],[72.875,25.125],[73.025,24.9],[73.15,24.875],[73.175,24.8],[73.5,24.825],[73.625,25.025],[73.725,25.05],[73.85,25.175],[73.975,25.2],[74.0,25.125],[74.15,25.05],[74.5,25.025],[74.6,24.875],[74.8,24.825],[75.0,24.675],[75.525,24.55],[75.45,24.35],[75.375,24.325],[75.425,24.15],[75.5,24.125],[75.5,23.95],[75.6,23.775],[75.675,23.75],[76.025,23.75],[76.35,23.825],[76.75,23.825],[77.025,23.8],[77.075,23.625],[77.2,23.575],[77.25,23.4],[77.375,23.35],[77.575,23.35],[77.775,23.2],[77.9,23.225],[78.075,23.05],[78.15,22.9],[78.55,22.975],[78.775,22.975],[78.825,22.825],[78.9,22.775],[78.9,22.6],[78.95,22.55],[78.95,22.35],[79.4,22.35],[79.6,22.375],[79.625,22.45],[79.775,22.4],[80.275,22.4],[80.5,22.075],[80.625,22.1],[80.725,22.225],[80.8,22.225],[80.825,21.725],[80.8,21.525],[80.975,21.4],[81.15,21.325],[81.225,21.225],[81.375,21.4],[81.425,21.575],[81.6,21.525],[81.675,21.45],[81.875,21.4],[82.125,21.225],[82.275,21.25],[82.525,21.4],[82.75,21.425],[82.925,21.525],[83.05,21.525],[83.25,21.6],[83.3,21.675],[83.475,21.675],[83.5,21.9],[83.675,22.05],[83.65,22.225],[83.725,22.3],[83.65,22.55],[83.725,22.6],[83.75,22.85],[83.725,23.05],[84.0,23.075],[84.175,23.0],[84.225,23.075],[84.425,23.1],[84.6,23.25],[84.8,23.25],[85.125,23.375],[85.15,23.475],[85.15,23.8],[85.2,24.0],[85.1,24.025],[85.025,24.25],[85.025,24.425],[84.9,24.725],[84.65,24.825],[84.625,24.875],[84.425,24.95],[84.4,25.0],[83.925,25.2],[83.875,25.25],[83.8,25.5],[83.725,25.575],[83.6,25.575],[83.525,25.45],[83.15,25.525],[83.15,25.35],[82.975,25.275],[82.85,25.275],[82.4,25.75],[82.15,25.85],[82.05,25.95],[81.825,25.95],[81.8,26.05],[81.6,26.25],[81.575,26.35],[81.425,26.475],[81.4,26.575],[81.225,26.65],[81.0,26.65],[80.875,26.725],[80.6,26.725],[80.4,26.95],[80.225,27.025],[80.025,27.025],[79.975,27.15],[79.775,27.2],[79.775,27.3],[79.575,27.475],[79.5,27.6],[79.225,27.7],[79.15,27.85],[79.0,27.85],[79.0,27.95],[78.725,28.225],[78.5,28.325],[78.35,28.325],[78.275,28.525],[78.2,28.575],[78.125,28.925],[78.075,28.95],[78.1,29.25],[78.05,29.475],[77.725,29.575],[77.4,29.925],[77.425,30.125],[77.525,30.25],[77.375,30.35],[77.275,30.5],[77.275,30.75],[77.175,30.9],[77.0,30.9],[76.825,31.1],[76.825,31.2],[76.7,31.275],[76.575,31.275],[76.5,31.375],[76.4,31.4],[76.45,31.225],[76.575,31.075],[76.525,31.0],[76.425,31.025],[76.025,31.025],[75.675,31.35],[75.275,31.45],[75.075,31.225],[75.025,31.225],[74.8,31.425],[74.675,31.475],[74.25,31.5],[73.95,31.65],[73.7,31.925],[73.575,31.95],[73.35,32.075],[73.3,32.075],[73.4,32.225],[73.575,32.25],[73.625,32.325],[73.8,32.4],[74.0,32.425],[73.975,32.625],[74.05,32.825],[74.15,32.95],[74.225,33.15],[74.25,33.5],[74.375,33.6],[74.575,33.6],[74.525,33.75],[74.4,33.95],[74.2,34.025],[74.025,34.175],[73.975,34.35],[73.975,34.525],[74.025,34.55],[74.0,34.925],[73.925,34.95],[73.875,35.075],[73.725,35.1],[73.65,35.275],[73.525,35.325],[73.55,35.525],[73.775,35.55],[73.9,35.5],[73.925,35.775],[73.75,35.9],[73.65,36.025],[73.15,36.025],[73.1,35.95],[72.875,35.95],[72.9,36.2],[72.875,36.275],[73.0,36.325],[73.0,36.5],[73.125,36.725],[73.15,36.725],[73.15,36.7],[73.575,36.7],[73.675,36.75],[73.85,36.75],[73.95,36.625],[74.125,36.725],[74.25,36.725],[74.3,36.875],[74.425,36.9],[74.475,36.975],[74.775,36.9],[75.125,36.9],[75.125,36.775],[75.275,36.725],[75.3,36.625],[75.7,36.575],[75.725,36.4],[75.925,36.325],[76.0,36.25],[76.2,36.225],[76.275,36.175],[76.4,36.3],[76.425,36.3],[76.55,36.2],[76.825,36.05],[77.05,36.05],[77.075,35.975],[77.3,35.875],[77.45,35.725],[77.65,35.725],[77.625,35.375],[77.725,35.3],[77.75,34.9],[77.875,34.775],[77.825,34.675],[77.625,34.475],[77.525,34.425],[77.45,34.3],[77.425,34.15],[77.625,34.075],[77.8,33.875],[77.85,33.75],[78.0,33.65],[77.975,33.45],[77.775,33.275],[77.75,33.15],[77.65,33.075],[77.675,32.675],[77.825,32.575],[77.95,32.575],[78.125,32.425],[78.275,32.425],[78.375,32.3],[78.55,32.3],[78.65,32.25],[78.975,32.275],[78.975,32.15],[78.875,32.025],[78.975,31.9],[78.925,31.65],[78.825,31.55],[78.825,31.375],[79.15,31.425],[79.25,31.35],[79.375,31.125],[79.625,31.025],[79.8,31.025],[79.925,30.95],[80.15,30.925],[80.35,30.625],[80.45,30.625],[80.7,30.525],[80.85,30.525],[80.9,30.6],[81.15,30.55],[81.35,30.375],[81.65,30.4],[82.1,30.4],[82.2,30.25],[82.4,30.1],[82.475,30.1],[82.725,29.825],[82.875,29.7],[83.15,29.575],[83.4,29.325],[83.45,29.2],[83.6,29.2],[83.775,29.375],[83.85,29.525],[84.05,29.5],[84.325,29.375],[84.325,29.175],[84.375,29.1],[84.375,28.925],[84.525,28.925],[84.75,29.025],[84.9,28.975],[85.375,28.975],[85.45,28.7],[85.625,28.625],[85.75,28.475],[85.9,28.525],[86.225,28.5],[86.3,28.35],[86.45,28.35],[86.65,28.175],[86.975,28.1],[87.1,28.275],[87.325,28.275],[87.525,28.2],[87.725,27.95],[87.925,27.95],[88.0,27.9],[88.175,27.9],[88.5,28.075],[88.725,28.075],[89.05,27.925],[89.075,27.825],[89.075,27.575],[89.175,27.4],[89.325,27.35],[89.45,27.25],[89.65,27.225],[89.675,27.1],[89.675,26.75],[89.85,26.3],[89.875,25.925],[89.825,25.9],[89.7,25.625],[89.7,25.175],[89.65,25.125],[89.625,24.925],[89.75,24.625],[89.75,24.125],[89.7,24.05],[89.725,23.8],[89.85,23.725],[89.825,23.5],[89.625,23.425],[89.625,23.3],[89.725,23.2],[89.775,23.0],[89.95,22.85],[90.0,22.675],[89.875,22.625],[89.775,22.475],[89.7,22.25],[89.7,22.075],[89.825,21.95],[89.796,21.832],[89.67,21.719],[89.578,21.7],[89.485,21.884],[89.452,21.821],[89.354,21.721],[89.279,21.707],[89.275,21.708],[89.233,21.655],[89.072,21.774],[89.045,21.724],[89.052,21.654],[89.004,21.647],[88.994,21.629],[89.025,21.546],[88.723,21.539],[88.699,21.653],[88.695,21.662],[88.694,21.677],[88.656,21.857],[88.581,21.889],[88.567,21.832],[88.6,21.714],[88.585,21.66],[88.446,21.614],[88.414,21.639],[88.377,21.577],[88.299,21.551],[88.254,21.622],[88.122,21.636],[88.057,21.694],[88.099,21.794],[88.115,21.84],[88.053,21.938],[87.867,21.696],[87.64,21.563],[86.937,21.288],[86.854,21.198],[86.842,21.106],[86.896,20.966],[86.939,20.745],[86.975,20.7],[86.925,20.62],[86.836,20.534],[86.763,20.419],[86.769,20.356],[86.75,20.313],[86.634,20.248],[86.632,20.203],[86.304,19.949],[86.303,19.945],[86.279,19.919],[86.253,19.909],[86.119,19.806],[85.425,19.618],[85.226,19.508],[85.023,19.338],[84.262,18.455],[84.145,18.349],[84.104,18.293],[84.055,18.268],[83.987,18.207],[83.684,18.083],[83.381,17.71],[83.021,17.491],[82.977,17.462],[82.956,17.452],[82.353,17.085],[82.301,16.893],[82.307,16.879],[82.35,16.825],[82.36,16.783],[82.339,16.707],[82.327,16.664],[82.259,16.56],[82.142,16.485],[82.049,16.447],[81.788,16.328],[81.596,16.302],[81.369,16.346],[81.253,16.225],[81.087,15.826],[80.963,15.723],[80.854,15.778],[80.826,15.766],[80.812,15.799],[80.735,15.837],[80.459,15.773],[80.3,15.645],[80.089,15.175],[80.116,14.741],[80.165,14.578],[80.179,14.478],[80.17,14.349],[80.144,14.3],[80.161,14.015],[80.224,13.858],[80.244,13.773],[80.246,13.686],[80.307,13.485],[80.266,13.521],[80.233,13.606],[80.156,13.714],[80.094,13.643],[80.215,13.476],[80.29,13.437],[80.342,13.361],[80.316,13.203],[80.313,13.104],[80.288,13.042],[80.229,12.69],[80.143,12.452],[80.038,12.296],[79.982,12.235],[79.921,12.114],[79.822,11.864],[79.771,11.69],[79.754,11.575],[79.793,11.447],[79.749,11.371],[79.721,11.341],[79.723,11.32],[79.799,11.339],[79.835,11.269],[79.849,11.197],[79.85,10.769],[79.838,10.323],[79.812,10.317],[79.789,10.25],[79.313,10.255],[79.254,10.175],[79.258,10.035],[79.089,9.808],[79.072,9.759],[78.927,9.493],[78.926,9.491],[78.937,9.435],[79.116,9.308],[79.18,9.298],[79.175,9.275],[79.175,9.258],[79.112,9.261],[78.313,8.995],[78.181,8.811],[78.135,8.499],[78.064,8.385],[77.899,8.257],[77.8,8.21],[77.77,8.19],[77.732,8.177],[77.419,8.028],[77.341,8.053],[77.128,8.271],[77.066,8.316],[76.967,8.407],[76.845,8.561],[76.703,8.706],[76.676,8.773],[76.617,8.847],[76.553,8.903],[76.483,9.091],[76.472,9.161],[76.452,9.189],[76.419,9.208],[76.403,9.237],[76.325,9.452],[76.292,9.676],[76.242,9.927],[76.285,9.91],[76.343,9.827],[76.372,9.707],[76.376,9.54],[76.42,9.52],[76.438,9.528],[76.385,9.747],[76.3,9.968],[76.249,10.018],[76.223,10.024],[76.196,10.086],[76.193,10.164],[76.201,10.201],[76.123,10.327],[76.096,10.402],[75.923,10.784],[75.866,10.981],[75.651,11.423],[75.292,11.976],[75.23,12.023],[75.197,12.058],[74.946,12.565],[74.868,12.845],[74.803,12.977],[74.771,13.077],[74.682,13.507],[74.682,13.584],[74.671,13.668],[74.608,13.85],[74.499,14.046],[74.467,14.169],[74.467,14.217],[74.397,14.407],[74.393,14.433],[74.25,14.681],[74.223,14.709],[74.089,14.902],[74.041,14.949],[73.949,15.075],[73.884,15.306],[73.801,15.397],[73.838,15.397],[73.728,15.662],[73.68,15.709],[73.608,15.871],[73.476,16.054],[73.454,16.152],[73.338,16.46],[73.239,17.199],[73.149,17.527],[73.156,17.622],[73.047,17.907],[72.994,18.098],[72.972,18.259],[72.943,18.366],[72.917,18.576],[72.875,18.643],[72.871,18.683],[72.899,18.779],[72.925,18.829],[72.894,19.01],[72.835,18.976],[72.803,19.079],[72.803,19.219],[72.795,19.252],[72.812,19.299],[72.847,19.295],[72.842,19.34],[72.788,19.363],[72.764,19.413],[72.756,19.451],[72.799,19.52],[72.727,19.578],[72.697,19.757],[72.676,19.798],[72.668,19.831],[72.709,20.078],[72.881,20.563],[72.894,20.673],[72.879,20.829],[72.841,20.952],[72.825,21.079],[72.789,21.122],[72.752,21.129],[72.692,21.178],[72.624,21.372],[72.687,21.436],[72.721,21.46],[72.72,21.467],[72.668,21.456],[72.613,21.462],[72.709,21.544],[72.687,21.692],[72.543,21.697],[72.592,21.878],[72.644,21.938],[72.677,21.958],[72.678,21.969],[72.617,21.962],[72.522,21.976],[72.547,22.123],[72.319,22.115],[72.25,22.038],[72.244,22.028],[72.236,22.023],[72.232,22.019],[72.127,21.828],[72.129,21.787],[72.171,21.774],[72.21,21.728],[72.257,21.661],[72.255,21.59],[72.288,21.549],[72.256,21.352],[72.12,21.155],[71.894,20.989],[71.024,20.657],[70.855,20.65],[70.467,20.777],[70.209,20.947],[70.0,21.144],[69.126,21.968],[68.894,22.285],[69.492,22.248],[69.968,22.351],[70.0,22.371],[70.0,22.545],[70.006,22.548],[70.084,22.554],[70.177,22.573],[70.328,22.816],[70.356,22.854],[70.045,22.777],[70.0,22.778],[69.664,22.789],[69.107,22.898],[68.79,23.028],[68.372,23.326],[68.072,23.675],[68.046,23.764],[67.692,23.814],[67.486,23.928],[67.315,24.092],[67.204,24.588],[67.153,24.651],[66.654,24.783],[66.7,25.114],[66.62,25.317],[66.432,25.488],[66.3,25.494],[65.768,25.309],[64.424,25.173],[64.238,25.21],[64.12,25.312],[64.064,25.393],[64.773,29.675],[69.105,33.254],[69.343,32.896],[70.0,32.472],[70.0,32.5],[70.2,32.3],[70.4,32.225],[70.7,32.05],[71.0,31.925],[70.9,31.75],[70.875,31.575],[70.775,31.525],[70.575,31.525],[70.4,31.425],[70.0,31.4],[70.0,31.348],[68.019,30.591],[69.364,27.534],[70.0,26.965],[70.0,26.825],[70.225,26.725],[70.4,26.725],[70.45,26.65],[70.875,26.575]]]}},{"type":"Feature","properties":{"name":"Vedic Aryans","name_zh":"","focus":false,"label":[76.27,26.48],"area":86.9,"color":"#4f8f86"},"geometry":{"type":"Polygon","coordinates":[[[70.775,31.525],[70.875,31.575],[70.9,31.75],[71.0,31.925],[71.125,32.1],[71.45,32.1],[71.675,31.975],[72.25,31.975],[72.325,32.1],[72.5,32.125],[72.625,31.975],[72.925,31.875],[73.1,31.85],[73.275,32.075],[73.35,32.075],[73.575,31.95],[73.7,31.925],[73.95,31.65],[74.25,31.5],[74.675,31.475],[74.8,31.425],[75.025,31.225],[75.075,31.225],[75.275,31.45],[75.675,31.35],[76.025,31.025],[76.425,31.025],[76.525,31.0],[76.575,31.075],[76.45,31.225],[76.4,31.4],[76.5,31.375],[76.575,31.275],[76.7,31.275],[76.825,31.2],[76.825,31.1],[77.0,30.9],[77.175,30.9],[77.275,30.75],[77.275,30.5],[77.375,30.35],[77.525,30.25],[77.425,30.125],[77.4,29.925],[77.725,29.575],[78.05,29.475],[78.1,29.25],[78.075,28.95],[78.125,28.925],[78.2,28.575],[78.275,28.525],[78.35,28.325],[78.5,28.325],[78.725,28.225],[79.0,27.95],[79.0,27.85],[79.15,27.85],[79.225,27.7],[79.5,27.6],[79.575,27.475],[79.775,27.3],[79.775,27.2],[79.975,27.15],[80.025,27.025],[80.225,27.025],[80.4,26.95],[80.6,26.725],[80.875,26.725],[81.0,26.65],[81.225,26.65],[81.4,26.575],[81.425,26.475],[81.575,26.35],[81.6,26.25],[81.8,26.05],[81.825,25.95],[82.05,25.95],[82.15,25.85],[82.4,25.75],[82.85,25.275],[82.975,25.275],[83.15,25.35],[83.15,25.525],[83.525,25.45],[83.6,25.575],[83.725,25.575],[83.8,25.5],[83.875,25.25],[83.925,25.2],[84.4,25.0],[84.425,24.95],[84.625,24.875],[84.65,24.825],[84.9,24.725],[85.025,24.425],[85.025,24.25],[85.1,24.025],[85.2,24.0],[85.15,23.8],[85.15,23.475],[85.125,23.375],[84.8,23.25],[84.6,23.25],[84.425,23.1],[84.225,23.075],[84.175,23.0],[84.0,23.075],[83.725,23.05],[83.75,22.85],[83.725,22.6],[83.65,22.55],[83.725,22.3],[83.65,22.225],[83.675,22.05],[83.5,21.9],[83.475,21.675],[83.3,21.675],[83.25,21.6],[83.05,21.525],[82.925,21.525],[82.75,21.425],[82.525,21.4],[82.275,21.25],[82.125,21.225],[81.875,21.4],[81.675,21.45],[81.6,21.525],[81.425,21.575],[81.375,21.4],[81.225,21.225],[81.15,21.325],[80.975,21.4],[80.8,21.525],[80.825,21.725],[80.8,22.225],[80.725,22.225],[80.625,22.1],[80.5,22.075],[80.275,22.4],[79.775,22.4],[79.625,22.45],[79.6,22.375],[79.4,22.35],[78.95,22.35],[78.95,22.55],[78.9,22.6],[78.9,22.775],[78.825,22.825],[78.775,22.975],[78.55,22.975],[78.15,22.9],[78.075,23.05],[77.9,23.225],[77.775,23.2],[77.575,23.35],[77.375,23.35],[77.25,23.4],[77.2,23.575],[77.075,23.625],[77.025,23.8],[76.75,23.825],[76.35,23.825],[76.025,23.75],[75.675,23.75],[75.6,23.775],[75.5,23.95],[75.5,24.125],[75.425,24.15],[75.375,24.325],[75.45,24.35],[75.525,24.55],[75.0,24.675],[74.8,24.825],[74.6,24.875],[74.5,25.025],[74.15,25.05],[74.0,25.125],[73.975,25.2],[73.85,25.175],[73.725,25.05],[73.625,25.025],[73.5,24.825],[73.175,24.8],[73.15,24.875],[73.025,24.9],[72.875,25.125],[72.775,25.125],[72.725,25.25],[72.6,25.3],[72.55,25.425],[72.375,25.525],[72.25,25.7],[71.975,25.725],[71.575,25.875],[71.475,26.0],[71.3,26.05],[71.15,26.15],[71.175,26.3],[70.875,26.575],[70.45,26.65],[70.4,26.725],[70.225,26.725],[70.0,26.825],[70.0,26.965],[69.364,27.534],[68.019,30.591],[70.0,31.348],[70.0,31.4],[70.4,31.425],[70.575,31.525],[70.775,31.525]]]}},{"type":"Feature","properties":{"name":"Burmese","name_zh":"","focus":false,"label":[97.09,24.61],"area":90.5,"color":"#6f9460"},"geometry":{"type":"MultiPolygon","coordinates":[[[[89.55,28.175],[89.775,28.25],[89.875,28.175],[90.125,28.25],[90.3,28.225],[90.4,28.1],[90.5,28.1],[90.65,28.275],[90.875,28.325],[90.975,28.425],[91.3,28.475],[91.55,28.3],[91.575,28.15],[92.05,28.15],[92.225,27.975],[92.4,27.975],[92.55,28.025],[92.825,27.725],[92.85,27.6],[92.975,27.475],[93.15,27.375],[93.35,27.4],[93.275,27.25],[93.15,27.175],[93.15,27.025],[93.275,26.9],[93.325,26.75],[93.6,26.775],[93.75,26.825],[93.875,26.775],[93.975,26.875],[94.15,26.925],[94.325,26.925],[94.525,27.075],[94.575,27.2],[94.975,27.2],[95.0,27.15],[95.225,27.1],[95.275,27.3],[95.35,27.4],[95.7,27.525],[95.8,27.625],[95.85,27.8],[95.95,27.8],[96.1,27.9],[96.4,27.9],[96.5,28.075],[96.75,28.0],[96.9,28.2],[97.075,28.2],[97.125,28.25],[97.325,28.25],[97.425,28.475],[97.675,28.625],[97.9,28.625],[98.1,28.425],[98.375,28.325],[98.525,28.1],[98.775,28.1],[98.975,27.975],[99.025,28.3],[99.15,28.25],[99.55,28.25],[99.6,28.15],[99.8,28.1],[99.85,28.15],[99.85,28.4],[99.925,28.55],[100.025,28.625],[100.125,28.875],[100.15,29.125],[100.225,29.225],[100.375,29.175],[100.425,29.25],[100.625,29.275],[100.7,29.175],[100.9,29.225],[100.975,29.075],[101.2,29.225],[101.45,29.2],[101.55,29.275],[101.7,29.3],[101.725,29.475],[101.85,29.6],[101.85,29.8],[102.025,29.95],[102.2,29.975],[102.2,29.65],[102.3,29.575],[102.325,29.575],[102.375,29.45],[102.95,29.425],[102.95,28.925],[103.0,28.825],[103.0,28.6],[103.15,28.575],[103.2,28.45],[103.2,28.25],[103.1,28.225],[103.125,27.9],[103.325,27.85],[103.325,27.65],[103.175,27.575],[103.1,27.425],[102.975,27.425],[102.925,27.25],[103.025,27.225],[103.075,27.0],[103.2,26.75],[103.225,26.4],[103.3,26.25],[103.35,25.9],[103.325,25.725],[103.6,25.5],[103.7,25.45],[103.775,25.3],[103.875,25.3],[103.9,25.05],[104.1,24.8],[104.1,24.625],[103.9,24.425],[103.95,24.175],[104.25,24.225],[104.375,24.025],[104.65,23.825],[104.6,23.625],[104.475,23.45],[104.475,23.275],[104.35,23.175],[104.3,23.05],[104.15,23.075],[104.15,23.15],[103.95,23.325],[103.775,23.325],[103.575,23.075],[103.575,22.925],[103.45,22.8],[103.325,22.8],[103.175,22.9],[103.05,22.9],[103.05,22.825],[102.9,22.7],[102.875,22.625],[102.575,22.7],[102.45,22.6],[102.075,22.625],[102.0,22.55],[102.05,22.35],[101.8,22.1],[101.575,22.075],[101.575,21.85],[101.475,21.775],[101.175,21.75],[101.075,21.85],[100.95,21.85],[100.875,22.0],[100.8,22.0],[100.725,22.175],[100.5,22.325],[100.45,22.225],[100.275,22.35],[100.275,22.425],[100.125,22.425],[100.05,22.55],[99.9,22.675],[99.8,22.65],[99.825,22.525],[99.775,22.325],[99.55,22.4],[99.5,22.35],[99.5,22.175],[99.375,22.125],[99.325,21.9],[99.175,21.925],[99.1,22.0],[98.95,22.0],[98.9,21.925],[98.675,21.875],[98.75,22.075],[98.55,22.175],[98.525,22.35],[98.225,22.375],[98.125,22.25],[97.925,22.1],[97.7,22.05],[97.65,21.85],[97.425,21.7],[97.45,21.375],[97.375,21.2],[97.075,21.525],[97.075,21.6],[96.875,21.8],[96.875,22.025],[96.775,22.025],[96.525,21.725],[96.375,21.725],[96.25,21.625],[96.05,21.575],[95.775,21.575],[95.4,21.375],[95.225,21.375],[95.15,21.3],[95.025,21.3],[94.975,21.225],[94.825,21.225],[94.8,21.1],[94.625,21.075],[94.45,20.95],[94.2,20.95],[94.175,20.9],[94.0,20.9],[93.9,20.95],[93.85,21.175],[93.75,21.075],[93.75,20.85],[93.825,20.725],[93.85,20.525],[93.975,20.425],[93.975,20.15],[94.05,20.05],[94.075,19.825],[94.25,19.75],[94.025,19.55],[93.9,19.375],[93.85,19.225],[93.661,19.055],[93.457,19.174],[93.589,19.205],[93.493,19.369],[93.531,19.398],[93.579,19.401],[93.728,19.267],[93.785,19.25],[93.814,19.257],[93.801,19.305],[93.756,19.326],[93.732,19.416],[93.662,19.459],[93.644,19.495],[93.688,19.544],[93.715,19.558],[93.737,19.542],[93.723,19.594],[93.5,19.841],[93.513,19.755],[93.445,19.806],[93.42,19.878],[93.414,19.936],[93.334,20.025],[93.167,20.005],[93.199,19.898],[93.191,19.851],[93.129,19.858],[93.04,20.009],[92.894,20.113],[92.9,20.175],[92.882,20.152],[92.828,20.178],[92.791,20.211],[92.844,20.283],[92.872,20.302],[92.891,20.34],[92.867,20.385],[92.73,20.414],[92.723,20.296],[92.631,20.436],[92.62,20.438],[92.403,20.613],[92.176,20.886],[91.946,21.362],[91.919,21.506],[91.889,21.503],[91.859,21.533],[91.873,21.574],[91.857,21.709],[91.881,21.715],[91.863,21.809],[91.838,21.75],[91.82,21.81],[91.835,21.885],[91.844,21.91],[91.571,22.543],[91.41,22.72],[91.081,22.561],[90.904,22.56],[90.642,22.928],[90.604,22.946],[90.562,22.975],[90.561,22.977],[90.519,22.942],[90.552,22.905],[90.493,22.89],[90.483,22.68],[90.651,22.325],[90.651,22.28],[90.68,22.327],[90.675,22.445],[90.649,22.541],[90.565,22.618],[90.56,22.673],[90.523,22.748],[90.503,22.835],[90.596,22.864],[90.672,22.813],[90.683,22.785],[90.699,22.714],[90.737,22.639],[90.868,22.485],[90.866,22.391],[90.83,22.16],[90.778,22.089],[90.604,22.054],[90.58,22.057],[90.38,22.019],[90.274,21.778],[90.157,21.733],[89.955,22.024],[89.954,22.023],[89.952,22.028],[89.891,22.116],[89.88,22.381],[89.862,22.319],[89.869,22.133],[89.825,21.95],[89.7,22.075],[89.7,22.25],[89.775,22.475],[89.875,22.625],[90.0,22.675],[89.95,22.85],[89.775,23.0],[89.725,23.2],[89.625,23.3],[89.625,23.425],[89.825,23.5],[89.85,23.725],[89.725,23.8],[89.7,24.05],[89.75,24.125],[89.75,24.625],[89.625,24.925],[89.65,25.125],[89.7,25.175],[89.7,25.625],[89.825,25.9],[89.875,25.925],[89.85,26.3],[89.675,26.75],[89.675,27.1],[89.65,27.225],[89.45,27.25],[89.325,27.35],[89.175,27.4],[89.075,27.575],[89.075,27.825],[89.275,27.825],[89.3,27.925],[89.5,28.075],[89.55,28.175]]],[[[93.01,19.924],[93.023,19.829],[92.975,19.868],[92.913,20.0],[92.915,20.086],[92.96,20.046],[93.01,19.924]]],[[[91.456,22.617],[91.484,22.577],[91.523,22.491],[91.548,22.425],[91.557,22.382],[91.51,22.353],[91.467,22.378],[91.411,22.476],[91.439,22.599],[91.456,22.617]]],[[[91.074,22.45],[91.079,22.52],[91.115,22.45],[91.074,22.45]]]]}},{"type":"Feature","properties":{"name":"Paleo-Koreans","name_zh":"","focus":false,"label":[127.93,37.19],"area":18.5,"color":"#4f8f86","nolabel":true},"geometry":{"type":"MultiPolygon","coordinates":[[[[124.775,39.95],[124.875,40.1],[125.0,40.175],[125.025,40.325],[125.125,40.4],[125.3,40.45],[125.7,40.4],[125.875,40.575],[126.0,40.525],[126.2,40.575],[126.275,40.65],[126.7,40.65],[127.05,40.75],[127.15,40.6],[127.4,40.6],[127.45,40.65],[127.85,40.7],[127.975,40.75],[128.4,40.775],[128.6,40.925],[128.725,40.925],[128.775,41.05],[128.875,40.975],[129.0,40.675],[129.15,40.55],[129.153,40.545],[129.11,40.491],[128.945,40.428],[128.843,40.358],[128.701,40.318],[128.611,40.198],[128.511,40.13],[128.393,40.089],[128.304,40.036],[128.205,40.034],[128.338,40.016],[128.236,39.969],[127.931,39.956],[127.925,39.954],[127.867,39.896],[127.604,39.796],[127.546,39.734],[127.527,39.696],[127.547,39.563],[127.549,39.461],[127.523,39.377],[127.457,39.401],[127.422,39.374],[127.383,39.296],[127.395,39.208],[127.497,39.179],[127.581,39.143],[127.699,39.125],[127.786,39.084],[127.972,38.898],[128.123,38.816],[128.163,38.786],[128.249,38.745],[128.329,38.681],[128.375,38.623],[128.619,38.176],[128.852,37.887],[129.052,37.678],[129.335,37.275],[129.418,37.059],[129.426,36.926],[129.473,36.742],[129.433,36.637],[129.445,36.471],[129.427,36.385],[129.393,36.323],[129.391,36.202],[129.402,36.138],[129.404,36.052],[129.426,36.019],[129.458,36.006],[129.51,36.038],[129.573,36.051],[129.562,35.948],[129.485,35.687],[129.419,35.498],[129.329,35.333],[129.214,35.182],[129.077,35.123],[128.98,35.102],[128.973,35.101],[128.917,35.029],[128.808,35.01],[128.552,35.105],[128.457,35.067],[128.419,35.016],[128.448,34.932],[128.444,34.87],[128.388,34.875],[128.28,34.91],[128.164,34.799],[128.061,34.819],[128.066,34.806],[128.055,34.708],[127.984,34.703],[127.942,34.766],[127.897,34.735],[127.873,34.735],[127.838,34.813],[127.832,34.875],[127.884,34.904],[127.84,34.938],[127.646,34.902],[127.639,34.89],[127.663,34.843],[127.742,34.783],[127.715,34.721],[127.632,34.69],[127.565,34.766],[127.524,34.84],[127.477,34.844],[127.429,34.83],[127.404,34.821],[127.39,34.743],[127.423,34.688],[127.479,34.625],[127.401,34.553],[127.381,34.501],[127.325,34.463],[127.173,34.546],[127.195,34.605],[127.261,34.662],[127.269,34.72],[127.26,34.734],[126.971,34.531],[126.897,34.439],[126.851,34.447],[126.824,34.428],[126.618,34.409],[126.611,34.404],[126.584,34.318],[126.531,34.314],[126.515,34.341],[126.409,34.269],[126.373,34.564],[126.333,34.59],[126.264,34.673],[126.301,34.72],[126.348,34.71],[126.225,35.163],[126.3,35.367],[126.524,35.577],[126.524,35.598],[126.487,35.606],[126.488,35.647],[126.524,35.662],[126.524,35.737],[126.626,35.928],[126.436,36.131],[126.39,36.437],[126.338,36.471],[126.319,36.613],[126.368,36.583],[126.361,36.627],[125.96,36.722],[126.211,36.86],[126.217,36.871],[126.352,36.958],[126.429,36.969],[126.487,37.007],[126.578,37.02],[126.687,36.96],[126.784,36.948],[126.79,36.938],[126.799,36.946],[126.786,37.073],[126.442,37.474],[126.391,37.614],[126.209,37.754],[125.909,37.511],[125.741,37.784],[125.592,37.826],[125.582,37.815],[125.502,37.764],[125.269,37.484],[125.076,37.77],[124.769,37.935],[124.697,38.127],[124.691,38.129],[124.696,38.132],[124.693,38.139],[124.736,38.279],[124.929,38.464],[124.972,38.477],[124.974,38.48],[125.067,38.557],[125.286,38.655],[125.293,38.688],[125.027,38.815],[125.296,39.364],[125.206,39.485],[124.922,39.618],[124.692,39.605],[124.764,39.73],[124.8,39.743],[124.775,39.758],[124.775,39.95]]],[[[128.489,34.865],[128.586,34.932],[128.668,35.009],[128.722,35.014],[128.741,34.799],[128.647,34.737],[128.52,34.82],[128.489,34.865]]],[[[127.799,34.615],[127.788,34.584],[127.737,34.631],[127.787,34.682],[127.799,34.615]]],[[[126.7,34.396],[126.753,34.344],[126.77,34.296],[126.689,34.305],[126.646,34.351],[126.652,34.39],[126.7,34.396]]],[[[126.109,34.399],[126.123,34.444],[126.227,34.533],[126.247,34.563],[126.344,34.545],[126.38,34.498],[126.335,34.426],[126.234,34.371],[126.17,34.355],[126.134,34.39],[126.109,34.399]]],[[[126.169,34.83],[126.172,34.731],[126.159,34.707],[126.115,34.714],[126.071,34.783],[126.052,34.838],[126.008,34.867],[126.078,34.915],[126.169,34.83]]],[[[124.846,39.559],[124.89,39.602],[124.935,39.608],[124.905,39.536],[124.849,39.508],[124.846,39.559]]],[[[124.755,37.97],[124.754,37.955],[124.74,37.947],[124.717,37.933],[124.697,37.92],[124.656,37.925],[124.625,37.945],[124.636,37.981],[124.661,37.973],[124.717,37.989],[124.745,37.981],[124.755,37.97]]]]}},{"type":"Feature","properties":{"name":"Late Jomon culture","name_zh":"","focus":false,"label":[139.78,37.37],"area":30.8,"color":"#5f87a3"},"geometry":{"type":"MultiPolygon","coordinates":[[[[132.202,34.032],[132.159,33.944],[132.146,33.839],[132.09,33.855],[131.995,33.911],[131.994,33.804],[131.654,33.911],[130.899,33.903],[130.779,33.966],[130.891,34.244],[130.889,34.262],[130.904,34.3],[130.952,34.35],[131.004,34.393],[131.132,34.407],[131.262,34.393],[131.354,34.413],[131.433,34.47],[131.515,34.55],[131.608,34.615],[131.734,34.667],[131.856,34.726],[131.963,34.809],[132.065,34.9],[132.158,34.967],[132.258,35.022],[132.662,35.38],[132.672,35.382],[132.698,35.418],[132.747,35.449],[132.923,35.511],[133.157,35.559],[133.267,35.557],[133.376,35.459],[133.435,35.472],[133.495,35.497],[133.615,35.511],[133.739,35.495],[133.86,35.495],[133.981,35.507],[134.214,35.539],[134.337,35.578],[134.456,35.628],[134.882,35.663],[135.174,35.747],[135.221,35.741],[135.265,35.722],[135.269,35.66],[135.232,35.592],[135.268,35.551],[135.327,35.526],[135.602,35.518],[135.68,35.503],[135.795,35.55],[135.903,35.607],[135.931,35.626],[135.977,35.972],[136.017,36.012],[136.067,36.117],[136.156,36.223],[136.262,36.288],[136.359,36.362],[136.556,36.572],[136.666,36.704],[136.64,37.17],[136.775,37.282],[136.843,37.382],[136.962,37.414],[137.199,37.497],[137.323,37.522],[137.341,37.485],[137.338,37.437],[137.312,37.416],[137.334,37.273],[137.013,37.037],[137.007,36.993],[137.019,36.96],[137.013,36.895],[137.017,36.837],[137.124,36.774],[137.246,36.753],[137.298,36.754],[137.343,36.77],[137.483,36.925],[137.514,36.952],[137.913,37.065],[138.11,37.151],[138.182,37.166],[138.343,37.236],[138.548,37.392],[138.633,37.472],[138.709,37.561],[138.771,37.663],[138.819,37.775],[138.885,37.844],[139.247,38.009],[139.364,38.099],[139.401,38.143],[139.446,38.269],[139.477,38.4],[139.521,38.503],[139.58,38.599],[139.66,38.697],[139.749,38.788],[139.802,38.882],[139.879,39.105],[139.912,39.229],[139.939,39.273],[139.977,39.311],[139.986,39.323],[140.03,39.483],[140.011,39.693],[139.862,39.782],[139.811,39.878],[139.81,39.878],[139.742,39.921],[139.755,39.959],[139.826,39.966],[139.874,39.986],[139.908,40.022],[139.972,40.137],[139.979,40.156],[139.915,40.574],[139.923,40.579],[139.923,40.598],[139.967,40.673],[140.029,40.733],[140.085,40.747],[140.146,40.752],[140.199,40.774],[140.3,40.888],[140.326,40.948],[140.344,41.006],[140.315,41.161],[140.344,41.203],[140.386,41.23],[140.441,41.21],[140.498,41.206],[140.564,41.212],[140.628,41.195],[140.64,41.156],[140.679,40.893],[140.702,40.858],[140.749,40.83],[140.801,40.834],[140.846,40.875],[140.876,40.93],[140.936,40.941],[141.119,40.882],[141.142,40.897],[141.076,41.102],[140.936,41.114],[140.887,41.156],[140.801,41.139],[140.802,41.231],[140.774,41.255],[140.809,41.276],[140.86,41.425],[140.892,41.48],[140.937,41.506],[141.05,41.476],[141.106,41.456],[141.173,41.411],[141.285,41.371],[141.298,41.362],[141.455,41.405],[141.426,41.276],[141.436,41.269],[141.463,40.611],[141.542,40.531],[141.646,40.474],[141.797,40.291],[141.878,40.067],[141.935,39.958],[141.978,39.844],[141.991,39.792],[141.992,39.74],[141.984,39.698],[141.998,39.671],[141.998,39.448],[141.907,39.186],[141.901,39.111],[141.855,39.095],[141.812,39.048],[141.807,39.04],[141.801,39.036],[141.568,38.785],[141.539,38.728],[141.519,38.632],[141.509,38.498],[141.49,38.455],[141.496,38.421],[141.47,38.409],[141.467,38.404],[141.447,38.399],[141.024,38.21],[140.929,38.026],[140.928,37.95],[140.96,37.823],[141.003,37.698],[141.036,37.467],[141.002,37.115],[140.968,37.002],[140.966,36.999],[140.963,36.956],[140.702,36.67],[140.627,36.503],[140.619,36.445],[140.619,36.386],[140.592,36.308],[140.574,36.231],[140.59,36.142],[140.622,36.059],[140.76,35.846],[140.813,35.783],[140.874,35.725],[140.806,35.706],[140.834,35.677],[140.426,35.428],[140.413,35.395],[140.417,35.267],[140.393,35.221],[140.355,35.181],[140.346,35.175],[140.316,35.033],[139.83,34.835],[139.788,34.962],[139.831,35.068],[139.83,35.072],[139.851,35.232],[139.826,35.297],[139.906,35.345],[139.944,35.423],[139.984,35.453],[140.002,35.497],[139.913,35.554],[139.731,35.468],[139.65,35.409],[139.666,35.319],[139.7,35.274],[139.744,35.252],[139.731,35.222],[139.675,35.149],[139.636,35.142],[139.564,35.243],[139.52,35.27],[139.422,35.165],[139.208,35.165],[139.116,35.082],[139.122,34.956],[139.086,34.839],[139.028,34.754],[139.022,34.688],[138.863,34.567],[138.779,34.579],[138.749,34.649],[138.751,34.922],[138.683,34.992],[138.45,34.902],[138.295,34.763],[138.149,34.527],[137.759,34.552],[137.248,34.481],[137.148,34.601],[137.062,34.583],[137.077,34.621],[137.117,34.637],[137.041,34.728],[136.939,34.777],[136.944,34.722],[136.913,34.709],[136.871,34.733],[136.884,34.802],[136.733,34.874],[136.616,34.759],[136.564,34.645],[136.616,34.589],[136.842,34.464],[136.88,34.434],[136.881,34.38],[136.854,34.324],[136.819,34.31],[136.898,34.258],[136.766,34.169],[136.393,34.111],[136.218,34.013],[136.073,33.778],[135.916,33.562],[135.899,33.556],[135.755,33.342],[135.062,33.69],[134.969,34.134],[135.113,34.25],[135.1,34.288],[135.132,34.317],[135.252,34.374],[135.317,34.471],[135.286,34.598],[135.205,34.617],[134.935,34.54],[134.427,34.628],[133.825,34.385],[133.589,34.442],[133.182,34.327],[133.142,34.302],[133.116,34.308],[132.552,34.149],[132.56,34.127],[132.578,34.115],[132.549,34.075],[132.461,34.087],[132.496,34.122],[132.505,34.136],[132.481,34.129],[132.386,34.268],[132.277,34.278],[132.238,34.227],[132.202,34.032]]],[[[134.933,34.288],[134.824,34.203],[134.731,34.209],[134.683,34.247],[134.668,34.294],[134.757,34.368],[134.834,34.473],[134.904,34.519],[134.961,34.545],[135.005,34.544],[134.905,34.398],[134.933,34.288]]],[[[134.675,33.848],[134.739,33.821],[134.549,33.729],[134.547,33.728],[134.519,33.65],[134.206,33.349],[134.206,33.347],[134.182,33.247],[134.135,33.28],[133.998,33.148],[133.726,33.376],[133.516,33.394],[133.264,33.307],[133.24,33.25],[133.146,33.083],[133.101,33.028],[133.073,33.02],[132.969,32.765],[132.9,32.669],[132.698,32.548],[132.467,32.757],[132.342,33.106],[132.121,33.347],[132.174,33.375],[132.086,33.34],[132.033,33.34],[132.114,33.395],[132.288,33.47],[132.366,33.512],[132.536,33.633],[132.557,33.644],[132.706,33.817],[132.716,33.852],[132.752,33.906],[132.784,33.992],[132.839,34.021],[132.935,34.095],[132.99,34.088],[133.051,33.997],[133.134,33.927],[133.193,33.933],[133.299,33.969],[133.35,33.977],[133.472,33.973],[133.582,34.017],[133.627,34.069],[133.643,34.135],[133.603,34.244],[133.656,34.233],[133.706,34.237],[133.826,34.307],[133.948,34.348],[134.076,34.358],[134.219,34.319],[134.357,34.256],[134.496,34.215],[134.638,34.227],[134.635,34.044],[134.655,33.983],[134.66,33.976],[134.65,33.95],[134.67,33.963],[134.695,33.928],[134.675,33.848]]],[[[134.188,34.496],[134.182,34.519],[134.326,34.534],[134.372,34.522],[134.352,34.484],[134.333,34.464],[134.315,34.469],[134.252,34.423],[134.238,34.467],[134.188,34.496]]],[[[132.267,33.871],[132.209,33.873],[132.201,33.928],[132.208,33.948],[132.266,33.945],[132.315,33.909],[132.403,33.92],[132.419,33.888],[132.411,33.88],[132.36,33.847],[132.267,33.871]]],[[[130.361,32.758],[130.361,32.756],[130.34,32.702],[130.298,32.675],[130.246,32.677],[130.193,32.706],[130.152,32.748],[130.054,32.771],[129.951,32.722],[129.938,32.709],[129.845,32.587],[129.816,32.6],[129.769,32.571],[129.79,32.611],[129.733,32.637],[129.63,32.866],[129.46,32.986],[129.343,33.151],[129.375,33.176],[129.37,33.176],[129.417,33.231],[129.423,33.257],[129.462,33.331],[129.538,33.358],[129.57,33.361],[129.508,33.284],[129.507,33.28],[129.528,33.297],[129.595,33.289],[129.61,33.344],[129.66,33.365],[129.702,33.36],[129.844,33.322],[129.858,33.375],[129.837,33.404],[129.826,33.437],[129.919,33.483],[130.072,33.522],[130.103,33.54],[130.131,33.578],[130.168,33.598],[130.275,33.598],[130.365,33.634],[130.439,33.734],[130.457,33.789],[130.484,33.835],[130.67,33.915],[130.716,33.928],[130.84,33.918],[130.953,33.872],[131.009,33.776],[131.058,33.673],[131.175,33.603],[131.309,33.573],[131.366,33.571],[131.419,33.584],[131.499,33.624],[131.583,33.652],[131.643,33.638],[131.696,33.603],[131.724,33.554],[131.711,33.502],[131.619,33.396],[131.669,33.308],[131.613,33.265],[131.717,33.252],[131.897,33.255],[131.855,33.182],[131.848,33.118],[131.903,33.088],[131.949,33.047],[131.937,33.01],[131.91,32.974],[132.009,32.919],[132.002,32.882],[131.977,32.844],[131.83,32.693],[131.824,32.687],[131.732,32.593],[131.66,32.466],[131.61,32.325],[131.565,32.223],[131.531,32.117],[131.506,32.002],[131.46,31.883],[131.475,31.778],[131.46,31.671],[131.337,31.405],[131.25,31.41],[131.21,31.352],[131.089,31.275],[131.098,31.256],[130.902,31.112],[130.744,30.887],[130.579,30.906],[130.554,30.969],[130.674,31.211],[130.732,31.476],[130.731,31.478],[130.581,31.528],[130.537,31.491],[130.528,31.46],[130.54,31.403],[130.566,31.352],[130.645,31.267],[130.621,31.218],[130.589,31.179],[130.406,31.236],[130.404,31.229],[130.232,31.026],[130.086,31.121],[130.06,31.216],[130.165,31.369],[130.147,31.408],[130.202,31.422],[130.205,31.426],[130.219,31.559],[130.058,31.972],[130.201,32.098],[130.214,32.115],[130.222,32.117],[130.4,32.275],[130.481,32.347],[130.496,32.557],[130.361,32.758]],[[130.28,32.867],[130.289,32.864],[130.257,32.912],[130.169,32.923],[130.175,32.851],[130.222,32.847],[130.28,32.867]]],[[[130.293,32.419],[130.256,32.431],[130.242,32.463],[130.365,32.527],[130.461,32.516],[130.419,32.458],[130.381,32.424],[130.293,32.419]]],[[[130.083,32.23],[130.004,32.194],[129.993,32.228],[129.96,32.244],[130.017,32.292],[130.015,32.314],[129.979,32.346],[130.021,32.469],[130.01,32.522],[130.168,32.541],[130.197,32.492],[130.2,32.341],[130.083,32.23]]]]}},{"type":"Feature","properties":{"name":"Ainu","name_zh":"","focus":false,"label":[143.26,43.52],"area":18.8,"color":"#7272a8"},"geometry":{"type":"MultiPolygon","coordinates":[[[[150.0,46.045],[150.0,45.831],[149.684,45.633],[149.437,45.583],[149.667,45.85],[149.856,45.923],[150.0,46.045]]],[[[147.762,44.938],[147.62,44.966],[147.585,44.918],[147.622,44.897],[147.548,44.812],[147.291,44.666],[147.209,44.55],[147.021,44.507],[146.948,44.408],[146.84,44.415],[146.846,44.476],[147.153,44.673],[147.111,44.793],[147.479,44.974],[147.504,45.043],[147.656,45.075],[147.763,45.189],[147.894,45.223],[147.856,45.356],[147.932,45.421],[148.0,45.273],[148.069,45.248],[148.321,45.27],[148.7,45.52],[148.856,45.474],[148.825,45.334],[148.582,45.316],[148.265,45.213],[147.868,44.971],[147.762,44.938]]],[[[146.599,43.793],[146.842,43.874],[146.904,43.839],[146.655,43.704],[146.598,43.732],[146.599,43.793]]],[[[146.102,44.243],[145.93,44.119],[145.779,43.928],[145.595,43.858],[145.554,43.65],[145.437,43.716],[145.409,43.835],[145.744,44.051],[146.127,44.507],[146.344,44.421],[146.568,44.438],[146.508,44.358],[146.102,44.243]]],[[[146.205,43.481],[146.124,43.459],[146.08,43.518],[146.226,43.525],[146.205,43.481]]],[[[141.721,42.539],[141.396,42.519],[140.929,42.255],[140.86,42.39],[140.693,42.55],[140.54,42.537],[140.349,42.432],[140.324,42.376],[140.315,42.334],[140.327,42.293],[140.417,42.201],[140.528,42.132],[140.578,42.119],[140.684,42.123],[140.734,42.116],[140.912,41.978],[141.108,41.848],[141.151,41.805],[141.109,41.779],[141.155,41.749],[140.979,41.652],[140.588,41.677],[140.268,41.324],[140.112,41.273],[140.012,41.381],[139.977,41.503],[140.002,41.551],[139.995,41.576],[140.021,41.696],[140.084,41.803],[140.106,41.902],[140.1,41.937],[140.098,41.946],[139.852,42.035],[139.777,42.112],[139.711,42.477],[139.859,42.575],[139.86,42.582],[139.891,42.649],[139.951,42.671],[140.015,42.685],[140.115,42.733],[140.224,42.796],[140.329,42.867],[140.432,42.954],[140.486,43.05],[140.407,43.154],[140.373,43.185],[140.389,43.202],[140.379,43.237],[140.392,43.303],[140.487,43.338],[140.544,43.323],[140.598,43.326],[140.736,43.237],[140.781,43.215],[140.819,43.205],[140.954,43.201],[141.138,43.18],[141.245,43.185],[141.296,43.2],[141.303,43.206],[141.301,43.72],[141.511,43.82],[141.601,43.919],[141.645,44.019],[141.661,44.264],[141.716,44.371],[141.734,44.416],[141.745,44.628],[141.566,44.969],[141.522,45.182],[141.597,45.279],[141.615,45.289],[141.653,45.349],[141.654,45.377],[141.668,45.401],[141.778,45.419],[141.829,45.439],[141.879,45.483],[141.938,45.51],[141.981,45.483],[142.0,45.459],[142.0,45.329],[143.02,44.463],[143.79,44.027],[144.613,43.842],[144.75,43.881],[145.139,44.178],[145.347,44.243],[145.059,43.785],[145.448,43.169],[144.994,42.937],[144.754,42.866],[144.59,42.859],[144.37,42.949],[144.166,42.942],[144.002,42.877],[143.508,42.42],[143.33,42.196],[143.213,41.926],[143.033,41.958],[142.0,42.466],[141.928,42.501],[141.721,42.539]]],[[[141.598,52.216],[141.811,52.628],[141.84,52.96],[141.689,53.165],[141.767,53.272],[141.828,53.276],[141.824,53.34],[141.852,53.389],[141.964,53.456],[142.0,53.464],[142.0,53.286],[142.214,53.299],[142.674,53.54],[142.863,53.34],[143.056,53.061],[143.138,52.856],[143.143,52.511],[143.033,52.312],[142.944,51.961],[142.943,51.617],[143.074,51.267],[143.34,50.885],[143.633,50.234],[144.038,49.508],[144.539,48.753],[143.598,49.233],[143.152,49.258],[142.853,49.127],[142.646,48.657],[142.489,47.901],[142.614,47.459],[142.993,46.953],[143.236,46.863],[143.444,46.571],[143.303,46.011],[143.004,46.577],[142.614,46.712],[142.513,46.699],[142.327,46.563],[142.0,46.068],[142.0,45.977],[141.963,46.012],[141.898,45.914],[141.708,46.139],[141.622,46.558],[141.909,47.073],[141.731,47.471],[141.81,47.675],[142.0,47.914],[142.036,47.959],[142.0,48.157],[141.977,48.284],[141.739,48.807],[141.921,48.943],[142.0,49.197],[142.049,49.354],[142.152,50.89],[142.112,51.219],[142.016,51.43],[142.0,51.446],[141.643,51.813],[141.598,52.216]]],[[[140.875,52.175],[140.75,52.275],[140.65,52.525],[140.625,52.525],[140.625,52.65],[140.725,52.725],[141.05,52.775],[141.259,52.775],[141.266,52.653],[141.245,52.55],[141.166,52.47],[141.15,52.475],[141.15,52.454],[141.132,52.436],[141.15,52.404],[141.15,52.4],[141.152,52.401],[141.17,52.368],[141.33,52.271],[141.409,52.234],[141.485,52.179],[141.386,52.057],[141.367,51.921],[141.258,51.861],[141.129,51.728],[141.1,51.712],[141.1,51.725],[141.0,51.95],[140.9,52.0],[140.875,52.175]]]]}},{"type":"Feature","properties":{"name":"Karasuk culture","name_zh":"","focus":false,"label":[75.07,47.93],"area":440.7,"color":"#9a8a4a"},"geometry":{"type":"Polygon","coordinates":[[[71.575,55.55],[71.775,55.575],[71.975,55.65],[72.6,55.8],[72.7,56.0],[74.439,56.0],[78.362,56.41],[93.7,56.484],[96.048,56.0],[96.6,56.0],[96.625,55.6],[96.85,55.575],[96.95,55.4],[97.275,55.4],[97.525,55.25],[97.65,55.3],[97.95,55.35],[98.0,55.4],[98.15,55.35],[98.175,55.2],[98.4,55.025],[98.55,54.85],[98.675,54.8],[98.9,54.775],[99.075,54.875],[99.125,54.875],[99.175,54.725],[99.275,54.675],[99.25,54.5],[99.2,54.5],[99.2,54.3],[99.25,54.275],[99.225,53.95],[99.275,53.85],[99.45,53.825],[99.525,53.675],[99.525,53.375],[99.325,53.325],[99.2,53.15],[99.25,52.975],[99.4,52.85],[99.775,52.875],[99.775,52.65],[99.95,52.625],[100.025,52.5],[99.9,52.45],[99.925,52.35],[100.025,52.3],[100.025,52.175],[99.9,52.15],[99.725,52.025],[99.325,51.975],[99.175,52.05],[99.05,51.85],[98.925,51.775],[98.925,51.65],[98.85,51.625],[98.825,51.475],[98.725,51.475],[98.8,51.225],[98.6,51.075],[98.525,50.95],[98.375,51.075],[98.2,51.025],[97.925,51.0],[97.675,51.125],[97.65,51.025],[97.525,50.975],[97.5,50.75],[97.425,50.625],[97.425,50.425],[97.25,50.375],[97.175,50.25],[97.05,50.175],[97.0,50.225],[96.8,50.225],[96.75,50.325],[96.625,50.325],[96.55,50.425],[96.225,50.4],[96.05,50.35],[95.9,50.5],[95.55,50.525],[95.225,50.325],[95.05,50.325],[94.925,50.4],[94.625,50.375],[94.4,50.3],[94.275,50.375],[94.0,50.375],[93.9,50.15],[93.825,49.9],[93.775,49.85],[93.75,49.525],[93.375,49.625],[92.825,49.625],[92.575,49.65],[92.35,49.725],[92.125,49.65],[91.925,49.525],[91.725,49.525],[91.775,49.45],[91.75,49.3],[91.75,48.8],[91.45,48.825],[91.375,48.725],[91.15,48.7],[91.025,48.625],[90.75,48.625],[90.725,48.475],[90.6,48.375],[90.65,48.05],[90.45,47.85],[90.35,47.7],[90.125,47.95],[89.975,47.925],[89.575,47.925],[89.5,48.025],[89.35,48.05],[89.125,48.35],[88.9,48.25],[88.675,48.2],[88.625,48.275],[88.475,48.275],[88.45,48.075],[88.25,47.875],[88.25,47.75],[88.15,47.5],[88.05,47.425],[88.025,47.325],[87.725,47.45],[87.425,47.45],[87.325,47.575],[87.025,47.575],[86.975,47.475],[86.85,47.4],[86.8,47.2],[86.6,47.05],[85.275,47.05],[85.15,47.025],[85.0,46.8],[84.725,46.8],[84.6,46.675],[84.525,46.525],[84.45,46.5],[84.45,46.175],[84.425,45.975],[84.125,45.875],[84.05,45.8],[83.825,45.725],[83.65,45.6],[83.5,45.55],[83.25,45.525],[83.25,45.075],[83.075,44.675],[82.975,44.6],[82.9,44.425],[82.9,44.075],[82.725,44.1],[82.275,44.1],[82.1,44.225],[81.875,44.225],[81.625,44.425],[81.45,44.5],[81.175,44.475],[81.0,44.525],[80.875,44.7],[80.6,44.7],[80.725,44.55],[80.75,44.45],[80.75,44.0],[80.725,43.825],[80.775,43.75],[80.775,43.475],[80.9,43.3],[80.6,43.275],[80.5,43.225],[80.5,43.075],[80.575,42.9],[80.575,42.55],[80.525,42.525],[80.55,42.3],[80.4,42.15],[79.875,42.125],[79.625,42.275],[79.525,42.25],[78.975,42.25],[78.9,42.15],[78.825,42.15],[78.7,42.1],[78.45,42.1],[78.35,41.95],[78.25,41.9],[77.8,41.875],[77.75,41.8],[77.475,41.725],[77.15,41.525],[76.95,41.5],[76.875,41.4],[76.675,41.4],[76.525,41.35],[76.2,41.35],[76.15,41.425],[75.825,41.425],[75.825,41.475],[75.625,41.65],[75.45,41.65],[75.3,41.775],[74.95,41.8],[74.775,41.7],[74.65,41.7],[74.65,41.85],[74.575,42.1],[74.45,42.225],[74.15,42.2],[73.975,41.975],[73.8,42.0],[73.5,42.175],[73.475,42.275],[73.35,42.3],[73.275,42.2],[72.95,42.175],[72.8,42.225],[72.7,42.175],[72.35,42.175],[72.275,42.05],[71.8,42.05],[71.475,41.9],[71.325,41.75],[71.15,41.75],[71.025,41.625],[70.9,41.6],[70.8,41.425],[70.525,41.425],[70.3,41.2],[70.15,41.15],[70.0,41.225],[70.0,41.743],[63.596,41.314],[60.0,41.949],[60.0,56.229],[65.311,55.046],[70.0,55.536],[70.0,55.425],[70.375,55.45],[70.725,55.525],[71.0,55.55],[71.575,55.55]]]}},{"type":"Feature","properties":{"name":"Iranian pastoralists","name_zh":"","focus":false,"label":[64.87,34.17],"area":170.3,"color":"#7d6b5a"},"geometry":{"type":"Polygon","coordinates":[[[70.8,41.425],[70.9,41.6],[71.025,41.625],[71.15,41.75],[71.325,41.75],[71.475,41.9],[71.8,42.05],[72.275,42.05],[72.35,42.175],[72.7,42.175],[72.8,42.225],[72.95,42.175],[73.275,42.2],[73.35,42.3],[73.475,42.275],[73.5,42.175],[73.8,42.0],[73.975,41.975],[74.15,42.2],[74.45,42.225],[74.575,42.1],[74.65,41.85],[74.65,41.7],[74.775,41.7],[74.95,41.8],[75.3,41.775],[75.45,41.65],[75.625,41.65],[75.825,41.475],[75.825,41.425],[76.15,41.425],[76.2,41.35],[76.525,41.35],[76.675,41.4],[76.875,41.4],[76.95,41.5],[77.15,41.525],[77.475,41.725],[77.75,41.8],[77.8,41.875],[78.25,41.9],[78.35,41.95],[78.45,42.1],[78.7,42.1],[78.825,42.15],[78.875,42.15],[78.95,42.075],[79.025,41.725],[78.95,41.675],[78.875,41.4],[78.825,41.375],[78.95,41.2],[78.95,40.95],[79.2,40.95],[79.4,40.875],[79.375,40.5],[79.2,40.275],[79.1,40.2],[79.1,39.8],[79.05,39.8],[78.925,39.625],[78.7,39.625],[78.65,39.575],[78.475,39.575],[78.475,39.475],[78.3,39.275],[78.175,39.05],[78.0,39.0],[77.85,38.825],[77.85,38.65],[77.625,38.25],[77.575,38.05],[77.3,37.775],[77.1,37.675],[76.95,37.525],[76.85,37.325],[76.725,37.225],[76.65,37.075],[76.475,37.1],[76.425,37.275],[76.35,37.35],[76.225,37.3],[76.2,37.125],[76.125,37.05],[76.15,36.825],[76.25,36.725],[76.375,36.7],[76.475,36.55],[76.45,36.3],[76.4,36.3],[76.275,36.175],[76.2,36.225],[76.0,36.25],[75.925,36.325],[75.725,36.4],[75.7,36.575],[75.3,36.625],[75.275,36.725],[75.125,36.775],[75.125,36.9],[74.775,36.9],[74.475,36.975],[74.425,36.9],[74.3,36.875],[74.25,36.725],[74.125,36.725],[73.95,36.625],[73.85,36.75],[73.675,36.75],[73.575,36.7],[73.15,36.7],[73.15,36.725],[73.1,36.725],[73.075,36.875],[72.675,36.875],[72.6,36.9],[72.475,36.8],[72.325,36.8],[72.175,36.675],[72.125,36.575],[71.925,36.5],[71.9,36.4],[71.625,36.425],[71.575,36.275],[71.45,36.175],[71.325,36.175],[71.25,36.05],[71.175,36.05],[71.125,35.875],[71.05,35.825],[71.0,35.675],[70.85,35.575],[70.6,35.575],[70.525,35.675],[70.25,35.65],[70.2,35.575],[70.0,35.5],[70.0,34.409],[68.963,33.467],[69.105,33.254],[64.773,29.675],[64.064,25.393],[63.65,25.336],[63.403,25.164],[62.449,25.162],[61.813,25.053],[61.343,25.026],[60.858,25.095],[60.479,25.298],[60.0,25.322],[60.0,41.949],[63.596,41.314],[70.0,41.743],[70.0,41.225],[70.15,41.15],[70.3,41.2],[70.525,41.425],[70.8,41.425]]]}},{"type":"Feature","properties":{"name":"Gandhara grave culture","name_zh":"","focus":false,"label":[71.79,34.19],"area":17.4,"color":"#7d6b5a"},"geometry":{"type":"Polygon","coordinates":[[[70.525,35.675],[70.6,35.575],[70.85,35.575],[71.0,35.675],[71.05,35.825],[71.125,35.875],[71.175,36.05],[71.25,36.05],[71.325,36.175],[71.45,36.175],[71.575,36.275],[71.625,36.425],[71.9,36.4],[71.925,36.5],[72.125,36.575],[72.175,36.675],[72.325,36.8],[72.475,36.8],[72.6,36.9],[72.675,36.875],[73.075,36.875],[73.1,36.725],[73.125,36.725],[73.0,36.5],[73.0,36.325],[72.875,36.275],[72.9,36.2],[72.875,35.95],[73.1,35.95],[73.15,36.025],[73.65,36.025],[73.75,35.9],[73.925,35.775],[73.9,35.5],[73.775,35.55],[73.55,35.525],[73.525,35.325],[73.65,35.275],[73.725,35.1],[73.875,35.075],[73.925,34.95],[74.0,34.925],[74.025,34.55],[73.975,34.525],[73.975,34.35],[74.025,34.175],[74.2,34.025],[74.4,33.95],[74.525,33.75],[74.575,33.6],[74.375,33.6],[74.25,33.5],[74.225,33.15],[74.15,32.95],[74.05,32.825],[73.975,32.625],[74.0,32.425],[73.8,32.4],[73.625,32.325],[73.575,32.25],[73.4,32.225],[73.3,32.075],[73.275,32.075],[73.1,31.85],[72.925,31.875],[72.625,31.975],[72.5,32.125],[72.325,32.1],[72.25,31.975],[71.675,31.975],[71.45,32.1],[71.125,32.1],[71.0,31.925],[70.7,32.05],[70.4,32.225],[70.2,32.3],[70.0,32.5],[70.0,32.472],[69.343,32.896],[68.963,33.467],[70.0,34.409],[70.0,35.5],[70.2,35.575],[70.25,35.65],[70.525,35.675]]]}},{"type":"Feature","properties":{"name":"Western Zhou realm","name_zh":"西周","focus":true,"label":[111.69,33.67],"area":125.6},"geometry":{"type":"Polygon","coordinates":[[[103.2,28.25],[103.2,28.45],[103.15,28.575],[103.0,28.6],[103.0,28.825],[102.95,28.925],[102.95,29.425],[102.375,29.45],[102.325,29.575],[102.35,29.575],[102.65,29.875],[102.875,29.975],[103.375,30.15],[103.5,30.225],[103.75,30.5],[103.775,30.6],[103.95,30.875],[103.925,31.275],[103.8,31.425],[103.975,31.625],[103.9,31.775],[103.9,31.925],[103.75,31.975],[103.775,32.15],[103.625,32.225],[103.675,32.525],[103.725,32.525],[103.75,32.8],[103.825,32.925],[103.775,33.025],[103.675,33.025],[103.6,33.125],[103.6,33.35],[103.775,33.45],[103.775,33.525],[103.925,33.65],[104.025,33.625],[104.15,33.575],[104.2,33.45],[104.4,33.475],[104.525,33.375],[104.65,33.45],[104.75,33.6],[104.85,33.55],[105.075,33.55],[105.175,33.6],[105.3,33.825],[105.5,33.95],[105.625,33.95],[105.9,34.175],[105.975,34.35],[106.0,34.525],[106.15,34.55],[106.15,34.65],[106.25,34.65],[106.25,34.75],[106.375,34.925],[106.35,35.225],[106.225,35.475],[106.525,35.475],[106.7,35.55],[106.975,35.5],[107.075,35.575],[107.25,35.575],[107.475,35.4],[107.675,35.4],[107.675,35.45],[107.9,35.45],[108.025,35.525],[108.225,35.475],[108.425,35.5],[108.55,35.575],[108.55,35.925],[108.5,35.95],[108.475,36.25],[108.55,36.375],[108.875,36.35],[108.9,36.475],[109.225,36.475],[109.475,36.35],[109.575,36.35],[109.75,36.125],[110.05,36.225],[110.15,36.375],[110.45,36.375],[110.475,36.6],[110.4,36.65],[110.4,36.975],[110.5,37.1],[110.7,37.025],[110.825,36.875],[111.075,36.925],[111.125,37.075],[111.575,37.55],[111.55,37.75],[111.55,38.075],[111.475,38.175],[111.475,38.325],[111.575,38.375],[111.6,38.5],[111.8,38.525],[111.925,38.725],[112.15,38.85],[112.225,38.975],[112.425,39.075],[112.35,39.175],[112.375,39.275],[112.475,39.325],[112.45,39.55],[112.525,39.65],[112.65,39.65],[112.775,39.85],[113.025,39.975],[113.3,39.975],[113.325,40.025],[113.75,40.05],[113.8,40.125],[113.925,40.15],[113.775,40.375],[113.75,40.55],[113.85,40.55],[113.9,40.675],[114.05,40.775],[114.05,40.9],[114.2,41.075],[114.75,41.1],[114.975,41.225],[115.325,41.225],[115.325,41.125],[115.45,40.925],[115.55,40.925],[115.675,40.825],[115.9,40.875],[116.125,40.775],[116.175,40.65],[116.425,40.525],[116.775,40.525],[116.95,40.425],[117.125,40.425],[117.175,40.35],[117.35,40.35],[117.45,40.45],[117.525,40.4],[117.875,40.425],[118.05,40.175],[118.175,40.075],[118.375,40.0],[118.375,39.825],[118.475,39.575],[118.575,39.5],[118.625,39.3],[118.625,39.17],[118.61,39.171],[118.472,39.118],[118.468,39.117],[118.274,38.999],[118.107,39.207],[118.041,39.227],[117.866,39.191],[117.785,39.134],[117.617,38.853],[117.554,38.691],[117.558,38.625],[117.656,38.424],[117.767,38.312],[118.015,38.183],[118.543,38.095],[118.667,38.126],[118.8,38.127],[118.909,38.061],[118.95,38.0],[118.967,38.0],[119.028,37.904],[119.036,37.809],[119.038,37.777],[119.07,37.749],[119.089,37.701],[119.033,37.661],[118.991,37.641],[118.955,37.494],[118.954,37.4],[118.9,37.4],[118.95,37.225],[119.026,37.259],[119.112,37.201],[119.175,37.179],[119.175,37.125],[119.3,37.075],[119.31,37.136],[119.45,37.125],[119.637,37.143],[119.881,37.311],[119.883,37.351],[120.004,37.415],[120.169,37.576],[120.311,37.623],[120.287,37.656],[120.257,37.679],[120.285,37.692],[120.37,37.701],[120.75,37.834],[121.049,37.725],[121.22,37.6],[121.388,37.579],[121.505,37.515],[121.64,37.46],[121.816,37.457],[121.965,37.445],[122.01,37.496],[122.057,37.529],[122.11,37.522],[122.169,37.456],[122.338,37.405],[122.493,37.408],[122.602,37.426],[122.667,37.403],[122.573,37.318],[122.587,37.181],[122.516,37.138],[122.447,37.068],[122.487,37.022],[122.523,37.003],[122.52,36.947],[122.457,36.915],[122.341,36.832],[122.274,36.834],[122.266,36.838],[122.255,36.733],[121.846,36.86],[121.682,36.842],[121.67,36.836],[121.413,36.738],[121.144,36.66],[121.054,36.611],[120.99,36.598],[120.944,36.613],[120.855,36.584],[120.839,36.574],[120.883,36.539],[120.905,36.485],[120.896,36.444],[120.847,36.426],[120.776,36.456],[120.712,36.413],[120.682,36.341],[120.681,36.168],[120.638,36.13],[120.519,36.109],[120.509,36.104],[120.504,36.055],[120.281,35.989],[120.285,35.984],[120.219,35.935],[120.055,35.861],[120.032,35.809],[119.95,35.85],[119.7,35.85],[119.375,35.675],[119.225,35.65],[119.225,35.475],[119.075,35.325],[119.075,35.15],[118.9,34.975],[118.875,34.825],[118.725,34.675],[118.625,34.65],[118.425,34.35],[118.25,34.2],[118.225,34.1],[118.05,33.925],[117.9,33.625],[117.725,33.475],[117.575,33.3],[117.575,33.075],[117.525,32.975],[117.2,32.95],[117.075,32.675],[116.75,32.65],[116.65,32.525],[116.625,32.3],[116.55,32.2],[116.5,32.025],[116.375,31.925],[116.325,31.8],[116.225,31.6],[116.05,31.4],[116.05,31.275],[115.75,31.275],[115.65,31.475],[115.5,31.525],[115.4,31.425],[115.275,31.45],[115.2,31.575],[114.825,31.55],[114.7,31.575],[114.7,31.45],[114.525,31.25],[114.4,31.225],[114.4,30.95],[114.3,30.775],[114.325,30.6],[114.225,30.45],[114.0,30.225],[114.05,30.075],[113.9,30.025],[113.825,29.925],[113.6,29.85],[113.6,29.575],[113.35,29.475],[113.225,29.525],[113.075,29.425],[112.975,29.075],[112.8,28.925],[112.475,28.975],[112.275,28.975],[112.175,29.1],[112.0,29.125],[111.9,29.025],[111.525,29.025],[111.375,28.8],[111.25,28.775],[111.2,28.85],[111.0,28.825],[111.025,29.0],[110.9,29.05],[110.825,29.15],[110.675,29.075],[110.425,29.025],[110.375,29.3],[110.25,29.425],[110.25,29.8],[110.125,29.875],[110.175,30.05],[110.075,30.1],[109.85,30.05],[109.775,29.85],[109.475,29.825],[109.275,29.775],[109.225,29.9],[109.1,29.925],[109.025,30.025],[108.875,30.025],[108.75,29.875],[108.775,29.725],[108.725,29.675],[108.775,29.375],[108.625,29.3],[108.525,29.35],[108.4,29.05],[108.325,29.05],[108.125,28.9],[108.15,28.7],[108.075,28.65],[108.025,28.375],[107.925,28.25],[107.65,28.25],[107.525,28.05],[107.475,27.875],[107.55,27.825],[107.425,27.525],[107.375,27.525],[107.375,27.325],[107.175,27.3],[107.175,27.35],[106.975,27.35],[106.95,27.275],[106.75,27.3],[106.425,27.175],[106.325,27.075],[106.075,27.075],[105.925,27.25],[105.55,27.25],[105.4,27.175],[105.4,27.1],[105.225,27.2],[105.15,27.3],[104.925,27.2],[104.825,27.075],[104.775,27.225],[104.525,27.275],[104.375,27.4],[104.25,27.4],[104.1,27.325],[104.075,27.225],[103.85,27.2],[103.825,27.4],[103.625,27.475],[103.55,27.625],[103.325,27.65],[103.325,27.85],[103.125,27.9],[103.1,28.225],[103.2,28.25]],[[120.117,36.15],[120.094,36.119],[120.181,36.017],[120.254,36.009],[120.15,36.176],[120.117,36.15]]]}}],"snapped":true}