{"type":"FeatureCollection","features":[{"type":"Feature","properties":{"focus":false,"kind":"state","approx":true,"color":"#4f8f86","name":"Di peoples","name_zh":"狄","label":[116.94,38.27],"area":2.0},"geometry":{"type":"Polygon","coordinates":[[[116.45,38.975],[116.775,39.0],[117.0,38.875],[117.45,38.875],[117.597,38.772],[117.554,38.691],[117.558,38.625],[117.656,38.424],[117.767,38.312],[118.015,38.184],[118.035,38.18],[118.056,38.176],[117.9,37.825],[117.8,37.675],[117.775,37.5],[117.7,37.375],[117.525,37.45],[117.275,37.45],[117.175,37.525],[116.9,37.65],[116.6,37.875],[116.4,37.95],[116.375,38.0],[116.125,38.1],[116.05,38.2],[116.075,38.4],[116.175,38.575],[116.25,38.825],[116.45,38.975]]]}},{"type":"Feature","properties":{"focus":false,"kind":"state","approx":true,"color":"#a3727a","name":"Xiongnu","name_zh":"匈奴","label":[117.16,42.19],"area":3.4},"geometry":{"type":"Polygon","coordinates":[[[116.925,43.075],[117.0,43.125],[117.05,43.275],[117.225,43.45],[117.325,43.45],[117.45,43.6],[117.55,43.6],[117.675,43.5],[117.725,43.375],[117.975,43.4],[117.975,43.275],[118.075,43.275],[118.1,43.15],[118.1,42.775],[117.95,42.7],[117.9,42.6],[118.0,42.425],[117.975,42.275],[118.075,42.2],[118.125,42.025],[118.3,42.0],[118.325,41.8],[118.275,41.75],[118.2,41.75],[118.05,41.625],[117.85,41.525],[117.85,41.475],[117.55,41.575],[117.525,41.5],[117.4,41.45],[117.35,41.35],[117.175,41.35],[117.1,41.4],[116.725,41.4],[116.725,41.475],[116.45,41.55],[116.4,41.625],[116.15,41.65],[116.125,41.775],[116.0,41.875],[116.025,42.1],[115.975,42.175],[115.975,42.45],[116.075,42.575],[116.275,42.85],[116.55,42.85],[116.875,42.925],[116.925,43.075]]]}},{"type":"Feature","properties":{"focus":false,"kind":"state","approx":true,"color":"#6f9460","name":"Donghu","name_zh":"东胡","label":[119.59,42.43],"area":7.4},"geometry":{"type":"Polygon","coordinates":[[[121.1,42.575],[120.9,42.575],[120.7,42.35],[120.625,42.35],[120.5,42.225],[120.5,42.125],[120.325,42.0],[120.15,41.975],[120.1,41.65],[120.225,41.475],[120.225,41.275],[120.175,41.15],[120.05,41.05],[120.025,40.875],[119.9,40.825],[119.75,40.675],[119.575,40.675],[119.55,40.85],[119.425,40.975],[119.275,40.975],[119.125,41.125],[119.0,41.125],[118.9,41.2],[118.475,41.325],[118.45,41.6],[118.3,41.75],[118.275,41.75],[118.325,41.8],[118.3,42.0],[118.125,42.025],[118.075,42.2],[117.975,42.275],[118.0,42.425],[117.9,42.6],[117.95,42.7],[118.1,42.775],[118.1,43.15],[118.075,43.275],[117.975,43.275],[117.975,43.4],[118.025,43.55],[118.175,43.6],[118.725,44.175],[118.725,44.375],[118.95,44.45],[118.975,44.55],[119.075,44.575],[119.225,44.375],[119.425,44.325],[119.475,44.15],[119.6,44.125],[119.65,44.05],[119.8,44.0],[119.925,43.85],[120.125,43.75],[120.275,43.625],[120.275,43.55],[120.4,43.4],[120.75,43.4],[120.825,43.475],[121.125,43.5],[121.2,43.3],[121.45,43.075],[121.45,42.875],[121.375,42.7],[121.175,42.65],[121.1,42.575]]]}},{"type":"Feature","properties":{"focus":false,"kind":"state","approx":true,"color":"#9a8a4a","name":"Man peoples","name_zh":"蛮","label":[109.87,29.26],"area":3.8},"geometry":{"type":"Polygon","coordinates":[[[108.736,29.095],[108.797,29.434],[109.845,30.613],[111.022,29.75],[110.79,27.712],[108.736,29.095]]]}},{"type":"Feature","properties":{"focus":false,"kind":"state","approx":true,"color":"#7272a8","name":"Baiyue","name_zh":"百越","label":[116.94,26.29],"area":29.5},"geometry":{"type":"MultiPolygon","coordinates":[[[[113.65,25.55],[113.775,25.55],[113.875,25.85],[113.925,25.875],[113.925,26.075],[114.0,26.15],[114.0,26.325],[114.125,26.55],[114.225,26.625],[114.55,26.65],[114.7,26.575],[114.775,26.625],[114.825,26.775],[115.0,26.8],[115.0,26.975],[115.175,26.925],[115.275,26.75],[115.375,26.75],[115.525,26.85],[115.75,26.85],[116.0,27.075],[116.2,27.075],[116.325,27.225],[116.35,27.1],[116.5,27.025],[116.7,26.825],[116.7,26.75],[116.9,26.7],[117.1,26.825],[117.3,26.8],[117.375,26.9],[117.65,26.975],[117.75,26.825],[117.975,26.725],[118.05,26.65],[118.15,26.8],[118.325,26.8],[118.55,26.85],[118.6,26.825],[118.7,26.975],[118.95,27.025],[119.15,27.125],[119.275,27.125],[119.325,27.225],[119.325,27.45],[119.375,27.525],[119.625,27.525],[119.65,27.475],[119.975,27.45],[119.95,27.175],[120.15,27.175],[120.175,27.225],[120.35,27.225],[120.401,27.174],[120.388,27.159],[120.385,27.156],[120.384,27.155],[120.276,27.092],[120.164,26.924],[120.139,26.886],[120.136,26.879],[120.087,26.676],[120.087,26.672],[120.043,26.634],[119.968,26.586],[119.967,26.586],[119.882,26.61],[119.852,26.688],[119.842,26.689],[119.821,26.737],[119.817,26.777],[119.804,26.811],[119.769,26.78],[119.767,26.775],[119.715,26.732],[119.71,26.728],[119.593,26.761],[119.62,26.682],[119.624,26.676],[119.63,26.65],[119.639,26.625],[119.714,26.611],[119.726,26.609],[119.785,26.547],[119.831,26.45],[119.835,26.434],[119.849,26.404],[119.876,26.371],[119.881,26.334],[119.692,26.236],[119.567,26.127],[119.47,26.059],[119.463,26.054],[119.452,26.055],[119.37,26.054],[119.319,26.062],[119.313,26.062],[119.192,26.111],[119.171,26.091],[119.248,25.993],[119.262,25.976],[119.332,25.949],[119.418,25.955],[119.5,26.009],[119.501,26.009],[119.619,26.004],[119.648,25.919],[119.617,25.823],[119.556,25.704],[119.553,25.698],[119.54,25.595],[119.549,25.574],[119.619,25.437],[119.622,25.391],[119.593,25.368],[119.592,25.368],[119.588,25.37],[119.499,25.409],[119.444,25.445],[119.419,25.458],[119.41,25.458],[119.344,25.446],[119.319,25.453],[119.177,25.446],[119.149,25.411],[119.159,25.381],[119.169,25.357],[119.171,25.355],[119.244,25.307],[119.286,25.232],[119.281,25.23],[119.235,25.205],[118.974,25.205],[118.966,25.194],[118.917,25.128],[118.946,25.034],[118.956,25.005],[118.942,24.983],[118.909,24.928],[118.726,24.859],[118.708,24.85],[118.69,24.846],[118.644,24.829],[118.681,24.788],[118.692,24.782],[118.719,24.746],[118.657,24.621],[118.655,24.621],[118.56,24.58],[118.412,24.6],[118.295,24.572],[118.195,24.625],[118.093,24.626],[118.021,24.567],[118.014,24.56],[118.006,24.482],[117.935,24.474],[117.897,24.48],[117.843,24.474],[117.848,24.432],[117.879,24.396],[118.024,24.38],[118.051,24.327],[118.056,24.246],[117.904,24.106],[117.839,24.012],[117.742,24.015],[117.668,23.939],[117.628,23.837],[117.579,23.857],[117.466,23.841],[117.433,23.792],[117.46,23.771],[117.462,23.736],[117.417,23.621],[117.368,23.589],[117.347,23.636],[117.331,23.709],[117.291,23.714],[117.225,23.647],[117.148,23.599],[117.083,23.579],[117.033,23.623],[116.911,23.647],[116.861,23.453],[116.76,23.383],[116.712,23.36],[116.629,23.354],[116.682,23.327],[116.699,23.278],[116.669,23.228],[116.586,23.218],[116.538,23.18],[116.52,23.007],[116.471,22.946],[116.346,22.941],[116.252,22.981],[116.222,22.95],[116.206,22.919],[116.157,22.887],[116.063,22.879],[115.852,22.802],[115.756,22.824],[115.64,22.853],[115.561,22.825],[115.546,22.791],[115.5,22.975],[115.35,23.1],[115.075,22.975],[114.8,23.2],[114.6,23.2],[114.575,23.3],[114.425,23.325],[114.425,23.4],[114.25,23.475],[114.25,23.65],[114.125,23.85],[114.075,24.075],[114.175,24.125],[114.2,24.25],[113.875,24.55],[113.8,24.55],[113.65,24.375],[113.55,24.4],[113.575,24.55],[113.5,24.625],[113.525,24.775],[113.3,24.8],[113.2,25.025],[113.2,25.1],[113.4,25.3],[113.45,25.4],[113.65,25.55]]],[[[119.778,25.653],[119.78,25.65],[119.815,25.614],[119.829,25.607],[119.838,25.591],[119.839,25.56],[119.816,25.52],[119.813,25.51],[119.829,25.483],[119.832,25.48],[119.821,25.457],[119.748,25.411],[119.746,25.41],[119.7,25.432],[119.7,25.434],[119.699,25.495],[119.719,25.54],[119.72,25.548],[119.696,25.59],[119.696,25.591],[119.717,25.629],[119.722,25.638],[119.723,25.639],[119.772,25.652],[119.777,25.653],[119.778,25.653]]],[[[118.102,24.551],[118.103,24.552],[118.104,24.552],[118.171,24.519],[118.183,24.496],[118.15,24.436],[118.091,24.446],[118.089,24.489],[118.077,24.501],[118.093,24.541],[118.102,24.551]]],[[[105.175,27.375],[105.275,27.55],[105.45,27.675],[105.475,27.775],[105.675,27.95],[105.9,27.9],[106.1,27.975],[106.225,28.175],[106.25,28.325],[106.525,28.35],[106.6,28.2],[106.725,28.225],[106.825,28.125],[107.075,28.175],[107.25,28.35],[107.65,28.325],[107.775,28.4],[107.825,28.525],[108.0,28.5],[107.95,28.3],[108.025,28.225],[108.025,28.1],[107.925,28.05],[107.8,27.85],[107.775,27.7],[107.775,27.3],[107.625,27.15],[107.575,27.0],[107.425,26.825],[107.375,26.675],[107.4,26.45],[107.5,26.225],[107.675,26.175],[107.825,26.4],[108.15,26.325],[108.125,26.0],[107.85,26.0],[107.7,25.825],[107.7,25.525],[107.625,25.4],[107.625,25.225],[107.7,25.175],[107.7,25.0],[107.525,24.85],[107.525,24.5],[107.425,24.525],[107.3,24.65],[107.3,24.8],[107.225,24.875],[107.1,24.825],[107.075,24.725],[106.95,24.675],[106.875,24.525],[106.75,24.525],[106.7,24.425],[106.55,24.475],[106.2,24.475],[106.025,24.325],[105.7,24.3],[105.475,24.35],[105.325,24.45],[105.225,24.625],[104.95,24.625],[104.925,24.7],[104.8,24.7],[104.7,24.9],[104.6,24.925],[104.525,25.025],[104.525,25.225],[104.4,25.325],[104.2,25.325],[104.125,25.375],[104.175,25.675],[104.325,25.8],[104.375,25.925],[104.375,26.25],[104.45,26.375],[104.45,26.5],[104.55,26.575],[104.6,26.725],[104.7,26.8],[104.7,26.9],[104.475,26.975],[104.5,27.2],[104.65,27.2],[104.775,27.3],[105.175,27.375]]]]}},{"type":"Feature","properties":{"focus":true,"kind":"state","approx":true,"color":"#3d3d4f","name":"Qin","name_zh":"秦","label":[112.15,32.41],"area":198.9},"geometry":{"type":"MultiPolygon","coordinates":[[[[102.325,34.15],[101.925,34.15],[101.875,34.275],[101.7,34.35],[101.625,34.475],[101.625,34.725],[101.55,34.775],[101.4,35.05],[101.55,35.15],[101.525,35.275],[101.55,35.55],[101.45,35.65],[101.45,35.825],[101.5,35.875],[101.475,36.05],[101.65,36.15],[101.6,36.325],[101.275,36.35],[101.475,36.55],[101.5,36.925],[101.275,37.025],[101.25,37.425],[101.05,37.475],[101.1,37.7],[101.45,37.725],[101.525,37.625],[101.825,37.525],[102.15,37.525],[102.3,37.425],[102.425,37.275],[102.675,37.175],[102.725,37.1],[103.0,37.225],[103.15,37.225],[103.375,37.475],[103.375,37.625],[103.6,37.875],[103.775,37.925],[104.025,38.175],[104.35,38.175],[104.475,38.2],[104.7,38.15],[104.925,38.225],[105.025,38.15],[105.525,38.15],[105.575,38.225],[105.775,38.3],[105.85,38.475],[105.85,38.675],[105.9,38.825],[106.1,39.0],[106.3,38.8],[106.575,38.7],[106.6,38.8],[106.85,39.0],[106.825,39.325],[106.75,39.4],[106.775,39.525],[106.9,39.65],[107.075,39.65],[107.175,39.825],[107.375,39.825],[107.5,39.775],[107.75,39.75],[107.8,39.8],[108.05,39.775],[108.275,39.9],[108.55,39.9],[108.7,39.85],[108.75,39.925],[109.025,39.875],[109.125,39.95],[109.375,39.925],[109.5,39.75],[109.625,39.725],[109.725,39.525],[109.775,39.525],[109.9,39.35],[110.05,39.325],[110.1,39.125],[110.25,38.95],[110.35,38.65],[110.45,38.575],[110.55,38.4],[110.675,38.325],[110.775,38.45],[110.85,38.45],[110.9,38.625],[111.4,38.6],[111.575,38.55],[111.7,38.675],[112.125,38.9],[112.175,39.0],[112.275,39.0],[112.475,39.1],[112.65,39.1],[112.775,39.225],[113.025,39.3],[113.375,39.35],[113.525,39.45],[113.725,39.475],[113.925,39.65],[114.1,39.625],[114.25,39.625],[114.225,39.35],[114.4,39.2],[114.425,39.05],[114.6,39.05],[114.65,38.9],[114.75,38.8],[114.875,38.45],[115.0,38.175],[115.175,38.025],[115.2,37.925],[115.225,37.925],[115.175,37.85],[115.175,37.375],[115.2,37.375],[115.2,37.05],[115.125,36.9],[115.125,36.5],[115.1,36.5],[114.975,36.325],[114.725,36.25],[114.7,36.2],[114.35,36.225],[114.35,36.075],[114.425,35.975],[114.475,35.75],[114.525,35.7],[114.675,35.25],[114.85,35.1],[115.05,35.325],[115.075,35.4],[115.25,35.4],[115.5,35.7],[115.675,35.725],[115.75,35.825],[115.875,35.85],[115.9,35.95],[116.05,35.95],[116.125,36.1],[116.5,36.025],[116.575,36.075],[116.875,36.1],[116.975,36.2],[117.05,36.025],[117.325,35.925],[117.45,35.825],[117.8,35.775],[117.95,35.975],[118.125,36.075],[118.125,36.125],[118.325,36.125],[118.4,36.075],[118.725,36.1],[118.85,35.925],[119.1,35.7],[119.125,35.625],[119.325,35.675],[119.35,35.625],[119.65,35.6],[119.697,35.562],[119.526,35.358],[119.429,35.299],[119.4,35.229],[119.353,35.114],[119.352,35.113],[119.214,35.007],[119.166,34.851],[119.185,34.794],[119.197,34.76],[119.346,34.749],[119.351,34.749],[119.427,34.714],[119.583,34.582],[119.594,34.577],[119.957,34.449],[119.964,34.448],[120.201,34.326],[120.267,34.274],[120.323,34.169],[120.379,34.003],[120.493,33.729],[120.5,33.716],[120.502,33.681],[120.506,33.637],[120.616,33.491],[120.622,33.478],[120.868,33.021],[120.871,33.017],[120.897,32.843],[120.889,32.829],[120.853,32.762],[120.853,32.761],[120.856,32.66],[120.903,32.627],[120.99,32.567],[121.293,32.457],[121.342,32.425],[121.401,32.372],[121.402,32.33],[121.407,32.203],[121.412,32.197],[121.481,32.128],[121.491,32.121],[121.674,32.051],[121.751,31.993],[121.832,31.9],[121.856,31.816],[121.866,31.704],[121.866,31.703],[121.86,31.703],[121.764,31.7],[121.683,31.712],[121.68,31.712],[121.35,31.858],[121.145,31.842],[120.973,31.869],[120.789,32.032],[120.525,32.104],[120.184,31.966],[120.096,31.973],[120.07,31.938],[120.194,31.907],[120.195,31.907],[120.488,32.016],[120.497,32.02],[120.716,31.984],[120.752,31.923],[120.778,31.848],[120.792,31.818],[121.05,31.721],[121.055,31.719],[121.205,31.628],[121.351,31.485],[121.661,31.32],[121.786,31.163],[121.834,31.062],[121.878,30.917],[121.801,30.884],[121.769,30.87],[121.528,30.841],[121.473,30.815],[121.419,30.79],[121.31,30.7],[121.309,30.699],[120.999,30.558],[120.904,30.404],[120.897,30.393],[120.88,30.384],[120.821,30.354],[120.536,30.389],[120.447,30.386],[120.269,30.295],[120.271,30.262],[120.35,30.248],[120.455,30.288],[120.494,30.303],[120.495,30.303],[120.503,30.293],[120.562,30.225],[120.2,30.225],[120.125,30.075],[119.875,30.0],[119.625,30.125],[119.325,30.15],[119.275,30.05],[119.15,30.125],[118.975,30.125],[118.675,30.075],[118.625,30.125],[118.35,30.1],[118.275,30.05],[118.125,30.075],[118.025,30.0],[117.925,29.7],[117.825,29.725],[117.75,29.6],[117.65,29.6],[117.575,29.45],[117.5,29.425],[117.475,29.125],[117.55,29.0],[117.5,28.825],[117.35,28.675],[117.4,28.15],[117.6,27.725],[117.525,27.65],[117.525,27.45],[117.475,27.325],[117.6,27.25],[117.575,27.15],[117.65,26.975],[117.375,26.9],[117.3,26.8],[117.1,26.825],[116.9,26.7],[116.7,26.75],[116.7,26.825],[116.5,27.025],[116.35,27.1],[116.325,27.225],[116.2,27.075],[116.0,27.075],[115.75,26.85],[115.525,26.85],[115.375,26.75],[115.275,26.75],[115.175,26.925],[115.0,26.975],[115.0,26.8],[114.825,26.775],[114.775,26.625],[114.7,26.575],[114.55,26.65],[114.225,26.625],[114.125,26.55],[114.0,26.325],[114.0,26.15],[113.925,26.075],[113.925,25.875],[113.875,25.85],[113.775,25.55],[113.65,25.55],[113.45,25.4],[113.4,25.3],[113.2,25.1],[113.2,25.025],[113.05,24.925],[112.925,24.9],[112.4,24.9],[112.25,25.025],[112.25,25.15],[112.175,25.1],[112.0,25.1],[111.975,25.175],[111.8,25.175],[111.6,25.275],[111.5,25.4],[111.325,25.475],[111.175,25.375],[111.125,25.45],[110.975,25.475],[110.975,25.575],[110.825,25.675],[110.875,25.85],[110.675,26.025],[110.475,26.05],[110.225,26.025],[110.225,25.9],[110.125,25.775],[110.05,25.775],[109.925,25.65],[109.9,25.55],[109.625,25.575],[109.425,25.65],[109.375,25.725],[109.15,25.725],[109.025,25.775],[108.675,25.75],[108.65,25.825],[108.525,25.875],[108.15,25.875],[108.125,26.0],[108.15,26.325],[107.825,26.4],[107.675,26.175],[107.5,26.225],[107.4,26.45],[107.375,26.675],[107.425,26.825],[107.575,27.0],[107.625,27.15],[107.775,27.3],[107.775,27.7],[107.8,27.85],[107.925,28.05],[108.025,28.1],[108.025,28.225],[107.95,28.3],[108.0,28.5],[107.825,28.525],[107.775,28.4],[107.65,28.325],[107.25,28.35],[107.075,28.175],[106.825,28.125],[106.725,28.225],[106.6,28.2],[106.525,28.35],[106.25,28.325],[106.225,28.175],[106.1,27.975],[105.9,27.9],[105.675,27.95],[105.475,27.775],[105.45,27.675],[105.275,27.55],[105.175,27.375],[104.775,27.3],[104.65,27.2],[104.5,27.2],[104.475,26.975],[104.2,26.95],[104.125,27.125],[103.975,27.125],[103.8,27.55],[103.625,27.65],[103.375,27.65],[103.3,27.725],[103.3,27.85],[103.0,27.875],[102.9,27.675],[102.775,27.775],[102.725,27.925],[102.5,28.025],[102.325,28.225],[101.9,28.225],[101.9,28.125],[101.75,28.05],[101.675,28.3],[101.675,28.45],[101.575,28.575],[101.375,28.65],[101.425,28.9],[101.375,28.925],[101.325,29.225],[101.525,29.35],[101.525,29.5],[101.75,29.75],[101.7,29.925],[101.7,30.4],[101.725,30.475],[101.65,30.6],[101.65,30.875],[101.575,31.0],[101.625,31.05],[101.625,31.25],[101.725,31.25],[101.75,31.0],[101.9,31.0],[101.975,30.9],[102.175,30.875],[102.25,30.975],[102.25,31.125],[102.35,31.225],[102.35,31.4],[102.625,31.425],[102.65,31.65],[102.85,31.775],[102.8,31.975],[102.7,32.0],[102.7,32.175],[102.75,32.3],[102.975,32.6],[103.05,32.65],[103.35,32.625],[103.475,32.7],[103.6,32.95],[103.525,32.975],[103.475,33.2],[103.35,33.275],[103.3,33.45],[103.175,33.55],[103.15,33.8],[103.075,33.925],[102.925,34.025],[102.95,34.2],[102.725,34.225],[102.6,34.125],[102.475,34.2],[102.325,34.15]],[[102.975,34.225],[102.95,34.225],[102.95,34.2],[102.975,34.225]]],[[[121.78,31.463],[121.519,31.549],[121.336,31.643],[121.331,31.649],[121.227,31.758],[121.211,31.804],[121.211,31.805],[121.339,31.797],[121.464,31.756],[121.478,31.725],[121.492,31.694],[121.494,31.693],[121.542,31.674],[121.576,31.638],[121.728,31.582],[121.808,31.552],[121.844,31.526],[121.863,31.492],[121.862,31.492],[121.78,31.463]]]]}},{"type":"Feature","properties":{"focus":true,"kind":"state","approx":true,"color":"#2f6f8f","minor":true,"name":"Dai","name_zh":"代","label":[111.38,40.48],"area":17.1},"geometry":{"type":"Polygon","coordinates":[[[107.25,40.55],[107.275,40.65],[107.4,40.675],[107.45,40.925],[107.5,40.95],[107.55,41.225],[107.325,41.225],[107.3,41.325],[107.425,41.4],[107.475,41.525],[107.725,41.575],[108.25,41.55],[108.4,41.625],[108.475,41.725],[108.6,41.775],[109.1,41.775],[109.525,41.65],[109.65,41.775],[109.8,41.825],[109.85,42.225],[109.925,42.3],[110.025,42.575],[110.15,42.55],[110.55,42.55],[110.7,42.45],[110.925,42.375],[111.275,42.0],[111.275,41.45],[111.35,41.4],[111.75,41.45],[111.95,41.35],[112.1,41.5],[112.3,41.525],[112.425,41.425],[112.75,41.375],[112.9,41.425],[112.925,41.525],[113.075,41.625],[113.125,41.75],[113.325,41.8],[113.525,41.6],[113.55,41.3],[113.675,41.3],[113.875,41.15],[114.075,41.1],[114.025,40.975],[114.125,40.925],[114.15,40.775],[114.225,40.775],[114.425,40.65],[114.5,40.475],[114.5,40.325],[114.8,40.275],[114.825,40.15],[115.0,40.15],[115.1,39.975],[114.825,39.7],[114.7,39.625],[114.45,39.625],[114.1,39.625],[113.925,39.65],[113.725,39.475],[113.525,39.45],[113.375,39.35],[113.025,39.3],[112.775,39.225],[112.65,39.1],[112.475,39.1],[112.275,39.0],[112.175,39.0],[112.125,38.9],[111.7,38.675],[111.575,38.55],[111.4,38.6],[110.9,38.625],[110.85,38.45],[110.775,38.45],[110.675,38.325],[110.55,38.4],[110.45,38.575],[110.35,38.65],[110.25,38.95],[110.1,39.125],[110.05,39.325],[109.9,39.35],[109.775,39.525],[109.725,39.525],[109.625,39.725],[109.5,39.75],[109.375,39.925],[109.125,39.95],[109.025,39.875],[108.75,39.925],[108.7,39.85],[108.55,39.9],[108.275,39.9],[108.05,39.775],[107.8,39.8],[107.75,39.75],[107.5,39.775],[107.375,39.825],[107.175,39.825],[107.175,39.95],[107.4,40.175],[107.4,40.35],[107.25,40.55]]]}},{"type":"Feature","properties":{"focus":true,"kind":"state","approx":true,"color":"#8a6f9e","minor":true,"name":"Wey","name_zh":"卫","label":[115.2,35.83],"area":1.0},"geometry":{"type":"Polygon","coordinates":[[[115.75,35.825],[115.675,35.725],[115.5,35.7],[115.25,35.4],[115.075,35.4],[115.05,35.325],[114.85,35.1],[114.675,35.25],[114.525,35.7],[114.475,35.75],[114.425,35.975],[114.35,36.075],[114.35,36.225],[114.7,36.2],[114.725,36.25],[114.975,36.325],[115.1,36.5],[115.15,36.5],[115.4,36.325],[115.475,36.125],[115.75,35.825]]]}},{"type":"Feature","properties":{"focus":true,"kind":"state","approx":true,"color":"#2f8f83","name":"Qi","name_zh":"齐","label":[118.93,36.98],"area":11.3},"geometry":{"type":"Polygon","coordinates":[[[115.2,37.375],[115.175,37.375],[115.175,37.85],[115.225,37.925],[115.275,37.925],[115.4,38.0],[115.575,38.0],[115.75,38.1],[116.05,38.2],[116.125,38.1],[116.375,38.0],[116.4,37.95],[116.6,37.875],[116.9,37.65],[117.175,37.525],[117.275,37.45],[117.525,37.45],[117.7,37.375],[117.775,37.5],[117.8,37.675],[117.9,37.825],[118.056,38.176],[118.542,38.095],[118.546,38.096],[118.667,38.126],[118.8,38.127],[118.94,38.043],[119.028,37.904],[119.036,37.809],[119.038,37.78],[119.042,37.773],[119.07,37.749],[119.089,37.701],[119.089,37.7],[119.075,37.69],[119.033,37.661],[119.025,37.657],[118.989,37.633],[118.955,37.328],[118.956,37.327],[119.106,37.205],[119.112,37.201],[119.186,37.175],[119.29,37.138],[119.291,37.138],[119.761,37.156],[119.883,37.251],[119.883,37.28],[119.88,37.296],[119.882,37.336],[119.882,37.35],[119.883,37.35],[119.883,37.351],[120.004,37.415],[120.155,37.495],[120.298,37.612],[120.257,37.678],[120.258,37.678],[120.257,37.679],[120.285,37.692],[120.31,37.695],[120.732,37.828],[120.75,37.834],[121.049,37.725],[121.218,37.601],[121.287,37.592],[121.388,37.579],[121.401,37.572],[121.633,37.463],[121.64,37.46],[121.816,37.457],[121.952,37.446],[121.959,37.446],[121.986,37.469],[122.01,37.496],[122.057,37.529],[122.11,37.522],[122.129,37.501],[122.172,37.455],[122.338,37.405],[122.34,37.405],[122.598,37.426],[122.602,37.426],[122.667,37.403],[122.664,37.4],[122.575,37.317],[122.585,37.204],[122.587,37.181],[122.454,37.072],[122.521,37.004],[122.523,37.003],[122.52,36.947],[122.519,36.946],[122.346,36.836],[122.341,36.832],[122.34,36.832],[122.338,36.832],[122.274,36.834],[122.245,36.848],[122.242,36.849],[122.16,36.958],[121.936,36.959],[121.909,36.948],[121.67,36.836],[121.413,36.738],[121.274,36.698],[121.053,36.611],[121.052,36.611],[120.99,36.598],[120.917,36.622],[120.814,36.631],[120.805,36.601],[120.822,36.587],[120.883,36.539],[120.905,36.485],[120.896,36.444],[120.858,36.43],[120.847,36.426],[120.774,36.453],[120.712,36.412],[120.682,36.339],[120.681,36.168],[120.638,36.13],[120.542,36.113],[120.393,36.053],[120.39,36.055],[120.348,36.079],[120.331,36.109],[120.33,36.11],[120.325,36.224],[120.183,36.202],[120.101,36.111],[120.126,36.082],[120.18,36.019],[120.186,36.017],[120.265,36.007],[120.285,35.984],[120.219,35.935],[120.174,35.915],[120.042,35.831],[120.027,35.799],[119.979,35.74],[119.915,35.695],[119.866,35.643],[119.859,35.64],[119.811,35.618],[119.746,35.597],[119.717,35.586],[119.715,35.584],[119.697,35.562],[119.65,35.6],[119.35,35.625],[119.325,35.675],[119.125,35.625],[119.1,35.7],[118.85,35.925],[118.725,36.1],[118.4,36.075],[118.325,36.125],[118.125,36.125],[118.125,36.075],[117.95,35.975],[117.8,35.775],[117.45,35.825],[117.325,35.925],[117.05,36.025],[116.975,36.2],[116.875,36.1],[116.575,36.075],[116.5,36.025],[116.125,36.1],[116.05,35.95],[115.9,35.95],[115.875,35.85],[115.75,35.825],[115.475,36.125],[115.4,36.325],[115.15,36.5],[115.125,36.5],[115.125,36.9],[115.2,37.05],[115.2,37.375]]]}},{"type":"Feature","properties":{"focus":true,"kind":"state","approx":true,"color":"#4f6db8","name":"Yan","name_zh":"燕","label":[116.66,40.6],"area":31.0},"geometry":{"type":"Polygon","coordinates":[[[114.875,38.45],[114.75,38.8],[114.65,38.9],[114.6,39.05],[114.425,39.05],[114.4,39.2],[114.225,39.35],[114.25,39.625],[114.45,39.625],[114.7,39.625],[114.825,39.7],[115.1,39.975],[115.0,40.15],[114.825,40.15],[114.8,40.275],[114.5,40.325],[114.5,40.475],[114.425,40.65],[114.225,40.775],[114.15,40.775],[114.125,40.925],[114.025,40.975],[114.075,41.1],[113.875,41.15],[113.675,41.3],[113.55,41.3],[113.525,41.6],[113.325,41.8],[113.525,41.825],[113.675,41.925],[113.85,41.95],[113.875,42.0],[114.05,42.0],[114.225,42.05],[114.275,42.15],[114.2,42.425],[114.3,42.55],[114.35,42.725],[114.475,42.85],[114.725,42.95],[115.0,42.825],[115.7,42.775],[115.85,42.725],[116.075,42.575],[115.975,42.45],[115.975,42.175],[116.025,42.1],[116.0,41.875],[116.125,41.775],[116.15,41.65],[116.4,41.625],[116.45,41.55],[116.725,41.475],[116.725,41.4],[117.1,41.4],[117.175,41.35],[117.35,41.35],[117.4,41.45],[117.525,41.5],[117.55,41.575],[117.85,41.475],[117.85,41.525],[118.05,41.625],[118.2,41.75],[118.3,41.75],[118.45,41.6],[118.475,41.325],[118.9,41.2],[119.0,41.125],[119.125,41.125],[119.275,40.975],[119.425,40.975],[119.55,40.85],[119.575,40.675],[119.75,40.675],[119.9,40.825],[120.025,40.875],[120.05,41.05],[120.175,41.15],[120.225,41.275],[120.225,41.475],[120.1,41.65],[120.15,41.975],[120.325,42.0],[120.5,42.125],[120.5,42.225],[120.625,42.35],[120.7,42.35],[120.9,42.575],[121.1,42.575],[121.175,42.65],[121.375,42.7],[121.45,42.875],[121.45,43.075],[121.875,43.1],[121.875,43.075],[122.375,43.075],[122.5,43.175],[122.675,43.225],[122.725,43.3],[123.025,43.375],[123.1,43.325],[123.55,43.3],[123.525,43.125],[123.725,43.125],[123.9,43.225],[124.025,43.225],[124.325,42.925],[124.525,42.975],[124.625,42.85],[124.65,42.675],[124.775,42.575],[124.8,42.475],[124.9,42.45],[124.875,42.275],[124.975,42.225],[125.125,41.9],[125.225,41.9],[125.275,41.675],[125.125,41.55],[125.125,41.475],[124.925,41.325],[124.925,40.85],[125.125,40.75],[125.15,40.575],[125.025,40.525],[125.0,40.2],[124.825,40.075],[124.825,40.0],[124.675,39.9],[124.589,39.745],[124.557,39.791],[124.527,39.805],[124.522,39.808],[124.404,39.866],[124.355,39.902],[124.348,39.906],[124.37,39.982],[124.347,40.002],[124.271,39.928],[124.267,39.924],[124.106,39.841],[124.085,39.84],[123.76,39.822],[123.65,39.876],[123.582,39.789],[123.581,39.786],[123.49,39.768],[123.362,39.763],[123.348,39.762],[123.226,39.686],[123.032,39.672],[122.96,39.619],[122.839,39.6],[122.481,39.434],[122.335,39.366],[122.225,39.267],[122.121,39.152],[122.048,39.094],[121.982,39.053],[121.864,38.996],[121.86,38.996],[121.805,38.991],[121.784,38.998],[121.674,39.0],[121.673,38.999],[121.637,38.955],[121.664,38.902],[121.67,38.892],[121.67,38.891],[121.666,38.886],[121.65,38.865],[121.517,38.831],[121.326,38.809],[121.321,38.808],[121.236,38.766],[121.207,38.744],[121.165,38.732],[121.163,38.731],[121.162,38.735],[121.122,38.813],[121.108,38.915],[121.106,38.92],[121.107,38.92],[121.107,38.921],[121.163,38.939],[121.651,39.098],[121.662,39.102],[121.627,39.22],[121.629,39.222],[121.665,39.269],[121.75,39.341],[121.752,39.342],[121.779,39.396],[121.72,39.395],[121.513,39.375],[121.356,39.377],[121.282,39.384],[121.275,39.384],[121.299,39.454],[121.267,39.544],[121.268,39.544],[121.267,39.545],[121.406,39.621],[121.47,39.64],[121.498,39.639],[121.509,39.644],[121.474,39.754],[121.474,39.755],[121.517,39.845],[121.608,39.878],[121.801,39.952],[121.805,39.956],[121.869,40.046],[121.961,40.119],[122.182,40.348],[122.189,40.356],[122.194,40.366],[122.203,40.396],[122.218,40.421],[122.27,40.539],[122.178,40.602],[122.136,40.69],[121.858,40.842],[121.826,40.964],[121.781,40.91],[121.766,40.876],[121.729,40.846],[121.728,40.846],[121.599,40.843],[121.567,40.861],[121.173,40.899],[121.058,40.811],[121.003,40.749],[120.922,40.683],[120.857,40.656],[120.776,40.594],[120.771,40.589],[120.627,40.413],[120.479,40.23],[120.063,40.076],[119.85,39.987],[119.614,39.91],[119.592,39.902],[119.406,39.764],[119.393,39.754],[119.264,39.566],[119.261,39.561],[119.225,39.408],[119.04,39.222],[118.977,39.183],[118.976,39.182],[118.975,39.182],[118.912,39.166],[118.826,39.172],[118.752,39.16],[118.632,39.176],[118.625,39.176],[118.618,39.174],[118.472,39.118],[118.298,39.067],[118.297,39.067],[118.149,39.193],[118.041,39.226],[117.867,39.191],[117.788,39.136],[117.597,38.772],[117.45,38.875],[117.0,38.875],[116.775,39.0],[116.45,38.975],[116.25,38.825],[116.175,38.575],[116.075,38.4],[116.05,38.2],[115.75,38.1],[115.575,38.0],[115.4,38.0],[115.275,37.925],[115.2,37.925],[115.175,38.025],[115.0,38.175],[114.875,38.45]]]}},{"type":"Feature","properties":{"focus":true,"kind":"state","approx":true,"color":"#5e9a2a","name":"Yue","name_zh":"越","label":[118.91,28.79],"area":11.5},"geometry":{"type":"MultiPolygon","coordinates":[[[[122.394,29.846],[122.367,29.852],[122.331,29.934],[122.332,29.934],[122.332,29.935],[122.351,29.955],[122.402,29.95],[122.404,29.892],[122.394,29.846]]],[[[122.111,30.14],[122.284,30.068],[122.322,30.031],[122.296,29.963],[122.283,29.945],[122.281,29.943],[122.157,30.0],[122.024,30.013],[121.977,30.063],[121.969,30.143],[122.111,30.14]]],[[[122.12,29.782],[122.165,29.701],[122.173,29.679],[122.169,29.66],[122.042,29.735],[122.055,29.759],[122.062,29.773],[122.12,29.782]]],[[[117.525,27.45],[117.525,27.65],[117.6,27.725],[117.4,28.15],[117.35,28.675],[117.5,28.825],[117.55,29.0],[117.475,29.125],[117.5,29.425],[117.575,29.45],[117.65,29.6],[117.75,29.6],[117.825,29.725],[117.925,29.7],[118.025,30.0],[118.125,30.075],[118.275,30.05],[118.35,30.1],[118.625,30.125],[118.675,30.075],[118.975,30.125],[119.15,30.125],[119.275,30.05],[119.325,30.15],[119.625,30.125],[119.875,30.0],[120.125,30.075],[120.2,30.225],[120.562,30.225],[120.642,30.134],[120.658,30.136],[120.904,30.161],[121.04,30.236],[121.159,30.302],[121.258,30.304],[121.341,30.282],[121.433,30.227],[121.678,29.979],[121.812,29.952],[121.868,29.928],[122.016,29.888],[122.017,29.888],[122.083,29.87],[122.036,29.846],[121.905,29.779],[121.676,29.583],[121.56,29.523],[121.578,29.495],[121.689,29.511],[121.697,29.516],[121.822,29.605],[121.888,29.628],[121.941,29.606],[121.968,29.491],[121.918,29.135],[121.913,29.135],[121.853,29.128],[121.791,29.223],[121.718,29.254],[121.707,29.253],[121.656,29.236],[121.55,29.237],[121.534,29.235],[121.462,29.154],[121.509,29.121],[121.521,29.118],[121.665,29.011],[121.68,28.953],[121.641,28.916],[121.633,28.917],[121.608,28.897],[121.658,28.854],[121.663,28.851],[121.63,28.768],[121.59,28.735],[121.556,28.724],[121.478,28.637],[121.479,28.633],[121.538,28.521],[121.602,28.367],[121.61,28.292],[121.609,28.292],[121.509,28.322],[121.354,28.229],[121.272,28.222],[121.219,28.337],[121.147,28.327],[121.097,28.287],[121.095,28.284],[121.035,28.157],[120.959,28.037],[120.938,28.027],[120.892,28.003],[120.764,28.004],[120.829,27.94],[120.833,27.938],[120.833,27.891],[120.749,27.808],[120.686,27.745],[120.665,27.642],[120.665,27.639],[120.66,27.636],[120.593,27.582],[120.628,27.485],[120.629,27.482],[120.608,27.412],[120.54,27.318],[120.482,27.268],[120.401,27.174],[120.35,27.225],[120.175,27.225],[120.15,27.175],[119.95,27.175],[119.975,27.45],[119.65,27.475],[119.625,27.525],[119.375,27.525],[119.325,27.45],[119.325,27.225],[119.275,27.125],[119.15,27.125],[118.95,27.025],[118.7,26.975],[118.6,26.825],[118.55,26.85],[118.325,26.8],[118.15,26.8],[118.05,26.65],[117.975,26.725],[117.75,26.825],[117.65,26.975],[117.575,27.15],[117.6,27.25],[117.475,27.325],[117.525,27.45]]],[[[121.247,28.085],[121.164,28.063],[121.134,28.063],[121.131,28.062],[121.134,28.132],[121.134,28.135],[121.192,28.192],[121.205,28.204],[121.234,28.181],[121.251,28.145],[121.251,28.086],[121.247,28.085]]]]}}],"snapped":true}