{"type":"FeatureCollection","features":[{"type":"Feature","properties":{"focus":false,"kind":"state","approx":true,"color":"#4f8f86","name":"Di peoples","name_zh":"狄","label":[116.94,38.27],"area":1.7},"geometry":{"type":"Polygon","coordinates":[[[116.016,38.236],[116.353,38.993],[117.656,38.423],[117.767,38.311],[118.012,38.184],[118.163,38.158],[117.559,37.532],[117.160,37.496],[116.016,38.236]]]}},{"type":"Feature","properties":{"focus":false,"kind":"state","approx":true,"color":"#a3727a","name":"Xiongnu","name_zh":"匈奴","label":[117.16,42.19],"area":5.4},"geometry":{"type":"Polygon","coordinates":[[[115.769,42.600],[115.953,42.868],[116.157,43.082],[116.471,43.315],[116.734,43.447],[117.014,43.540],[117.401,43.597],[117.696,43.590],[118.080,43.513],[118.162,43.486],[118.505,41.770],[116.899,40.782],[116.186,41.244],[115.769,42.600]]]}},{"type":"Feature","properties":{"focus":false,"kind":"state","approx":true,"color":"#6f9460","name":"Donghu","name_zh":"东胡","label":[119.59,42.43],"area":6.7},"geometry":{"type":"Polygon","coordinates":[[[118.162,43.486],[118.556,43.763],[118.919,43.913],[119.401,43.997],[119.793,43.978],[120.174,43.882],[120.610,43.663],[120.914,43.414],[121.170,43.098],[119.638,40.373],[119.304,40.553],[118.505,41.770],[118.162,43.486]]]}},{"type":"Feature","properties":{"focus":false,"kind":"state","approx":true,"color":"#b0805f","name":"Rong peoples","name_zh":"戎","label":[103.23,35.83],"area":15.2},"geometry":{"type":"Polygon","coordinates":[[[102.172,34.281],[101.785,34.585],[101.536,34.889],[101.317,35.325],[101.221,35.706],[101.202,36.098],[101.286,36.580],[101.436,36.943],[101.717,37.342],[102.008,37.606],[102.345,37.808],[102.619,37.913],[102.915,37.980],[103.326,38.183],[103.706,38.278],[104.098,38.297],[104.580,38.213],[104.943,38.063],[105.326,37.795],[105.508,36.434],[105.364,35.948],[105.062,35.647],[104.096,33.385],[103.556,33.391],[103.269,33.456],[102.995,33.561],[102.739,33.706],[102.507,33.887],[102.172,34.281]]]}},{"type":"Feature","properties":{"focus":false,"kind":"state","approx":true,"color":"#a3727a","name":"Yiqu","name_zh":"义渠","label":[106.84,37.19],"area":7.8},"geometry":{"type":"Polygon","coordinates":[[[105.327,37.795],[105.518,38.043],[105.808,38.306],[106.057,38.463],[106.419,38.613],[106.706,38.678],[107.097,38.697],[107.390,38.661],[107.718,38.565],[108.288,37.604],[108.255,36.774],[108.587,36.070],[108.129,35.003],[107.249,35.152],[107.043,36.050],[105.508,36.435],[105.327,37.795]]]}},{"type":"Feature","properties":{"focus":false,"kind":"state","approx":true,"color":"#9a8a4a","name":"Man peoples","name_zh":"蛮","label":[109.23,27.77],"area":18.9},"geometry":{"type":"Polygon","coordinates":[[[107.553,28.036],[108.732,29.092],[108.797,29.434],[109.845,30.613],[111.022,29.750],[110.791,27.716],[110.926,27.459],[111.831,27.830],[114.465,27.060],[113.534,25.131],[113.180,24.986],[112.893,24.921],[112.600,24.900],[112.306,24.921],[112.019,24.986],[111.745,25.091],[111.489,25.236],[111.257,25.417],[110.936,25.789],[110.669,26.340],[110.217,25.984],[109.955,25.852],[109.675,25.759],[109.385,25.709],[109.092,25.702],[108.800,25.738],[108.536,25.810],[107.553,28.036]]]}},{"type":"Feature","properties":{"focus":false,"kind":"state","approx":true,"color":"#7272a8","name":"Baiyue","name_zh":"百越","label":[115.72,26.47],"area":35.5},"geometry":{"type":"MultiPolygon","coordinates":[[[[113.534,25.132],[114.465,27.059],[114.633,27.220],[114.401,28.645],[114.520,29.126],[114.747,29.319],[117.361,29.021],[117.495,27.487],[117.233,27.198],[116.895,26.939],[117.106,26.691],[117.302,26.387],[117.452,26.865],[117.709,27.311],[119.287,27.552],[119.462,27.881],[120.648,29.001],[120.941,29.014],[121.556,28.724],[121.478,28.637],[121.609,28.292],[121.509,28.322],[121.354,28.229],[121.272,28.222],[121.219,28.337],[121.147,28.327],[121.097,28.287],[120.958,28.037],[120.892,28.003],[120.764,28.004],[120.832,27.937],[120.832,27.891],[120.686,27.745],[120.664,27.639],[120.593,27.582],[120.629,27.482],[120.607,27.412],[120.384,27.155],[120.276,27.092],[120.137,26.884],[120.086,26.671],[119.967,26.586],[119.882,26.610],[119.804,26.811],[119.710,26.728],[119.593,26.761],[119.639,26.625],[119.725,26.609],[119.784,26.546],[119.881,26.334],[119.692,26.236],[119.463,26.054],[119.313,26.062],[119.192,26.111],[119.171,26.091],[119.261,25.977],[119.332,25.949],[119.418,25.955],[119.500,26.009],[119.618,26.003],[119.648,25.918],[119.553,25.698],[119.540,25.595],[119.622,25.391],[119.592,25.368],[119.419,25.458],[119.177,25.446],[119.149,25.411],[119.167,25.359],[119.285,25.232],[119.235,25.205],[118.974,25.205],[118.917,25.128],[118.955,25.004],[118.909,24.928],[118.644,24.829],[118.719,24.746],[118.656,24.621],[118.560,24.580],[118.412,24.600],[118.295,24.572],[118.195,24.625],[118.093,24.626],[118.018,24.564],[117.753,24.831],[117.489,25.211],[117.382,24.825],[117.215,24.471],[116.981,24.156],[116.691,23.893],[116.355,23.692],[115.986,23.560],[115.598,23.502],[115.303,23.509],[114.919,23.586],[114.645,23.691],[114.389,23.836],[114.156,24.018],[113.953,24.231],[113.736,24.556],[113.616,24.826],[113.534,25.132]]],[[[121.131,28.062],[121.134,28.135],[121.205,28.204],[121.250,28.145],[121.251,28.086],[121.131,28.062]]],[[[119.696,25.590],[119.722,25.638],[119.777,25.653],[119.838,25.591],[119.813,25.510],[119.832,25.479],[119.746,25.410],[119.700,25.432],[119.720,25.548],[119.696,25.590]]],[[[118.287,24.476],[118.340,24.471],[118.407,24.522],[118.451,24.455],[118.432,24.414],[118.295,24.436],[118.287,24.476]]],[[[118.082,24.514],[118.103,24.552],[118.182,24.496],[118.160,24.456],[118.082,24.514]]],[[[105.283,28.012],[107.224,28.110],[107.553,28.036],[108.536,25.810],[108.362,25.488],[108.114,25.185],[107.811,24.937],[107.465,24.752],[107.090,24.638],[106.700,24.600],[106.310,24.638],[105.934,24.752],[105.589,24.936],[105.285,25.185],[105.037,25.488],[104.852,25.834],[104.738,26.209],[104.700,26.599],[104.738,26.989],[104.852,27.365],[105.036,27.710],[105.283,28.012]]]]}},{"type":"Feature","properties":{"focus":true,"kind":"state","approx":true,"color":"#c9a227","name":"Zhou royal domain","name_zh":"周","label":[112.55,34.45],"area":2.0},"geometry":{"type":"Polygon","coordinates":[[[111.751,33.804],[111.854,35.096],[112.084,35.365],[112.680,35.076],[113.338,35.207],[113.523,34.905],[113.082,33.985],[112.947,33.826],[112.831,33.856],[111.751,33.804]]]}},{"type":"Feature","properties":{"focus":true,"kind":"state","approx":true,"color":"#c0703f","name":"Han","name_zh":"韩","label":[112.18,36.25],"area":6.3},"geometry":{"type":"MultiPolygon","coordinates":[[[[112.947,33.826],[113.082,33.986],[113.523,34.905],[113.887,34.836],[114.201,34.350],[114.453,34.185],[114.340,33.797],[113.372,33.281],[112.947,33.826]]],[[[110.519,36.426],[110.565,36.610],[111.977,36.963],[112.266,36.800],[113.427,37.235],[113.675,36.834],[113.757,36.550],[113.714,36.018],[113.632,35.867],[113.430,35.686],[113.338,35.207],[112.679,35.075],[112.090,35.361],[111.854,35.096],[111.444,35.169],[110.872,35.520],[110.744,36.071],[110.519,36.426]]]]}},{"type":"Feature","properties":{"focus":true,"kind":"state","approx":true,"color":"#5b8c3a","name":"Wei","name_zh":"魏","label":[113.86,35.45],"area":2.6},"geometry":{"type":"MultiPolygon","coordinates":[[[[113.338,35.207],[113.429,35.687],[113.632,35.867],[113.714,36.018],[113.757,36.550],[114.832,36.227],[114.668,35.891],[114.389,35.808],[114.290,35.217],[114.929,35.074],[115.018,34.668],[114.947,34.429],[114.453,34.185],[114.202,34.348],[113.888,34.833],[113.523,34.905],[113.338,35.207]]],[[[110.342,34.612],[110.872,35.520],[111.443,35.169],[110.502,34.472],[110.342,34.612]]]]}},{"type":"Feature","properties":{"focus":true,"kind":"state","approx":true,"color":"#3d3d4f","name":"Qin","name_zh":"秦","label":[108.66,33.6],"area":69.7},"geometry":{"type":"Polygon","coordinates":[[[102.389,28.093],[101.971,28.284],[101.585,28.585],[101.336,28.889],[101.116,29.326],[101.009,29.803],[101.009,30.196],[101.117,30.674],[101.336,31.110],[101.585,31.414],[101.888,31.662],[102.234,31.847],[102.528,31.946],[102.863,32.262],[103.093,32.661],[103.431,33.015],[103.756,33.233],[104.092,33.378],[105.063,35.650],[105.364,35.949],[105.508,36.435],[107.049,36.049],[107.252,35.155],[108.131,35.011],[108.585,36.071],[108.254,36.772],[108.286,37.605],[107.718,38.566],[107.817,38.974],[107.936,39.243],[108.093,39.491],[108.285,39.714],[108.576,39.954],[109.781,39.515],[110.742,38.475],[110.144,37.388],[110.564,36.609],[110.521,36.425],[110.744,36.072],[110.872,35.520],[110.350,34.607],[110.512,34.480],[111.444,35.169],[111.854,35.096],[111.755,33.815],[112.833,33.856],[112.947,33.826],[113.372,33.281],[113.442,32.816],[113.309,32.582],[112.863,32.293],[111.092,32.974],[110.583,32.401],[110.519,32.125],[109.874,31.382],[109.845,30.613],[108.799,29.437],[108.736,29.095],[107.553,28.036],[107.222,28.110],[105.283,28.012],[105.158,28.114],[104.870,27.886],[104.525,27.702],[104.149,27.588],[103.759,27.550],[103.370,27.588],[102.994,27.702],[102.649,27.886],[102.389,28.093]]]}},{"type":"Feature","properties":{"focus":true,"kind":"state","approx":true,"color":"#2f6f8f","name":"Zhao","name_zh":"赵","label":[112.45,39.31],"area":27.9},"geometry":{"type":"Polygon","coordinates":[[[108.576,39.953],[108.509,40.304],[108.509,40.695],[108.560,40.986],[108.691,41.354],[108.837,41.611],[109.085,41.914],[109.388,42.162],[109.645,42.308],[110.013,42.439],[110.303,42.490],[110.598,42.497],[110.985,42.440],[111.265,42.347],[111.610,42.163],[111.843,41.981],[112.102,41.707],[112.444,41.907],[112.719,42.013],[113.006,42.078],[113.378,42.098],[114.053,40.560],[115.441,40.003],[115.444,39.955],[114.764,39.100],[115.117,38.196],[115.451,37.906],[115.368,37.411],[115.416,37.181],[115.271,36.835],[115.236,36.485],[114.832,36.227],[113.757,36.550],[113.675,36.835],[113.419,37.230],[112.259,36.797],[111.971,36.961],[110.565,36.610],[110.141,37.386],[110.734,38.482],[109.782,39.514],[108.576,39.953]]]}},{"type":"Feature","properties":{"focus":true,"kind":"state","approx":true,"color":"#8a6f9e","minor":true,"name":"Wey","name_zh":"卫","label":[115.06,35.79],"area":1.1},"geometry":{"type":"Polygon","coordinates":[[[114.289,35.210],[114.390,35.815],[114.666,35.892],[114.832,36.227],[115.236,36.485],[115.750,35.767],[114.974,35.168],[114.929,35.074],[114.289,35.210]]]}},{"type":"Feature","properties":{"focus":true,"kind":"state","approx":true,"color":"#2f8f83","name":"Qi","name_zh":"齐","label":[117.84,36.21],"area":12.9},"geometry":{"type":"MultiPolygon","coordinates":[[[[115.236,36.485],[115.271,36.834],[115.415,37.179],[115.368,37.410],[115.451,37.906],[116.016,38.236],[117.165,37.496],[117.561,37.535],[118.163,38.158],[118.541,38.095],[118.799,38.126],[118.940,38.042],[119.027,37.903],[119.038,37.780],[119.089,37.700],[118.989,37.633],[118.955,37.328],[119.111,37.201],[119.290,37.138],[119.761,37.156],[119.883,37.251],[119.882,37.350],[120.155,37.495],[120.298,37.612],[120.257,37.678],[120.749,37.833],[121.049,37.725],[121.218,37.601],[121.388,37.578],[121.640,37.460],[121.959,37.446],[122.056,37.528],[122.109,37.522],[122.172,37.455],[122.336,37.405],[122.602,37.426],[122.666,37.402],[122.575,37.317],[122.587,37.181],[122.454,37.072],[122.523,37.002],[122.519,36.946],[122.340,36.832],[122.242,36.849],[122.160,36.958],[121.936,36.959],[121.053,36.611],[120.812,36.630],[120.807,36.599],[120.882,36.538],[120.895,36.444],[120.847,36.426],[120.774,36.453],[120.712,36.412],[120.682,36.338],[120.680,36.168],[120.393,36.053],[120.330,36.110],[120.325,36.224],[120.181,36.201],[120.101,36.111],[120.180,36.019],[120.284,35.984],[120.058,35.862],[119.978,35.740],[119.866,35.643],[119.717,35.586],[119.526,35.358],[119.429,35.299],[119.352,35.113],[119.214,35.007],[119.166,34.849],[119.198,34.756],[119.351,34.749],[119.585,34.581],[119.964,34.447],[120.201,34.325],[120.301,34.207],[118.915,34.590],[118.667,34.682],[118.165,36.058],[117.936,36.109],[117.602,35.797],[116.543,35.992],[116.472,36.030],[115.931,35.713],[115.750,35.767],[115.236,36.485]]],[[[121.106,38.920],[121.662,39.102],[121.627,39.220],[121.750,39.341],[122.104,39.371],[122.264,39.303],[121.982,39.053],[121.864,38.996],[121.674,39.000],[121.637,38.955],[121.670,38.891],[121.649,38.865],[121.321,38.808],[121.163,38.731],[121.106,38.920]]]]}},{"type":"Feature","properties":{"focus":true,"kind":"state","approx":true,"color":"#9a7b4f","minor":true,"name":"Lu","name_zh":"鲁","label":[117.24,35.34],"area":2.8},"geometry":{"type":"Polygon","coordinates":[[[115.931,35.713],[116.475,36.034],[116.546,35.991],[117.595,35.799],[117.939,36.113],[118.172,36.057],[118.667,34.682],[117.854,34.546],[117.314,34.962],[117.086,34.929],[116.441,34.601],[116.219,34.813],[115.931,35.713]]]}},{"type":"Feature","properties":{"focus":true,"kind":"state","approx":true,"color":"#b08a2e","name":"Song","name_zh":"宋","label":[116.43,34.23],"area":5.1},"geometry":{"type":"Polygon","coordinates":[[[114.929,35.074],[114.970,35.165],[115.750,35.767],[115.931,35.713],[116.219,34.816],[116.435,34.608],[117.087,34.930],[117.321,34.963],[117.854,34.546],[117.587,33.788],[117.695,33.272],[117.627,32.968],[116.293,33.220],[115.903,32.918],[115.397,33.287],[115.297,34.030],[114.947,34.429],[115.018,34.669],[114.929,35.074]]]}},{"type":"Feature","properties":{"focus":true,"kind":"state","approx":true,"color":"#a33e3e","name":"Chu","name_zh":"楚","label":[115.68,30.86],"area":50.0},"geometry":{"type":"MultiPolygon","coordinates":[[[[109.845,30.613],[109.871,31.379],[110.517,32.123],[110.580,32.399],[111.098,32.982],[112.868,32.297],[113.308,32.582],[113.438,32.810],[113.372,33.281],[114.335,33.794],[114.453,34.185],[114.947,34.429],[115.297,34.033],[115.398,33.288],[115.902,32.924],[116.288,33.221],[117.625,32.976],[117.695,33.272],[117.586,33.786],[117.854,34.546],[118.667,34.682],[120.301,34.207],[120.499,33.716],[120.506,33.636],[120.615,33.490],[120.871,33.016],[120.897,32.843],[120.853,32.762],[120.856,32.660],[120.990,32.566],[121.342,32.424],[121.400,32.371],[121.408,32.200],[121.489,32.121],[121.751,31.992],[121.832,31.899],[121.856,31.815],[121.866,31.703],[121.680,31.712],[121.351,31.858],[121.145,31.842],[120.973,31.869],[120.789,32.032],[120.523,32.105],[120.184,31.966],[120.074,31.959],[120.081,31.927],[120.190,31.906],[120.497,32.019],[120.715,31.983],[120.792,31.818],[121.055,31.719],[121.204,31.628],[121.351,31.484],[121.660,31.319],[121.830,31.069],[121.158,30.632],[120.718,30.643],[120.536,30.389],[120.447,30.386],[120.269,30.295],[120.271,30.262],[120.350,30.248],[120.480,30.297],[120.055,29.600],[119.075,30.035],[118.909,30.192],[118.248,30.055],[117.361,29.021],[114.742,29.314],[114.519,29.123],[114.401,28.647],[114.636,27.219],[114.465,27.060],[111.834,27.829],[110.930,27.449],[110.791,27.712],[111.019,29.748],[109.845,30.613]]],[[[121.211,31.805],[121.464,31.756],[121.492,31.694],[121.576,31.638],[121.808,31.552],[121.862,31.492],[121.780,31.463],[121.519,31.549],[121.336,31.643],[121.211,31.805]]]]}},{"type":"Feature","properties":{"focus":true,"kind":"state","approx":true,"color":"#4f6db8","name":"Yan","name_zh":"燕","label":[116.66,40.6],"area":29.5},"geometry":{"type":"Polygon","coordinates":[[[113.379,42.097],[113.789,42.463],[114.045,42.608],[114.319,42.713],[114.802,42.797],[115.096,42.790],[115.386,42.739],[115.768,42.601],[116.188,41.244],[116.890,40.788],[118.505,41.770],[119.302,40.556],[119.631,40.380],[121.170,43.098],[121.585,43.040],[121.988,42.894],[122.257,43.063],[122.619,43.213],[123.003,43.290],[123.395,43.290],[123.780,43.213],[124.142,43.063],[124.468,42.846],[124.745,42.568],[124.963,42.243],[125.113,41.880],[125.190,41.496],[125.190,41.104],[125.113,40.719],[124.963,40.357],[124.746,40.031],[124.527,39.805],[124.348,39.906],[124.370,39.982],[124.347,40.002],[124.267,39.924],[124.105,39.841],[123.760,39.822],[123.650,39.876],[123.580,39.786],[123.348,39.762],[123.226,39.686],[123.032,39.672],[122.960,39.619],[122.839,39.600],[122.481,39.434],[122.311,39.505],[122.104,39.371],[121.751,39.341],[121.779,39.396],[121.275,39.384],[121.299,39.454],[121.267,39.544],[121.509,39.644],[121.474,39.754],[121.517,39.844],[121.801,39.952],[122.189,40.356],[122.270,40.539],[122.178,40.602],[122.136,40.690],[121.858,40.842],[121.826,40.964],[121.729,40.846],[121.173,40.899],[120.770,40.589],[120.479,40.230],[119.592,39.902],[119.393,39.754],[119.261,39.561],[119.224,39.408],[118.976,39.182],[118.625,39.176],[118.297,39.067],[118.149,39.193],[118.041,39.226],[117.867,39.191],[117.788,39.136],[117.554,38.691],[117.558,38.623],[117.656,38.423],[116.358,38.987],[116.232,38.761],[116.016,38.236],[115.451,37.906],[115.117,38.195],[114.761,39.101],[115.439,39.949],[115.440,39.997],[114.052,40.559],[113.379,42.097]]]}},{"type":"Feature","properties":{"focus":true,"kind":"state","approx":true,"color":"#5e9a2a","name":"Yue","name_zh":"越","label":[118.91,28.79],"area":8.3},"geometry":{"type":"MultiPolygon","coordinates":[[[[122.331,29.934],[122.401,29.950],[122.394,29.846],[122.367,29.852],[122.331,29.934]]],[[[121.969,30.143],[122.110,30.139],[122.284,30.067],[122.322,30.031],[122.295,29.963],[122.281,29.943],[122.157,30.000],[122.024,30.013],[121.977,30.063],[121.969,30.143]]],[[[122.042,29.735],[122.062,29.772],[122.119,29.782],[122.169,29.660],[122.042,29.735]]],[[[117.361,29.021],[118.249,30.058],[118.915,30.194],[119.077,30.035],[120.044,29.606],[120.494,30.303],[120.642,30.134],[120.904,30.161],[121.159,30.301],[121.340,30.282],[121.432,30.226],[121.678,29.979],[122.082,29.870],[121.905,29.779],[121.676,29.583],[121.560,29.523],[121.578,29.495],[121.689,29.511],[121.887,29.627],[121.941,29.605],[121.968,29.490],[121.917,29.135],[121.853,29.128],[121.791,29.223],[121.718,29.254],[121.534,29.235],[121.462,29.154],[121.665,29.010],[121.679,28.953],[121.608,28.897],[121.662,28.851],[121.590,28.735],[121.556,28.725],[120.942,29.013],[120.647,28.999],[119.463,27.882],[119.289,27.550],[117.710,27.311],[117.678,27.333],[117.495,27.488],[117.361,29.021]]],[[[120.536,30.389],[120.677,30.621],[120.722,30.645],[121.160,30.634],[121.830,31.069],[121.877,30.917],[121.769,30.870],[121.528,30.841],[121.419,30.790],[121.309,30.699],[120.999,30.558],[120.896,30.392],[120.821,30.354],[120.536,30.389]]]]}}]}