{"type":"FeatureCollection","features":[{"type":"Feature","properties":{"focus":false,"kind":"state","approx":true,"color":"#4f8f86","name":"Di peoples","name_zh":"狄","label":[116.94,38.27],"area":2.2},"geometry":{"type":"Polygon","coordinates":[[[116.45,38.975],[116.775,39.0],[117.0,38.875],[117.45,38.875],[117.597,38.772],[117.554,38.691],[117.558,38.625],[117.656,38.424],[117.767,38.312],[118.015,38.184],[118.035,38.18],[118.453,38.11],[118.45,38.1],[118.2,37.875],[118.1,37.55],[117.925,37.525],[117.75,37.35],[117.525,37.45],[117.275,37.45],[116.975,37.6],[116.8,37.75],[116.6,37.875],[116.4,37.95],[116.375,38.0],[116.125,38.1],[116.05,38.2],[116.075,38.4],[116.175,38.575],[116.25,38.825],[116.45,38.975]]]}},{"type":"Feature","properties":{"focus":false,"kind":"state","approx":true,"color":"#a3727a","name":"Xiongnu","name_zh":"匈奴","label":[117.16,42.19],"area":3.4},"geometry":{"type":"Polygon","coordinates":[[[116.925,43.075],[117.0,43.125],[117.05,43.275],[117.225,43.45],[117.325,43.45],[117.45,43.6],[117.55,43.6],[117.675,43.5],[117.725,43.375],[117.975,43.4],[117.975,43.275],[118.075,43.275],[118.1,43.15],[118.1,42.775],[117.95,42.7],[117.9,42.6],[118.0,42.425],[117.975,42.275],[118.075,42.2],[118.125,42.025],[118.3,42.0],[118.325,41.8],[118.275,41.75],[118.2,41.75],[118.05,41.625],[117.85,41.525],[117.85,41.475],[117.55,41.575],[117.525,41.5],[117.4,41.45],[117.35,41.35],[117.175,41.35],[117.1,41.4],[116.725,41.4],[116.725,41.475],[116.45,41.55],[116.4,41.625],[116.15,41.65],[116.125,41.775],[116.0,41.875],[116.025,42.1],[115.975,42.175],[115.975,42.45],[116.075,42.575],[116.275,42.85],[116.55,42.85],[116.875,42.925],[116.925,43.075]]]}},{"type":"Feature","properties":{"focus":false,"kind":"state","approx":true,"color":"#6f9460","name":"Donghu","name_zh":"东胡","label":[119.59,42.43],"area":7.4},"geometry":{"type":"Polygon","coordinates":[[[118.125,42.025],[118.075,42.2],[117.975,42.275],[118.0,42.425],[117.9,42.6],[117.95,42.7],[118.1,42.775],[118.1,43.15],[118.075,43.275],[117.975,43.275],[117.975,43.4],[118.025,43.55],[118.175,43.6],[118.725,44.175],[118.725,44.375],[118.95,44.45],[118.975,44.55],[119.075,44.575],[119.225,44.375],[119.425,44.325],[119.475,44.15],[119.6,44.125],[119.65,44.05],[119.8,44.0],[119.925,43.85],[120.125,43.75],[120.275,43.625],[120.275,43.55],[120.4,43.4],[120.75,43.4],[120.825,43.475],[121.125,43.5],[121.2,43.3],[121.45,43.075],[121.45,42.875],[121.375,42.7],[121.175,42.65],[121.1,42.575],[120.9,42.575],[120.7,42.35],[120.625,42.35],[120.5,42.225],[120.5,42.125],[120.325,42.0],[120.15,41.975],[120.1,41.65],[120.225,41.475],[120.225,41.275],[120.175,41.15],[120.05,41.05],[120.025,40.875],[119.9,40.825],[119.75,40.675],[119.575,40.675],[119.55,40.85],[119.425,40.975],[119.275,40.975],[119.125,41.125],[119.0,41.125],[118.875,41.2],[118.475,41.3],[118.45,41.6],[118.3,41.75],[118.275,41.75],[118.325,41.8],[118.3,42.0],[118.125,42.025]]]}},{"type":"Feature","properties":{"focus":false,"kind":"state","approx":true,"color":"#b0805f","name":"Rong peoples","name_zh":"戎","label":[103.23,35.83],"area":13.9},"geometry":{"type":"Polygon","coordinates":[[[104.925,37.325],[105.1,37.175],[105.025,36.825],[105.15,36.775],[105.275,36.65],[105.25,36.425],[105.45,36.3],[105.225,36.15],[105.1,36.0],[105.1,35.75],[104.975,35.525],[105.0,35.375],[104.925,35.35],[104.775,34.975],[104.6,35.0],[104.575,34.875],[104.45,34.775],[104.325,34.775],[104.2,34.7],[104.325,34.45],[104.475,34.425],[104.625,34.3],[104.425,34.25],[104.25,34.125],[104.05,34.125],[103.875,33.85],[103.85,33.7],[103.6,33.675],[103.525,33.625],[103.525,33.4],[103.475,33.25],[103.425,33.25],[103.35,33.325],[103.275,33.525],[103.2,33.6],[103.2,33.775],[102.9,34.025],[102.575,34.05],[102.525,34.1],[102.25,34.125],[101.925,34.125],[101.875,34.25],[101.7,34.3],[101.475,34.525],[101.475,34.75],[101.325,34.95],[101.45,35.125],[101.55,35.175],[101.475,35.5],[101.3,35.6],[101.35,35.775],[101.35,36.05],[101.4,36.05],[101.35,36.325],[101.175,36.35],[101.075,36.45],[101.025,36.6],[101.225,36.8],[101.2,36.925],[101.25,37.0],[101.225,37.275],[101.175,37.425],[101.025,37.475],[101.025,37.8],[101.125,37.75],[101.425,37.75],[101.55,37.625],[101.775,37.55],[102.125,37.55],[102.3,37.45],[102.425,37.3],[102.675,37.2],[102.825,37.475],[102.85,37.575],[103.075,37.8],[103.125,37.95],[103.325,38.15],[103.5,38.2],[103.675,38.375],[104.075,38.375],[104.25,38.275],[104.325,38.175],[104.45,38.125],[104.575,38.0],[104.975,37.825],[105.05,37.725],[105.375,37.6],[105.375,37.5],[105.125,37.5],[104.975,37.45],[104.925,37.325]]]}},{"type":"Feature","properties":{"focus":false,"kind":"state","approx":true,"color":"#a3727a","name":"Yiqu","name_zh":"义渠","label":[106.84,37.19],"area":9.7},"geometry":{"type":"Polygon","coordinates":[[[105.025,36.825],[105.1,37.175],[104.925,37.325],[104.975,37.45],[105.125,37.5],[105.375,37.5],[105.375,37.6],[105.55,37.775],[105.625,37.8],[105.625,38.075],[105.725,38.1],[105.775,38.3],[105.85,38.425],[105.85,38.625],[105.9,38.8],[106.025,38.975],[106.15,39.075],[106.375,38.85],[106.55,38.8],[106.65,38.825],[106.85,39.0],[106.875,39.15],[106.825,39.175],[106.775,39.5],[106.875,39.6],[107.075,39.625],[107.2,39.775],[107.55,39.75],[107.7,39.675],[107.7,39.5],[107.55,39.275],[107.475,39.05],[107.45,38.7],[107.625,38.55],[107.625,38.3],[107.7,38.175],[107.7,38.025],[107.775,37.925],[107.825,37.725],[107.925,37.6],[107.925,37.4],[107.85,37.3],[108.4,37.15],[108.375,36.925],[108.275,36.85],[108.275,36.525],[108.3,36.525],[108.3,36.175],[108.35,36.15],[108.375,35.975],[108.5,35.825],[108.475,35.6],[108.55,35.45],[108.3,35.45],[108.0,35.325],[107.825,35.175],[107.575,35.075],[107.475,34.85],[107.325,35.05],[106.725,35.1],[106.7,35.05],[106.475,35.1],[106.4,35.3],[106.225,35.575],[106.225,35.725],[105.975,36.075],[105.725,36.125],[105.6,36.275],[105.45,36.3],[105.25,36.425],[105.275,36.65],[105.15,36.775],[105.025,36.825]]]}},{"type":"Feature","properties":{"focus":false,"kind":"state","approx":true,"color":"#9a8a4a","name":"Man peoples","name_zh":"蛮","label":[109.23,27.77],"area":22.5},"geometry":{"type":"Polygon","coordinates":[[[107.675,26.175],[107.5,26.225],[107.4,26.45],[107.4,26.65],[107.45,26.75],[107.45,26.95],[107.525,27.125],[107.525,27.25],[107.4,27.4],[107.425,27.725],[107.375,27.775],[107.4,27.925],[107.475,28.15],[107.675,28.325],[107.775,28.35],[107.825,28.45],[107.85,28.825],[108.025,28.925],[108.025,29.2],[108.15,29.375],[108.175,29.7],[108.3,29.8],[108.5,30.15],[108.625,30.225],[108.925,30.225],[109.05,30.4],[109.275,30.55],[109.575,30.675],[109.725,30.8],[109.875,30.75],[110.05,30.8],[110.175,30.8],[110.3,30.575],[110.2,30.5],[110.2,30.35],[110.325,30.325],[110.35,30.175],[110.475,30.15],[110.45,30.025],[110.575,29.925],[110.675,29.675],[110.8,29.675],[110.875,29.575],[110.9,29.225],[110.8,29.1],[110.775,28.975],[110.9,28.775],[110.8,28.75],[110.85,28.65],[110.825,28.5],[110.925,28.25],[111.025,28.15],[111.175,28.15],[111.15,27.975],[111.375,27.95],[111.5,27.9],[111.875,28.05],[111.925,27.975],[112.225,27.875],[112.25,27.825],[112.45,27.8],[112.475,27.725],[112.7,27.7],[112.825,27.65],[112.9,27.525],[113.1,27.55],[113.125,27.45],[113.275,27.425],[113.625,27.45],[113.725,27.35],[113.925,27.425],[114.1,27.425],[114.2,27.5],[114.35,27.325],[114.475,27.275],[114.525,27.125],[114.525,26.825],[114.45,26.7],[114.25,26.65],[114.05,26.425],[114.0,26.3],[114.0,26.125],[113.95,26.1],[113.95,25.875],[113.825,25.625],[113.825,25.525],[113.55,25.4],[113.55,25.175],[113.475,25.025],[113.4,25.025],[113.225,25.1],[113.225,25.0],[113.0,24.9],[112.725,24.9],[112.675,24.825],[112.5,24.75],[112.275,24.75],[111.975,24.875],[111.8,24.85],[111.625,25.125],[111.5,25.175],[111.475,25.325],[111.325,25.45],[111.2,25.375],[110.975,25.475],[110.975,25.55],[110.8,25.7],[110.85,25.825],[110.725,25.95],[110.725,26.05],[110.475,26.15],[110.4,26.05],[110.2,26.05],[110.2,25.875],[110.05,25.825],[109.9,25.575],[109.825,25.55],[109.675,25.7],[109.425,25.8],[109.35,25.725],[109.15,25.725],[109.025,25.775],[108.675,25.75],[108.65,25.825],[108.475,25.875],[108.15,25.875],[108.125,26.0],[108.15,26.325],[107.95,26.4],[107.825,26.4],[107.675,26.175]]]}},{"type":"Feature","properties":{"focus":false,"kind":"state","approx":true,"color":"#7272a8","name":"Baiyue","name_zh":"百越","label":[115.72,26.47],"area":35.8},"geometry":{"type":"MultiPolygon","coordinates":[[[[113.825,25.625],[113.95,25.875],[113.95,26.1],[114.0,26.125],[114.0,26.3],[114.05,26.425],[114.25,26.65],[114.45,26.7],[114.525,26.825],[114.525,27.125],[114.475,27.275],[114.35,27.325],[114.2,27.5],[114.225,27.875],[114.3,28.05],[114.225,28.15],[114.2,28.325],[114.3,28.45],[114.4,28.675],[114.725,28.725],[114.95,28.9],[114.95,29.125],[114.9,29.225],[114.9,29.4],[115.05,29.5],[115.225,29.5],[115.45,29.6],[115.475,29.55],[115.675,29.55],[115.9,29.6],[115.925,29.55],[116.125,29.525],[116.175,29.775],[116.275,29.775],[116.375,29.875],[116.5,29.875],[116.525,29.775],[116.7,29.75],[116.75,29.8],[117.1,29.75],[117.1,29.8],[117.3,29.975],[117.5,30.025],[117.55,29.925],[117.575,29.925],[117.525,29.825],[117.275,29.6],[117.275,29.325],[117.375,29.225],[117.375,28.975],[117.275,28.75],[117.325,28.575],[117.35,28.325],[117.425,28.225],[117.525,27.8],[117.625,27.75],[117.55,27.65],[117.6,27.5],[117.6,27.125],[117.65,27.0],[117.75,26.925],[117.775,26.8],[118.0,26.725],[118.0,26.65],[118.175,26.825],[118.625,26.85],[118.7,26.975],[119.1,27.075],[119.175,27.15],[119.275,27.125],[119.325,27.225],[119.325,27.45],[119.375,27.525],[119.625,27.525],[119.65,27.475],[119.975,27.45],[119.95,27.175],[120.15,27.175],[120.175,27.225],[120.35,27.225],[120.401,27.174],[120.388,27.159],[120.385,27.156],[120.384,27.155],[120.276,27.092],[120.164,26.924],[120.139,26.886],[120.136,26.879],[120.087,26.676],[120.087,26.672],[120.043,26.634],[119.968,26.586],[119.967,26.586],[119.882,26.61],[119.852,26.688],[119.842,26.689],[119.821,26.737],[119.817,26.777],[119.804,26.811],[119.769,26.78],[119.767,26.775],[119.715,26.732],[119.71,26.728],[119.593,26.761],[119.62,26.682],[119.624,26.676],[119.63,26.65],[119.639,26.625],[119.714,26.611],[119.726,26.609],[119.785,26.547],[119.831,26.45],[119.835,26.434],[119.849,26.404],[119.876,26.371],[119.881,26.334],[119.692,26.236],[119.567,26.127],[119.47,26.059],[119.463,26.054],[119.452,26.055],[119.37,26.054],[119.319,26.062],[119.313,26.062],[119.192,26.111],[119.171,26.091],[119.248,25.993],[119.262,25.976],[119.332,25.949],[119.418,25.955],[119.5,26.009],[119.501,26.009],[119.619,26.004],[119.648,25.919],[119.617,25.823],[119.556,25.704],[119.553,25.698],[119.54,25.595],[119.549,25.574],[119.619,25.437],[119.622,25.391],[119.593,25.368],[119.592,25.368],[119.588,25.37],[119.499,25.409],[119.444,25.445],[119.419,25.458],[119.41,25.458],[119.344,25.446],[119.319,25.453],[119.177,25.446],[119.149,25.411],[119.159,25.381],[119.169,25.357],[119.171,25.355],[119.244,25.307],[119.286,25.232],[119.281,25.23],[119.235,25.205],[118.974,25.205],[118.966,25.194],[118.917,25.128],[118.946,25.034],[118.956,25.005],[118.942,24.983],[118.909,24.928],[118.726,24.859],[118.708,24.85],[118.69,24.846],[118.644,24.829],[118.681,24.788],[118.692,24.782],[118.719,24.746],[118.657,24.621],[118.655,24.621],[118.56,24.58],[118.412,24.6],[118.295,24.572],[118.195,24.625],[118.093,24.626],[118.021,24.567],[118.014,24.56],[118.006,24.482],[117.935,24.474],[117.897,24.48],[117.843,24.474],[117.848,24.432],[117.879,24.396],[118.024,24.38],[118.051,24.327],[118.056,24.246],[117.904,24.106],[117.839,24.012],[117.742,24.015],[117.668,23.939],[117.628,23.837],[117.579,23.857],[117.466,23.841],[117.433,23.792],[117.46,23.771],[117.462,23.736],[117.417,23.621],[117.368,23.589],[117.347,23.636],[117.331,23.709],[117.291,23.714],[117.225,23.647],[117.148,23.599],[117.083,23.579],[117.033,23.623],[116.911,23.647],[116.861,23.453],[116.76,23.383],[116.712,23.36],[116.629,23.354],[116.682,23.327],[116.699,23.278],[116.669,23.228],[116.586,23.218],[116.538,23.18],[116.52,23.007],[116.471,22.946],[116.346,22.941],[116.252,22.981],[116.222,22.95],[116.206,22.919],[116.157,22.887],[116.063,22.879],[115.852,22.802],[115.756,22.824],[115.64,22.853],[115.579,22.831],[115.55,22.85],[115.5,22.975],[115.325,23.15],[115.225,23.2],[115.075,23.15],[114.825,23.175],[114.7,23.325],[114.6,23.35],[114.7,23.45],[114.625,23.625],[114.45,23.625],[114.35,23.675],[114.3,23.975],[114.175,24.025],[114.15,24.1],[114.3,24.325],[114.425,24.375],[114.425,24.5],[114.325,24.525],[114.175,24.675],[113.95,24.575],[113.9,24.65],[113.75,24.625],[113.575,24.725],[113.575,24.85],[113.425,25.025],[113.475,25.025],[113.55,25.175],[113.55,25.4],[113.825,25.525],[113.825,25.625]]],[[[119.778,25.653],[119.78,25.65],[119.815,25.614],[119.829,25.607],[119.838,25.591],[119.839,25.56],[119.816,25.52],[119.813,25.51],[119.829,25.483],[119.832,25.48],[119.821,25.457],[119.748,25.411],[119.746,25.41],[119.7,25.432],[119.7,25.434],[119.699,25.495],[119.719,25.54],[119.72,25.548],[119.696,25.59],[119.696,25.591],[119.717,25.629],[119.722,25.638],[119.723,25.639],[119.772,25.652],[119.777,25.653],[119.778,25.653]]],[[[118.089,24.489],[118.077,24.501],[118.093,24.541],[118.102,24.551],[118.103,24.552],[118.104,24.552],[118.171,24.519],[118.183,24.496],[118.15,24.436],[118.091,24.446],[118.089,24.489]]],[[[105.15,27.35],[105.25,27.45],[105.675,27.425],[105.725,27.325],[105.85,27.325],[105.85,27.525],[106.175,27.825],[106.375,27.725],[106.5,27.725],[106.525,27.825],[106.65,27.8],[106.75,27.85],[106.775,27.95],[106.925,28.05],[107.2,28.0],[107.4,27.925],[107.375,27.775],[107.425,27.725],[107.4,27.4],[107.525,27.25],[107.525,27.125],[107.45,26.95],[107.45,26.75],[107.4,26.65],[107.4,26.45],[107.5,26.225],[107.675,26.175],[107.825,26.4],[107.95,26.4],[108.15,26.325],[108.125,26.0],[107.85,26.0],[107.7,25.825],[107.7,25.525],[107.625,25.4],[107.625,25.225],[107.7,25.175],[107.7,25.0],[107.525,24.85],[107.525,24.5],[107.425,24.525],[107.3,24.65],[107.3,24.8],[107.225,24.875],[107.1,24.825],[107.075,24.725],[106.95,24.675],[106.875,24.525],[106.75,24.525],[106.7,24.425],[106.55,24.475],[106.175,24.475],[106.075,24.35],[105.7,24.3],[105.475,24.35],[105.325,24.45],[105.225,24.625],[104.95,24.625],[104.9,24.75],[104.8,24.7],[104.75,24.85],[104.6,24.925],[104.525,25.05],[104.525,25.225],[104.375,25.35],[104.2,25.325],[104.125,25.375],[104.175,25.675],[104.35,25.875],[104.35,26.175],[104.425,26.35],[104.475,26.575],[104.7,26.9],[104.5,26.975],[104.5,27.15],[104.625,27.175],[104.75,27.275],[105.15,27.35]]]]}},{"type":"Feature","properties":{"focus":true,"kind":"state","approx":true,"color":"#c9a227","name":"Zhou royal domain","name_zh":"周","label":[112.55,34.45],"area":3.2},"geometry":{"type":"Polygon","coordinates":[[[111.875,35.1],[111.95,35.25],[111.95,35.425],[112.25,35.325],[112.3,35.275],[112.6,35.275],[112.625,35.225],[112.675,35.225],[112.725,35.125],[112.975,35.1],[113.125,35.025],[113.175,34.925],[113.275,34.975],[113.575,34.975],[113.6,34.925],[113.425,34.6],[113.15,34.575],[112.975,34.45],[113.0,34.3],[113.075,34.275],[113.1,34.15],[113.025,34.025],[113.025,33.825],[112.9,33.575],[112.875,33.35],[112.75,33.25],[112.675,33.125],[112.325,33.125],[112.2,33.225],[112.2,33.325],[112.075,33.375],[112.025,33.375],[111.8,33.65],[111.65,33.65],[111.375,33.8],[111.375,34.075],[111.225,34.25],[111.125,34.25],[111.225,34.475],[111.3,34.475],[111.425,34.625],[111.425,34.85],[111.4,35.0],[111.55,35.075],[111.575,34.975],[111.875,35.1]]]}},{"type":"Feature","properties":{"focus":true,"kind":"state","approx":true,"color":"#c0703f","name":"Han","name_zh":"韩","label":[112.18,36.25],"area":7.5},"geometry":{"type":"MultiPolygon","coordinates":[[[[112.9,33.575],[113.025,33.825],[113.025,34.025],[113.1,34.15],[113.075,34.275],[113.0,34.3],[112.975,34.45],[113.15,34.575],[113.425,34.6],[113.6,34.925],[113.975,34.625],[114.125,34.475],[114.15,34.375],[114.475,34.075],[114.525,33.975],[114.55,33.975],[114.275,33.675],[113.875,33.5],[113.775,33.425],[113.6,33.4],[113.375,33.3],[113.2,33.125],[112.85,32.975],[112.7,33.125],[112.675,33.125],[112.75,33.25],[112.875,33.35],[112.9,33.575]]],[[[111.7,37.4],[111.725,37.3],[111.875,37.15],[112.05,37.075],[112.1,36.85],[112.075,36.8],[112.25,36.825],[112.525,37.0],[112.65,37.15],[112.975,37.15],[112.975,37.125],[113.325,37.125],[113.475,37.2],[113.5,37.15],[113.475,37.15],[113.35,36.925],[113.55,36.55],[113.55,36.225],[113.525,36.075],[113.4,35.95],[113.4,35.725],[113.15,35.475],[113.1,35.375],[112.925,35.275],[112.725,35.275],[112.7,35.225],[112.625,35.225],[112.6,35.275],[112.3,35.275],[112.25,35.325],[111.95,35.425],[111.95,35.25],[111.875,35.1],[111.575,34.975],[111.55,35.075],[111.4,35.0],[111.425,34.85],[111.125,34.825],[111.025,34.85],[110.75,34.825],[110.7,35.1],[110.475,35.375],[110.55,35.4],[110.625,35.55],[110.6,35.775],[110.5,35.925],[110.45,36.1],[110.5,36.625],[110.45,36.65],[110.425,36.9],[110.775,36.875],[111.075,36.95],[111.175,37.2],[111.375,37.4],[111.425,37.5],[111.55,37.55],[111.7,37.4]]]]}},{"type":"Feature","properties":{"focus":true,"kind":"state","approx":true,"color":"#3d3d4f","name":"Qin","name_zh":"秦","label":[108.66,33.59],"area":68.2},"geometry":{"type":"Polygon","coordinates":[[[103.85,33.7],[103.875,33.85],[104.05,34.125],[104.25,34.125],[104.425,34.25],[104.625,34.3],[104.475,34.425],[104.325,34.45],[104.2,34.7],[104.325,34.775],[104.45,34.775],[104.575,34.875],[104.6,35.0],[104.775,34.975],[104.925,35.35],[105.0,35.375],[104.975,35.525],[105.1,35.75],[105.1,36.0],[105.225,36.15],[105.45,36.3],[105.6,36.275],[105.725,36.125],[105.975,36.075],[106.225,35.725],[106.225,35.575],[106.4,35.3],[106.475,35.1],[106.7,35.05],[106.725,35.1],[107.325,35.05],[107.475,34.85],[107.575,35.075],[107.825,35.175],[108.0,35.325],[108.3,35.45],[108.55,35.45],[108.475,35.6],[108.5,35.825],[108.375,35.975],[108.35,36.15],[108.3,36.175],[108.3,36.525],[108.275,36.525],[108.275,36.85],[108.375,36.925],[108.4,37.15],[107.85,37.3],[107.925,37.4],[107.925,37.6],[107.825,37.725],[107.775,37.925],[107.7,38.025],[107.7,38.175],[107.625,38.3],[107.625,38.55],[107.45,38.7],[107.475,39.05],[107.55,39.275],[107.7,39.5],[107.7,39.675],[107.55,39.75],[107.2,39.775],[107.2,39.925],[107.4,40.0],[107.525,40.125],[107.575,40.275],[107.85,40.35],[108.025,40.225],[108.15,40.225],[108.25,40.1],[108.525,40.025],[108.75,40.025],[108.925,39.9],[109.075,39.95],[109.425,39.95],[109.55,39.775],[109.85,39.8],[109.9,39.75],[110.225,39.7],[110.3,39.6],[110.3,39.475],[110.425,39.35],[110.525,39.325],[110.6,39.05],[110.725,38.8],[110.9,38.725],[110.9,38.525],[110.775,38.45],[110.675,38.3],[110.525,38.2],[110.525,38.0],[110.625,37.95],[110.775,37.725],[110.8,37.575],[111.025,37.525],[111.025,37.425],[111.175,37.2],[111.075,36.95],[110.775,36.875],[110.425,36.9],[110.45,36.65],[110.5,36.625],[110.45,36.1],[110.5,35.925],[110.6,35.775],[110.625,35.55],[110.55,35.4],[110.475,35.375],[110.7,35.1],[110.75,34.825],[111.025,34.85],[111.125,34.825],[111.425,34.85],[111.425,34.625],[111.3,34.475],[111.225,34.475],[111.125,34.25],[111.225,34.25],[111.375,34.075],[111.375,33.8],[111.65,33.65],[111.8,33.65],[112.025,33.375],[112.0,33.375],[111.775,33.175],[111.75,33.075],[111.45,32.825],[111.3,32.825],[111.2,32.7],[111.025,32.725],[110.875,32.825],[110.825,32.575],[110.725,32.5],[110.75,32.35],[110.925,32.25],[110.925,32.025],[110.825,31.85],[110.525,31.75],[110.475,31.575],[110.35,31.475],[110.175,31.475],[110.175,30.925],[110.125,30.8],[110.05,30.8],[109.875,30.75],[109.725,30.8],[109.575,30.675],[109.275,30.55],[109.05,30.4],[108.925,30.225],[108.625,30.225],[108.5,30.15],[108.3,29.8],[108.175,29.7],[108.15,29.375],[108.025,29.2],[108.025,28.925],[107.85,28.825],[107.825,28.45],[107.775,28.35],[107.675,28.325],[107.475,28.15],[107.4,27.925],[107.2,28.0],[106.925,28.05],[106.775,27.95],[106.75,27.85],[106.65,27.8],[106.525,27.825],[106.5,27.725],[106.375,27.725],[106.175,27.825],[105.85,27.525],[105.85,27.325],[105.725,27.325],[105.675,27.425],[105.25,27.45],[105.15,27.35],[104.75,27.275],[104.625,27.175],[104.5,27.15],[104.5,26.975],[104.275,26.925],[104.175,26.975],[104.15,27.1],[103.975,27.1],[103.925,27.15],[103.9,27.35],[103.775,27.55],[103.6,27.65],[103.2,27.55],[103.125,27.625],[103.15,27.825],[103.1,27.85],[102.9,27.65],[102.775,27.7],[102.575,28.0],[102.5,28.025],[102.325,28.225],[102.0,28.225],[101.7,28.275],[101.675,28.45],[101.575,28.575],[101.375,28.65],[101.425,28.9],[101.375,28.925],[101.325,29.225],[101.525,29.35],[101.525,29.5],[101.75,29.75],[101.7,29.95],[101.7,30.4],[101.725,30.5],[101.65,30.6],[101.675,30.825],[101.6,30.875],[101.575,31.0],[101.725,31.15],[101.75,31.0],[101.9,31.0],[102.0,30.875],[102.175,30.875],[102.25,30.975],[102.25,31.125],[102.35,31.225],[102.35,31.4],[102.625,31.425],[102.65,31.65],[102.85,31.775],[102.8,31.975],[102.7,32.0],[102.7,32.175],[102.75,32.3],[102.975,32.6],[103.05,32.65],[103.35,32.625],[103.6,32.85],[103.6,32.95],[103.5,33.025],[103.475,33.25],[103.525,33.4],[103.525,33.625],[103.6,33.675],[103.85,33.7]]]}},{"type":"Feature","properties":{"focus":true,"kind":"state","approx":true,"color":"#2f6f8f","name":"Zhao","name_zh":"赵","label":[112.45,39.31],"area":23.2},"geometry":{"type":"Polygon","coordinates":[[[107.55,41.25],[107.375,41.25],[107.35,41.35],[107.475,41.525],[107.725,41.575],[108.225,41.55],[108.4,41.625],[108.475,41.725],[108.6,41.775],[109.1,41.775],[109.35,41.725],[109.475,41.65],[109.875,41.8],[110.3,41.8],[110.55,41.675],[110.75,41.65],[110.85,41.5],[110.9,41.325],[110.975,41.325],[111.125,41.475],[111.325,41.45],[111.35,41.4],[111.725,41.45],[111.875,41.35],[112.0,41.375],[112.075,41.475],[112.3,41.5],[112.4,41.425],[112.575,41.4],[112.675,41.3],[112.925,41.375],[112.95,41.5],[113.15,41.65],[113.175,41.75],[113.325,41.775],[113.45,41.625],[113.5,41.3],[113.7,41.25],[113.75,41.175],[113.975,41.125],[114.025,41.075],[114.075,40.775],[114.275,40.775],[114.45,40.65],[114.525,40.5],[114.525,40.325],[114.825,40.275],[114.85,40.15],[115.0,40.15],[115.075,39.95],[114.825,39.7],[114.7,39.65],[114.75,39.525],[114.75,39.35],[114.825,39.325],[114.85,39.175],[114.8,39.15],[114.775,38.95],[114.875,38.675],[115.0,38.45],[115.0,38.175],[115.1,38.0],[115.125,37.875],[115.15,37.875],[114.975,37.5],[114.95,37.35],[114.775,37.1],[114.55,36.85],[114.4,36.775],[114.225,36.8],[114.075,36.9],[113.675,36.95],[113.55,37.15],[113.5,37.15],[113.475,37.2],[113.325,37.125],[112.975,37.125],[112.975,37.15],[112.65,37.15],[112.525,37.0],[112.25,36.825],[112.075,36.8],[112.1,36.85],[112.05,37.075],[111.875,37.15],[111.725,37.3],[111.7,37.4],[111.55,37.55],[111.425,37.5],[111.375,37.4],[111.175,37.2],[111.025,37.425],[111.025,37.525],[110.8,37.575],[110.775,37.725],[110.625,37.95],[110.525,38.0],[110.525,38.2],[110.675,38.3],[110.775,38.45],[110.9,38.525],[110.9,38.725],[110.725,38.8],[110.6,39.05],[110.525,39.325],[110.425,39.35],[110.3,39.475],[110.3,39.6],[110.225,39.7],[109.9,39.75],[109.85,39.8],[109.55,39.775],[109.425,39.95],[109.075,39.95],[108.925,39.9],[108.75,40.025],[108.525,40.025],[108.25,40.1],[108.15,40.225],[108.025,40.225],[107.85,40.35],[107.575,40.275],[107.475,40.525],[107.425,40.825],[107.5,40.95],[107.55,41.25]]]}},{"type":"Feature","properties":{"focus":true,"kind":"state","approx":true,"color":"#5b8c3a","name":"Wei","name_zh":"魏","label":[113.86,35.45],"area":3.3},"geometry":{"type":"Polygon","coordinates":[[[113.1,35.375],[113.15,35.475],[113.4,35.725],[113.4,35.95],[113.525,36.075],[113.55,36.225],[113.55,36.55],[113.35,36.925],[113.475,37.15],[113.55,37.15],[113.675,36.95],[114.075,36.9],[114.225,36.8],[114.4,36.775],[114.55,36.85],[114.7,36.675],[114.725,36.35],[114.675,36.25],[114.675,36.05],[114.525,35.85],[114.35,35.75],[114.325,35.575],[114.325,35.25],[114.575,35.0],[114.6,34.9],[114.7,34.9],[114.85,35.025],[114.85,35.1],[114.925,35.1],[114.95,34.875],[115.025,34.75],[115.0,34.325],[114.95,34.275],[114.85,33.975],[114.525,33.975],[114.475,34.075],[114.15,34.375],[114.125,34.475],[113.975,34.625],[113.6,34.925],[113.575,34.975],[113.275,34.975],[113.175,34.925],[113.125,35.025],[112.975,35.1],[112.725,35.125],[112.675,35.225],[112.7,35.225],[112.725,35.275],[112.925,35.275],[113.1,35.375]]]}},{"type":"Feature","properties":{"focus":true,"kind":"state","approx":true,"color":"#8a6f9e","minor":true,"name":"Wey","name_zh":"卫","label":[115.06,35.79],"area":1.3},"geometry":{"type":"Polygon","coordinates":[[[115.525,36.025],[115.725,35.825],[115.75,35.825],[115.725,35.775],[115.7,35.775],[115.525,35.725],[115.4,35.625],[115.35,35.5],[115.225,35.4],[115.075,35.4],[114.875,35.1],[114.85,35.1],[114.85,35.025],[114.7,34.9],[114.6,34.9],[114.575,35.0],[114.325,35.25],[114.325,35.575],[114.35,35.75],[114.525,35.85],[114.675,36.05],[114.675,36.25],[114.725,36.35],[114.7,36.675],[114.925,36.6],[115.075,36.5],[115.3,36.425],[115.525,36.025]]]}},{"type":"Feature","properties":{"focus":true,"kind":"state","approx":true,"color":"#2f8f83","name":"Qi","name_zh":"齐","label":[119.0,35.47],"area":17.4},"geometry":{"type":"MultiPolygon","coordinates":[[[[114.975,37.5],[115.15,37.875],[115.2,37.875],[115.425,38.0],[115.6,38.0],[116.05,38.2],[116.125,38.1],[116.375,38.0],[116.4,37.95],[116.6,37.875],[116.8,37.75],[116.975,37.6],[117.275,37.45],[117.525,37.45],[117.75,37.35],[117.925,37.525],[118.1,37.55],[118.2,37.875],[118.45,38.1],[118.453,38.11],[118.542,38.095],[118.546,38.096],[118.667,38.126],[118.8,38.127],[118.94,38.043],[119.028,37.904],[119.036,37.809],[119.038,37.78],[119.042,37.773],[119.07,37.749],[119.089,37.701],[119.089,37.7],[119.075,37.69],[119.033,37.661],[119.025,37.657],[118.989,37.633],[118.955,37.328],[118.956,37.327],[119.106,37.205],[119.112,37.201],[119.186,37.175],[119.29,37.138],[119.291,37.138],[119.761,37.156],[119.883,37.251],[119.883,37.28],[119.88,37.296],[119.882,37.336],[119.882,37.35],[119.883,37.35],[119.883,37.351],[120.004,37.415],[120.155,37.495],[120.298,37.612],[120.257,37.678],[120.258,37.678],[120.257,37.679],[120.285,37.692],[120.31,37.695],[120.732,37.828],[120.75,37.834],[121.049,37.725],[121.218,37.601],[121.287,37.592],[121.388,37.579],[121.401,37.572],[121.633,37.463],[121.64,37.46],[121.816,37.457],[121.952,37.446],[121.959,37.446],[121.986,37.469],[122.01,37.496],[122.057,37.529],[122.11,37.522],[122.129,37.501],[122.172,37.455],[122.338,37.405],[122.34,37.405],[122.598,37.426],[122.602,37.426],[122.667,37.403],[122.664,37.4],[122.575,37.317],[122.585,37.204],[122.587,37.181],[122.454,37.072],[122.521,37.004],[122.523,37.003],[122.52,36.947],[122.519,36.946],[122.346,36.836],[122.341,36.832],[122.34,36.832],[122.338,36.832],[122.274,36.834],[122.245,36.848],[122.242,36.849],[122.16,36.958],[121.936,36.959],[121.909,36.948],[121.67,36.836],[121.413,36.738],[121.274,36.698],[121.053,36.611],[121.052,36.611],[120.99,36.598],[120.919,36.622],[120.812,36.63],[120.807,36.599],[120.883,36.539],[120.905,36.485],[120.896,36.444],[120.858,36.43],[120.847,36.426],[120.774,36.453],[120.712,36.412],[120.682,36.339],[120.681,36.168],[120.638,36.13],[120.542,36.113],[120.393,36.053],[120.39,36.055],[120.348,36.079],[120.331,36.109],[120.33,36.11],[120.325,36.224],[120.182,36.201],[120.18,36.2],[120.101,36.111],[120.126,36.082],[120.18,36.019],[120.186,36.017],[120.265,36.007],[120.285,35.984],[120.219,35.935],[120.065,35.866],[120.058,35.862],[120.049,35.848],[120.027,35.799],[119.979,35.74],[119.976,35.739],[119.866,35.643],[119.859,35.64],[119.811,35.618],[119.746,35.597],[119.717,35.586],[119.715,35.584],[119.526,35.358],[119.429,35.299],[119.4,35.229],[119.353,35.114],[119.352,35.113],[119.34,35.104],[119.15,35.175],[119.075,35.25],[118.95,35.075],[118.875,35.075],[118.75,35.15],[118.55,35.4],[118.35,35.575],[118.35,35.85],[118.175,36.1],[118.05,36.2],[117.775,36.25],[117.7,36.15],[117.6,36.15],[117.35,36.4],[117.225,36.4],[117.1,36.275],[116.925,36.225],[116.85,36.125],[116.35,36.15],[116.2,36.175],[116.1,36.1],[116.05,35.975],[115.925,35.975],[115.875,35.85],[115.775,35.825],[115.725,35.825],[115.525,36.025],[115.3,36.425],[115.075,36.5],[114.925,36.6],[114.7,36.675],[114.55,36.85],[114.775,37.1],[114.95,37.35],[114.975,37.5]]],[[[115.35,35.5],[115.4,35.625],[115.525,35.725],[115.7,35.775],[115.75,35.775],[115.825,35.525],[116.05,35.3],[116.1,35.05],[116.225,34.775],[116.425,34.65],[116.575,34.65],[117.0,34.875],[117.275,34.875],[117.45,34.925],[117.675,34.525],[117.8,34.425],[117.825,34.425],[117.8,34.225],[117.675,33.85],[117.675,33.6],[117.575,33.425],[117.575,33.25],[117.5,32.95],[117.175,32.95],[117.1,32.8],[116.85,32.75],[116.775,32.85],[116.55,32.925],[116.275,32.925],[116.05,32.825],[116.025,32.775],[115.875,32.8],[115.575,33.125],[115.5,33.175],[115.45,33.325],[115.075,33.675],[114.85,33.975],[114.95,34.275],[115.0,34.325],[115.025,34.75],[114.95,34.875],[114.925,35.1],[114.875,35.1],[115.075,35.4],[115.225,35.4],[115.35,35.5]]]]}},{"type":"Feature","properties":{"focus":true,"kind":"state","approx":true,"color":"#9a7b4f","minor":true,"name":"Lu","name_zh":"鲁","label":[117.24,35.34],"area":3.9},"geometry":{"type":"Polygon","coordinates":[[[115.875,35.85],[115.925,35.975],[116.05,35.975],[116.1,36.1],[116.2,36.175],[116.35,36.15],[116.85,36.125],[116.925,36.225],[117.1,36.275],[117.225,36.4],[117.35,36.4],[117.6,36.15],[117.7,36.15],[117.775,36.25],[118.05,36.2],[118.175,36.1],[118.35,35.85],[118.35,35.575],[118.55,35.4],[118.75,35.15],[118.875,35.075],[118.9,35.075],[118.825,34.875],[118.625,34.675],[118.425,34.525],[118.125,34.425],[117.8,34.425],[117.675,34.525],[117.45,34.925],[117.275,34.875],[117.0,34.875],[116.575,34.65],[116.425,34.65],[116.225,34.775],[116.1,35.05],[116.05,35.3],[115.825,35.525],[115.75,35.775],[115.725,35.775],[115.75,35.825],[115.775,35.825],[115.875,35.85]]]}},{"type":"Feature","properties":{"focus":true,"kind":"state","approx":true,"color":"#a33e3e","name":"Chu","name_zh":"楚","label":[115.68,30.86],"area":48.6},"geometry":{"type":"MultiPolygon","coordinates":[[[[122.367,29.852],[122.331,29.934],[122.332,29.934],[122.332,29.935],[122.351,29.955],[122.402,29.95],[122.404,29.892],[122.394,29.846],[122.367,29.852]]],[[[122.111,30.14],[122.284,30.068],[122.322,30.031],[122.296,29.963],[122.283,29.945],[122.281,29.943],[122.157,30.0],[122.024,30.013],[121.977,30.063],[121.969,30.143],[122.111,30.14]]],[[[122.169,29.66],[122.042,29.735],[122.055,29.759],[122.062,29.773],[122.12,29.782],[122.165,29.701],[122.173,29.679],[122.169,29.66]]],[[[110.35,31.475],[110.475,31.575],[110.525,31.75],[110.825,31.85],[110.925,32.025],[110.925,32.25],[110.75,32.35],[110.725,32.5],[110.825,32.575],[110.875,32.825],[111.025,32.725],[111.2,32.7],[111.3,32.825],[111.45,32.825],[111.75,33.075],[111.775,33.175],[112.0,33.375],[112.075,33.375],[112.2,33.325],[112.2,33.225],[112.325,33.125],[112.7,33.125],[112.85,32.975],[113.2,33.125],[113.375,33.3],[113.6,33.4],[113.775,33.425],[113.875,33.5],[114.275,33.675],[114.55,33.975],[114.85,33.975],[115.075,33.675],[115.45,33.325],[115.5,33.175],[115.575,33.125],[115.875,32.8],[116.025,32.775],[116.05,32.825],[116.275,32.925],[116.55,32.925],[116.775,32.85],[116.85,32.75],[117.1,32.8],[117.175,32.95],[117.5,32.95],[117.575,33.25],[117.575,33.425],[117.675,33.6],[117.675,33.85],[117.8,34.225],[117.825,34.425],[118.125,34.425],[118.425,34.525],[118.625,34.675],[118.825,34.875],[118.9,35.075],[118.95,35.075],[119.075,35.25],[119.15,35.175],[119.34,35.104],[119.214,35.007],[119.197,34.95],[119.166,34.849],[119.189,34.783],[119.198,34.756],[119.343,34.749],[119.351,34.749],[119.427,34.714],[119.581,34.584],[119.584,34.582],[119.587,34.58],[119.957,34.449],[119.964,34.448],[120.201,34.326],[120.267,34.274],[120.323,34.169],[120.357,34.068],[120.494,33.727],[120.5,33.716],[120.502,33.681],[120.506,33.637],[120.616,33.491],[120.622,33.478],[120.868,33.021],[120.871,33.017],[120.897,32.843],[120.889,32.829],[120.853,32.762],[120.853,32.761],[120.856,32.66],[120.903,32.627],[120.99,32.567],[121.293,32.457],[121.342,32.425],[121.401,32.372],[121.402,32.337],[121.408,32.202],[121.419,32.19],[121.481,32.129],[121.491,32.121],[121.674,32.051],[121.751,31.993],[121.832,31.9],[121.856,31.816],[121.866,31.704],[121.866,31.703],[121.86,31.703],[121.764,31.7],[121.683,31.712],[121.68,31.712],[121.351,31.858],[121.145,31.842],[120.973,31.869],[120.789,32.032],[120.523,32.105],[120.184,31.966],[120.074,31.959],[120.081,31.928],[120.191,31.906],[120.488,32.016],[120.497,32.02],[120.716,31.984],[120.752,31.923],[120.778,31.848],[120.792,31.818],[121.05,31.721],[121.055,31.719],[121.205,31.628],[121.351,31.485],[121.661,31.32],[121.786,31.163],[121.834,31.062],[121.878,30.917],[121.801,30.884],[121.769,30.87],[121.528,30.841],[121.473,30.815],[121.419,30.79],[121.31,30.7],[121.309,30.699],[120.999,30.558],[120.904,30.404],[120.897,30.393],[120.88,30.384],[120.821,30.354],[120.536,30.389],[120.447,30.386],[120.269,30.295],[120.271,30.262],[120.35,30.248],[120.455,30.288],[120.494,30.303],[120.495,30.303],[120.503,30.293],[120.642,30.134],[120.658,30.136],[120.904,30.161],[121.04,30.236],[121.159,30.302],[121.258,30.304],[121.341,30.282],[121.433,30.227],[121.678,29.979],[121.812,29.952],[121.868,29.928],[122.016,29.888],[122.017,29.888],[122.083,29.87],[122.036,29.846],[121.905,29.779],[121.676,29.583],[121.56,29.523],[121.578,29.495],[121.689,29.511],[121.697,29.516],[121.822,29.605],[121.888,29.628],[121.941,29.606],[121.968,29.491],[121.918,29.135],[121.913,29.135],[121.853,29.128],[121.791,29.223],[121.718,29.254],[121.707,29.253],[121.656,29.236],[121.55,29.237],[121.534,29.235],[121.462,29.154],[121.509,29.121],[121.521,29.118],[121.665,29.011],[121.68,28.953],[121.641,28.916],[121.633,28.917],[121.608,28.897],[121.658,28.854],[121.663,28.851],[121.63,28.768],[121.59,28.735],[121.587,28.734],[121.425,28.85],[121.425,28.925],[121.3,29.0],[121.3,29.1],[121.175,29.25],[121.25,29.325],[121.25,29.55],[121.15,29.725],[121.0,29.65],[120.825,29.65],[120.625,29.7],[120.525,29.95],[120.175,29.95],[119.975,29.975],[119.925,29.85],[119.775,29.8],[119.625,29.925],[119.425,29.95],[119.35,30.025],[119.125,30.075],[118.9,30.05],[118.9,30.1],[118.675,30.075],[118.625,30.125],[118.35,30.1],[118.275,30.05],[118.125,30.075],[118.025,30.0],[117.675,29.925],[117.55,29.925],[117.5,30.025],[117.3,29.975],[117.1,29.8],[117.1,29.75],[116.75,29.8],[116.7,29.75],[116.525,29.775],[116.5,29.875],[116.375,29.875],[116.275,29.775],[116.175,29.775],[116.125,29.525],[115.925,29.55],[115.9,29.6],[115.675,29.55],[115.475,29.55],[115.45,29.6],[115.225,29.5],[115.05,29.5],[114.9,29.4],[114.9,29.225],[114.95,29.125],[114.95,28.9],[114.725,28.725],[114.4,28.675],[114.3,28.45],[114.2,28.325],[114.225,28.15],[114.3,28.05],[114.225,27.875],[114.2,27.5],[114.1,27.425],[113.925,27.425],[113.725,27.35],[113.625,27.45],[113.275,27.425],[113.125,27.45],[113.1,27.55],[112.9,27.525],[112.825,27.65],[112.7,27.7],[112.475,27.725],[112.45,27.8],[112.25,27.825],[112.225,27.875],[111.925,27.975],[111.875,28.05],[111.5,27.9],[111.375,27.95],[111.15,27.975],[111.175,28.15],[111.025,28.15],[110.925,28.25],[110.825,28.5],[110.85,28.65],[110.8,28.75],[110.9,28.775],[110.775,28.975],[110.8,29.1],[110.9,29.225],[110.875,29.575],[110.8,29.675],[110.675,29.675],[110.575,29.925],[110.45,30.025],[110.475,30.15],[110.35,30.175],[110.325,30.325],[110.2,30.35],[110.2,30.5],[110.3,30.575],[110.175,30.8],[110.125,30.8],[110.175,30.925],[110.175,31.475],[110.35,31.475]]],[[[121.863,31.492],[121.862,31.492],[121.78,31.463],[121.519,31.549],[121.336,31.643],[121.331,31.649],[121.227,31.758],[121.211,31.804],[121.211,31.805],[121.339,31.797],[121.464,31.756],[121.478,31.725],[121.492,31.694],[121.494,31.693],[121.542,31.674],[121.576,31.638],[121.728,31.582],[121.808,31.552],[121.844,31.526],[121.863,31.492]]]]}},{"type":"Feature","properties":{"focus":true,"kind":"state","approx":true,"color":"#4f6db8","name":"Yan","name_zh":"燕","label":[116.66,40.6],"area":30.7},"geometry":{"type":"Polygon","coordinates":[[[113.85,41.95],[113.875,42.0],[114.05,42.0],[114.225,42.05],[114.275,42.225],[114.2,42.425],[114.3,42.525],[114.35,42.725],[114.4,42.725],[114.575,42.925],[114.95,42.875],[115.0,42.825],[115.7,42.775],[115.85,42.725],[116.075,42.575],[115.975,42.45],[115.975,42.175],[116.025,42.1],[116.0,41.875],[116.125,41.775],[116.15,41.65],[116.4,41.625],[116.45,41.55],[116.725,41.475],[116.725,41.4],[117.1,41.4],[117.175,41.35],[117.35,41.35],[117.4,41.45],[117.525,41.5],[117.55,41.575],[117.85,41.475],[117.85,41.525],[118.05,41.625],[118.2,41.75],[118.3,41.75],[118.45,41.6],[118.475,41.3],[118.875,41.2],[119.0,41.125],[119.125,41.125],[119.275,40.975],[119.425,40.975],[119.55,40.85],[119.575,40.675],[119.75,40.675],[119.9,40.825],[120.025,40.875],[120.05,41.05],[120.175,41.15],[120.225,41.275],[120.225,41.475],[120.1,41.65],[120.15,41.975],[120.325,42.0],[120.5,42.125],[120.5,42.225],[120.625,42.35],[120.7,42.35],[120.9,42.575],[121.1,42.575],[121.175,42.65],[121.375,42.7],[121.45,42.875],[121.45,43.075],[121.875,43.1],[121.875,43.075],[122.375,43.075],[122.5,43.175],[122.675,43.225],[122.725,43.3],[123.025,43.375],[123.1,43.325],[123.55,43.3],[123.525,43.125],[123.725,43.125],[123.9,43.225],[124.025,43.225],[124.325,42.925],[124.525,42.975],[124.625,42.85],[124.65,42.675],[124.775,42.575],[124.8,42.475],[124.9,42.45],[124.875,42.275],[124.975,42.225],[125.125,41.9],[125.225,41.9],[125.275,41.675],[125.125,41.55],[125.125,41.475],[124.925,41.325],[124.925,40.85],[125.125,40.75],[125.15,40.575],[125.025,40.525],[125.0,40.2],[124.825,40.075],[124.825,40.0],[124.675,39.9],[124.589,39.745],[124.557,39.791],[124.527,39.805],[124.522,39.808],[124.404,39.866],[124.355,39.902],[124.348,39.906],[124.37,39.982],[124.347,40.002],[124.271,39.928],[124.267,39.924],[124.106,39.841],[124.085,39.84],[123.76,39.822],[123.65,39.876],[123.582,39.789],[123.581,39.786],[123.49,39.768],[123.362,39.763],[123.348,39.762],[123.226,39.686],[123.032,39.672],[122.96,39.619],[122.839,39.6],[122.481,39.434],[122.335,39.366],[122.225,39.267],[122.121,39.152],[122.048,39.094],[121.982,39.053],[121.864,38.996],[121.86,38.996],[121.805,38.991],[121.784,38.998],[121.674,39.0],[121.673,38.999],[121.637,38.955],[121.664,38.902],[121.67,38.892],[121.67,38.891],[121.666,38.886],[121.65,38.865],[121.517,38.831],[121.326,38.809],[121.321,38.808],[121.236,38.766],[121.207,38.744],[121.165,38.732],[121.163,38.731],[121.162,38.735],[121.122,38.813],[121.108,38.915],[121.106,38.92],[121.107,38.92],[121.107,38.921],[121.163,38.939],[121.651,39.098],[121.662,39.102],[121.627,39.22],[121.629,39.222],[121.665,39.269],[121.75,39.341],[121.752,39.342],[121.779,39.396],[121.72,39.395],[121.513,39.375],[121.356,39.377],[121.282,39.384],[121.275,39.384],[121.299,39.454],[121.267,39.544],[121.268,39.544],[121.267,39.545],[121.406,39.621],[121.47,39.64],[121.498,39.639],[121.509,39.644],[121.474,39.754],[121.474,39.755],[121.517,39.845],[121.608,39.878],[121.801,39.952],[121.805,39.956],[121.869,40.046],[121.961,40.119],[122.182,40.348],[122.189,40.356],[122.194,40.366],[122.203,40.396],[122.218,40.421],[122.27,40.539],[122.178,40.602],[122.136,40.69],[121.858,40.842],[121.826,40.964],[121.781,40.91],[121.766,40.876],[121.729,40.846],[121.728,40.846],[121.599,40.843],[121.567,40.861],[121.173,40.899],[121.058,40.811],[121.003,40.749],[120.922,40.683],[120.857,40.656],[120.776,40.594],[120.771,40.589],[120.627,40.413],[120.479,40.23],[120.063,40.076],[119.85,39.987],[119.614,39.91],[119.592,39.902],[119.406,39.764],[119.393,39.754],[119.264,39.566],[119.261,39.561],[119.225,39.408],[119.04,39.222],[118.977,39.183],[118.976,39.182],[118.975,39.182],[118.912,39.166],[118.826,39.172],[118.752,39.16],[118.632,39.176],[118.625,39.176],[118.618,39.174],[118.472,39.118],[118.298,39.067],[118.297,39.067],[118.149,39.193],[118.041,39.226],[117.867,39.191],[117.788,39.136],[117.597,38.772],[117.45,38.875],[117.0,38.875],[116.775,39.0],[116.45,38.975],[116.25,38.825],[116.175,38.575],[116.075,38.4],[116.05,38.2],[115.6,38.0],[115.425,38.0],[115.2,37.875],[115.125,37.875],[115.1,38.0],[115.0,38.175],[115.0,38.45],[114.875,38.675],[114.775,38.95],[114.8,39.15],[114.85,39.175],[114.825,39.325],[114.75,39.35],[114.75,39.525],[114.7,39.65],[114.825,39.7],[115.075,39.95],[115.0,40.15],[114.85,40.15],[114.825,40.275],[114.525,40.325],[114.525,40.5],[114.45,40.65],[114.275,40.775],[114.075,40.775],[114.025,41.075],[113.975,41.125],[113.75,41.175],[113.7,41.25],[113.5,41.3],[113.45,41.625],[113.325,41.775],[113.35,41.825],[113.525,41.825],[113.675,41.925],[113.85,41.95]]]}},{"type":"Feature","properties":{"focus":true,"kind":"state","approx":true,"color":"#5e9a2a","name":"Yue","name_zh":"越","label":[118.91,28.79],"area":10.4},"geometry":{"type":"MultiPolygon","coordinates":[[[[118.275,30.05],[118.35,30.1],[118.625,30.125],[118.675,30.075],[118.9,30.1],[118.9,30.05],[119.125,30.075],[119.35,30.025],[119.425,29.95],[119.625,29.925],[119.775,29.8],[119.925,29.85],[119.975,29.975],[120.175,29.95],[120.525,29.95],[120.625,29.7],[120.825,29.65],[121.0,29.65],[121.15,29.725],[121.25,29.55],[121.25,29.325],[121.175,29.25],[121.3,29.1],[121.3,29.0],[121.425,28.925],[121.425,28.85],[121.587,28.734],[121.556,28.724],[121.478,28.637],[121.479,28.633],[121.538,28.521],[121.602,28.367],[121.61,28.292],[121.609,28.292],[121.509,28.322],[121.354,28.229],[121.272,28.222],[121.219,28.337],[121.147,28.327],[121.097,28.287],[121.095,28.284],[121.035,28.157],[120.959,28.037],[120.938,28.027],[120.892,28.003],[120.764,28.004],[120.829,27.94],[120.833,27.938],[120.833,27.891],[120.749,27.808],[120.686,27.745],[120.665,27.642],[120.665,27.639],[120.66,27.636],[120.593,27.582],[120.628,27.485],[120.629,27.482],[120.608,27.412],[120.54,27.318],[120.482,27.268],[120.401,27.174],[120.35,27.225],[120.175,27.225],[120.15,27.175],[119.95,27.175],[119.975,27.45],[119.65,27.475],[119.625,27.525],[119.375,27.525],[119.325,27.45],[119.325,27.225],[119.275,27.125],[119.175,27.15],[119.1,27.075],[118.7,26.975],[118.625,26.85],[118.175,26.825],[118.0,26.65],[118.0,26.725],[117.775,26.8],[117.75,26.925],[117.65,27.0],[117.6,27.125],[117.6,27.5],[117.55,27.65],[117.625,27.75],[117.525,27.8],[117.425,28.225],[117.35,28.325],[117.325,28.575],[117.275,28.75],[117.375,28.975],[117.375,29.225],[117.275,29.325],[117.275,29.6],[117.525,29.825],[117.575,29.925],[117.675,29.925],[118.025,30.0],[118.125,30.075],[118.275,30.05]]],[[[121.234,28.181],[121.251,28.145],[121.251,28.086],[121.247,28.085],[121.164,28.063],[121.134,28.063],[121.131,28.062],[121.134,28.132],[121.134,28.135],[121.192,28.192],[121.205,28.204],[121.234,28.181]]]]}}],"snapped":true}