{"type":"FeatureCollection","features":[{"type":"Feature","properties":{"focus":false,"kind":"state","approx":true,"color":"#4f8f86","name":"Di peoples","name_zh":"狄","label":[109.27,38.04],"area":14.3},"geometry":{"type":"MultiPolygon","coordinates":[[[[117.7,37.375],[117.525,37.45],[117.275,37.45],[116.975,37.6],[116.8,37.75],[116.6,37.875],[116.4,37.95],[116.375,38.0],[116.125,38.1],[116.075,38.175],[116.075,38.4],[116.175,38.575],[116.225,38.75],[116.325,38.875],[116.475,38.975],[116.625,38.975],[116.725,38.9],[117.025,38.775],[117.5,38.775],[117.594,38.794],[117.554,38.691],[117.558,38.625],[117.656,38.424],[117.767,38.312],[118.015,38.184],[118.035,38.18],[118.056,38.176],[117.9,37.825],[117.8,37.675],[117.775,37.5],[117.7,37.375]]],[[[108.475,36.375],[108.4,36.475],[108.275,36.525],[108.25,36.8],[108.4,36.95],[108.4,37.175],[108.075,37.225],[107.875,37.3],[107.95,37.425],[107.95,37.6],[107.85,37.725],[107.8,37.925],[107.7,38.05],[107.7,38.225],[107.65,38.425],[107.55,38.5],[107.65,38.65],[107.725,38.85],[107.825,38.9],[108.0,39.375],[108.375,39.65],[108.65,39.675],[108.725,39.775],[108.85,39.825],[109.275,39.825],[109.525,39.675],[109.625,39.675],[109.75,39.775],[110.0,39.775],[110.1,39.725],[110.3,39.725],[110.425,39.925],[110.675,40.025],[110.75,40.125],[110.925,40.15],[110.975,40.275],[111.075,40.275],[111.2,40.175],[111.325,40.225],[111.525,40.4],[111.575,40.225],[111.7,40.125],[111.725,40.0],[111.875,39.85],[111.975,39.825],[112.125,39.65],[112.125,39.375],[112.075,39.35],[112.15,38.925],[111.875,38.75],[111.775,38.625],[111.55,38.525],[111.3,38.575],[111.225,38.475],[110.85,38.475],[110.775,38.45],[110.675,38.3],[110.5,38.2],[110.5,37.975],[110.575,37.95],[110.675,37.775],[110.55,37.65],[110.5,37.275],[110.45,37.275],[110.45,37.05],[110.4,37.025],[110.425,36.65],[110.5,36.6],[110.45,36.4],[110.45,35.9],[110.25,35.9],[110.1,35.7],[109.925,35.7],[109.875,35.75],[109.675,35.75],[109.375,35.6],[109.2,35.6],[109.075,35.55],[109.025,35.65],[108.725,35.65],[108.675,35.725],[108.55,35.7],[108.55,35.9],[108.45,36.0],[108.425,36.25],[108.475,36.375]]]]}},{"type":"Feature","properties":{"focus":false,"kind":"state","approx":true,"color":"#a07d5a","name":"Shanrong","name_zh":"山戎","label":[114.83,41.31],"area":12.2},"geometry":{"type":"Polygon","coordinates":[[[114.35,40.3],[114.35,40.5],[114.225,40.625],[114.025,40.625],[114.0,40.575],[113.85,40.6],[113.925,40.7],[113.925,40.925],[113.975,40.95],[113.975,41.175],[113.825,41.2],[113.75,41.275],[113.75,41.75],[113.775,41.925],[114.05,41.975],[114.275,42.05],[114.3,42.15],[114.45,42.275],[114.475,42.5],[114.7,42.725],[115.05,42.6],[115.125,42.5],[115.2,42.625],[115.35,42.675],[115.55,42.675],[115.75,42.625],[115.95,42.725],[116.025,42.875],[116.275,43.075],[116.325,43.025],[116.525,43.025],[116.75,42.975],[116.95,42.975],[117.025,43.15],[117.2,43.35],[117.3,43.375],[117.45,43.575],[117.55,43.575],[117.675,43.375],[117.775,43.35],[117.875,43.225],[117.85,43.025],[117.775,42.975],[117.775,42.825],[117.85,42.75],[117.825,42.6],[117.875,42.275],[118.025,42.25],[118.15,42.05],[118.3,42.05],[118.35,41.925],[118.325,41.75],[118.475,41.65],[118.5,41.325],[118.925,41.225],[118.95,41.15],[119.1,41.125],[119.2,40.975],[119.2,40.8],[119.3,40.65],[119.55,40.575],[119.625,40.425],[119.6,40.35],[119.825,40.3],[120.075,40.1],[120.075,40.074],[119.839,39.983],[119.592,39.902],[119.391,39.752],[119.265,39.566],[119.261,39.561],[119.225,39.408],[119.04,39.222],[118.977,39.183],[118.976,39.182],[118.975,39.182],[118.912,39.166],[118.826,39.172],[118.752,39.16],[118.632,39.176],[118.625,39.176],[118.618,39.174],[118.472,39.118],[118.298,39.067],[118.297,39.067],[118.149,39.193],[118.043,39.225],[117.901,39.198],[117.9,39.2],[117.725,39.35],[117.65,39.6],[117.55,39.725],[117.475,39.9],[117.45,40.35],[117.5,40.425],[117.45,40.55],[117.5,40.675],[117.275,40.7],[117.0,40.925],[116.95,41.075],[116.85,41.1],[116.775,41.2],[116.625,41.2],[116.625,41.325],[116.725,41.4],[116.725,41.5],[116.55,41.6],[116.45,41.525],[116.175,41.55],[116.125,41.4],[116.025,41.4],[115.9,41.3],[115.575,41.275],[115.45,41.225],[115.475,40.925],[115.55,40.925],[115.625,40.775],[115.625,40.625],[115.475,40.575],[115.5,40.4],[115.4,40.325],[115.25,40.325],[115.225,40.05],[115.125,40.05],[115.05,40.15],[114.825,40.15],[114.8,40.275],[114.35,40.3]]]}},{"type":"Feature","properties":{"focus":false,"kind":"state","approx":true,"color":"#6f9460","name":"Donghu","name_zh":"东胡","label":[121.93,41.49],"area":22.5},"geometry":{"type":"Polygon","coordinates":[[[119.625,40.425],[119.55,40.575],[119.3,40.65],[119.2,40.8],[119.2,40.975],[119.1,41.125],[118.95,41.15],[118.925,41.225],[118.5,41.325],[118.475,41.65],[118.325,41.75],[118.35,41.925],[118.3,42.05],[118.15,42.05],[118.025,42.25],[117.875,42.275],[117.825,42.6],[117.85,42.75],[117.775,42.825],[117.775,42.975],[117.85,43.025],[117.875,43.225],[117.775,43.35],[118.075,43.625],[118.175,43.65],[118.375,43.875],[118.475,43.9],[118.625,44.025],[118.725,44.175],[118.725,44.375],[118.95,44.45],[118.975,44.55],[119.075,44.55],[119.225,44.375],[119.425,44.325],[119.475,44.15],[119.6,44.125],[119.725,44.0],[119.8,44.0],[119.875,43.875],[120.075,43.775],[120.275,43.6],[120.375,43.45],[120.55,43.475],[120.575,43.425],[120.775,43.425],[120.975,43.525],[121.25,43.525],[121.275,43.375],[121.55,43.175],[121.575,43.1],[121.85,43.075],[122.4,43.075],[122.45,43.15],[122.625,43.2],[122.675,43.275],[122.875,43.375],[123.075,43.325],[123.55,43.3],[123.525,43.125],[123.725,43.125],[123.9,43.225],[124.1,43.175],[124.325,42.925],[124.55,42.95],[124.625,42.85],[124.625,42.725],[124.75,42.6],[124.8,42.475],[124.875,42.475],[124.875,42.275],[124.975,42.225],[125.1,41.925],[125.2,41.9],[125.275,41.8],[125.275,41.675],[125.125,41.55],[125.125,41.475],[124.925,41.325],[124.9,41.2],[124.95,41.1],[124.925,40.85],[125.15,40.7],[125.15,40.575],[125.025,40.525],[125.0,40.2],[124.825,40.075],[124.725,39.95],[124.612,39.702],[124.608,39.717],[124.557,39.791],[124.527,39.805],[124.522,39.808],[124.404,39.866],[124.355,39.902],[124.348,39.906],[124.37,39.982],[124.345,40.002],[124.273,39.93],[124.267,39.924],[124.106,39.841],[124.085,39.84],[123.76,39.822],[123.65,39.876],[123.582,39.789],[123.581,39.786],[123.49,39.768],[123.362,39.763],[123.348,39.762],[123.226,39.686],[123.032,39.672],[122.96,39.619],[122.839,39.6],[122.481,39.434],[122.335,39.366],[122.225,39.267],[122.121,39.152],[122.048,39.094],[121.982,39.053],[121.864,38.996],[121.86,38.996],[121.805,38.991],[121.784,38.998],[121.674,39.0],[121.673,38.999],[121.637,38.955],[121.664,38.902],[121.67,38.892],[121.67,38.891],[121.666,38.886],[121.65,38.865],[121.517,38.831],[121.326,38.809],[121.321,38.808],[121.236,38.766],[121.207,38.744],[121.165,38.732],[121.163,38.731],[121.162,38.735],[121.122,38.813],[121.108,38.915],[121.106,38.92],[121.107,38.92],[121.107,38.921],[121.163,38.939],[121.651,39.098],[121.662,39.102],[121.627,39.22],[121.629,39.222],[121.665,39.269],[121.75,39.341],[121.779,39.396],[121.72,39.395],[121.513,39.375],[121.356,39.377],[121.282,39.384],[121.275,39.384],[121.299,39.454],[121.267,39.544],[121.268,39.544],[121.267,39.545],[121.406,39.621],[121.47,39.64],[121.491,39.64],[121.513,39.649],[121.474,39.754],[121.474,39.755],[121.517,39.845],[121.608,39.878],[121.801,39.952],[121.805,39.956],[121.869,40.046],[121.96,40.118],[122.187,40.355],[122.195,40.369],[122.203,40.396],[122.261,40.495],[122.264,40.501],[122.268,40.544],[122.178,40.602],[122.137,40.689],[121.858,40.842],[121.824,40.964],[121.783,40.913],[121.766,40.876],[121.729,40.846],[121.728,40.846],[121.599,40.843],[121.568,40.861],[121.17,40.898],[121.061,40.814],[121.003,40.749],[120.922,40.683],[120.856,40.655],[120.777,40.594],[120.771,40.589],[120.627,40.413],[120.479,40.23],[120.075,40.074],[120.075,40.1],[119.825,40.3],[119.6,40.35],[119.625,40.425]]]}},{"type":"Feature","properties":{"focus":false,"kind":"state","approx":true,"color":"#b0805f","name":"Rong peoples","name_zh":"戎","label":[103.23,35.83],"area":13.8},"geometry":{"type":"Polygon","coordinates":[[[104.925,37.325],[105.1,37.175],[105.025,36.825],[105.15,36.775],[105.275,36.65],[105.275,36.4],[105.225,36.275],[105.0,36.125],[104.95,35.95],[104.95,35.375],[104.825,35.225],[104.775,35.025],[104.675,34.975],[104.6,35.025],[104.45,34.8],[104.2,34.7],[104.225,34.575],[104.325,34.5],[104.3,34.275],[104.25,34.2],[104.0,34.125],[103.95,34.025],[103.8,33.95],[103.825,33.7],[103.8,33.525],[103.725,33.425],[103.575,33.4],[103.525,33.2],[103.35,33.325],[103.3,33.475],[103.225,33.525],[103.175,33.775],[103.125,33.85],[102.9,34.025],[102.575,34.05],[102.525,34.1],[101.925,34.125],[101.9,34.225],[101.7,34.3],[101.475,34.525],[101.475,34.75],[101.325,34.95],[101.45,35.125],[101.55,35.175],[101.475,35.5],[101.3,35.6],[101.35,35.775],[101.35,36.05],[101.4,36.05],[101.35,36.325],[101.175,36.35],[101.075,36.45],[101.025,36.6],[101.225,36.8],[101.2,36.925],[101.25,37.0],[101.225,37.275],[101.175,37.425],[101.025,37.475],[101.025,37.8],[101.125,37.75],[101.425,37.75],[101.55,37.625],[101.775,37.55],[102.125,37.55],[102.3,37.45],[102.425,37.3],[102.675,37.2],[102.825,37.475],[102.85,37.575],[103.075,37.8],[103.125,37.95],[103.325,38.15],[103.5,38.2],[103.675,38.375],[104.075,38.375],[104.25,38.275],[104.325,38.175],[104.45,38.125],[104.575,38.0],[104.975,37.825],[105.05,37.725],[105.375,37.6],[105.375,37.5],[105.125,37.5],[104.975,37.45],[104.925,37.325]]]}},{"type":"Feature","properties":{"focus":false,"kind":"state","approx":true,"color":"#a3727a","name":"Yiqu","name_zh":"义渠","label":[106.84,37.19],"area":7.9},"geometry":{"type":"Polygon","coordinates":[[[105.1,37.175],[104.925,37.325],[104.975,37.45],[105.125,37.5],[105.375,37.5],[105.375,37.6],[105.55,37.775],[105.625,37.8],[105.625,38.075],[105.725,38.1],[105.825,38.425],[105.875,38.4],[106.25,38.4],[106.375,38.35],[106.525,38.475],[106.525,38.625],[106.6,38.675],[106.625,38.8],[106.825,38.7],[106.95,38.55],[107.05,38.55],[107.275,38.425],[107.35,38.55],[107.55,38.5],[107.65,38.425],[107.7,38.225],[107.7,38.05],[107.8,37.925],[107.85,37.725],[107.95,37.6],[107.95,37.425],[107.875,37.3],[108.075,37.225],[108.4,37.175],[108.4,36.95],[108.25,36.8],[108.275,36.525],[108.4,36.475],[108.475,36.375],[108.425,36.25],[108.45,36.0],[108.55,35.9],[108.55,35.7],[108.625,35.475],[108.375,35.475],[108.175,35.425],[107.95,35.325],[107.95,35.275],[107.725,35.3],[107.65,35.35],[107.25,35.375],[107.0,35.475],[106.65,35.55],[106.65,35.675],[106.5,35.8],[106.225,35.775],[106.2,35.85],[106.05,35.95],[106.0,36.1],[105.675,36.175],[105.6,36.3],[105.275,36.4],[105.275,36.65],[105.15,36.775],[105.025,36.825],[105.1,37.175]]]}},{"type":"Feature","properties":{"focus":false,"kind":"state","approx":true,"color":"#9a8a4a","name":"Linhu and Loufan","name_zh":"林胡 · 楼烦","label":[110.33,41.17],"area":6.2},"geometry":{"type":"Polygon","coordinates":[[[108.45,40.825],[108.25,40.85],[108.25,40.925],[108.1,40.9],[108.025,41.125],[108.175,41.4],[108.15,41.525],[108.4,41.625],[108.475,41.725],[108.6,41.775],[108.95,41.8],[109.2,41.725],[109.35,41.725],[109.475,41.65],[109.85,41.825],[110.05,41.825],[110.25,42.025],[110.5,42.075],[110.65,42.0],[110.7,41.9],[111.025,41.825],[111.25,41.725],[111.3,41.55],[111.45,41.5],[111.675,41.225],[111.825,41.225],[111.725,41.1],[111.725,40.875],[111.625,40.7],[111.525,40.4],[111.325,40.225],[111.2,40.175],[111.075,40.275],[110.975,40.275],[110.925,40.15],[110.75,40.125],[110.675,40.025],[110.425,39.925],[110.3,39.725],[110.1,39.725],[110.0,39.775],[109.75,39.775],[109.625,39.675],[109.525,39.675],[109.275,39.825],[108.85,39.825],[108.725,39.775],[108.45,40.1],[108.375,40.35],[108.45,40.575],[108.45,40.825]]]}},{"type":"Feature","properties":{"focus":false,"kind":"state","approx":true,"color":"#9a8a4a","name":"Man peoples","name_zh":"蛮","label":[109.23,27.77],"area":22.4},"geometry":{"type":"MultiPolygon","coordinates":[[[[107.675,26.175],[107.5,26.225],[107.4,26.45],[107.4,26.65],[107.45,26.75],[107.45,26.95],[107.525,27.125],[107.525,27.25],[107.4,27.4],[107.425,27.725],[107.4,27.9],[107.5,28.15],[107.625,28.275],[107.75,28.325],[107.9,28.55],[107.8,28.625],[107.85,28.825],[108.025,28.925],[108.025,29.2],[108.15,29.4],[108.175,29.7],[108.35,29.875],[108.4,29.975],[108.6,30.175],[108.925,30.175],[109.0,30.225],[109.15,30.45],[109.275,30.475],[109.3,30.55],[109.7,30.725],[109.9,30.675],[110.05,30.775],[110.2,30.775],[110.3,30.575],[110.2,30.5],[110.2,30.35],[110.325,30.325],[110.35,30.175],[110.475,30.15],[110.45,30.025],[110.575,29.925],[110.675,29.675],[110.8,29.675],[110.875,29.6],[110.9,29.225],[110.8,29.1],[110.775,28.975],[110.9,28.775],[110.775,28.725],[110.85,28.65],[110.85,28.4],[110.95,28.225],[111.05,28.15],[111.175,28.15],[111.15,27.975],[111.45,27.975],[111.5,27.9],[111.875,28.05],[111.95,27.95],[112.225,27.875],[112.25,27.825],[112.425,27.8],[112.475,27.725],[112.7,27.7],[112.825,27.65],[112.9,27.525],[113.1,27.55],[113.175,27.425],[113.675,27.45],[113.75,27.35],[113.9,27.425],[114.175,27.45],[114.2,27.5],[114.35,27.325],[114.475,27.275],[114.525,27.125],[114.525,26.825],[114.45,26.7],[114.25,26.65],[114.05,26.425],[114.0,26.3],[114.0,26.125],[113.95,26.1],[113.95,25.875],[113.825,25.625],[113.825,25.525],[113.55,25.4],[113.55,25.175],[113.475,25.025],[113.4,25.025],[113.225,25.1],[113.225,25.0],[113.0,24.9],[112.725,24.9],[112.675,24.825],[112.5,24.75],[112.275,24.75],[111.975,24.875],[111.8,24.85],[111.625,25.125],[111.5,25.175],[111.475,25.325],[111.325,25.45],[111.2,25.375],[110.975,25.475],[110.975,25.55],[110.8,25.7],[110.85,25.825],[110.725,25.95],[110.725,26.05],[110.475,26.15],[110.4,26.05],[110.2,26.05],[110.2,25.875],[110.05,25.825],[109.9,25.575],[109.825,25.55],[109.675,25.7],[109.475,25.775],[109.35,25.725],[109.15,25.725],[109.025,25.775],[108.675,25.75],[108.65,25.825],[108.475,25.875],[108.15,25.875],[108.125,26.0],[108.15,26.325],[107.95,26.4],[107.825,26.4],[107.675,26.175]]],[[[111.2,28.175],[111.2,28.15],[111.175,28.15],[111.2,28.175]]]]}},{"type":"Feature","properties":{"focus":false,"kind":"state","approx":true,"color":"#7272a8","name":"Baiyue","name_zh":"百越","label":[115.72,26.47],"area":35.3},"geometry":{"type":"MultiPolygon","coordinates":[[[[113.825,25.625],[113.95,25.875],[113.95,26.1],[114.0,26.125],[114.0,26.3],[114.05,26.425],[114.25,26.65],[114.45,26.7],[114.525,26.825],[114.525,27.125],[114.475,27.275],[114.35,27.325],[114.2,27.5],[114.25,27.525],[114.2,27.85],[114.275,27.95],[114.275,28.075],[114.2,28.175],[114.2,28.325],[114.3,28.45],[114.4,28.675],[114.725,28.725],[114.95,28.9],[114.95,29.125],[114.9,29.225],[114.9,29.4],[115.05,29.5],[115.225,29.5],[115.425,29.575],[115.475,29.5],[115.75,29.525],[115.8,29.475],[115.975,29.5],[116.075,29.45],[116.15,29.625],[116.45,29.575],[116.675,29.475],[116.95,29.475],[117.075,29.55],[117.1,29.65],[117.35,29.775],[117.45,29.9],[117.45,30.025],[117.6,29.95],[117.575,29.875],[117.275,29.6],[117.275,29.325],[117.375,29.225],[117.375,29.0],[117.325,28.95],[117.275,28.6],[117.475,28.05],[117.525,27.8],[117.625,27.75],[117.55,27.65],[117.6,27.425],[117.6,27.15],[117.65,27.0],[117.75,26.925],[117.8,26.8],[118.075,26.7],[118.175,26.9],[118.4,26.9],[118.425,26.85],[118.6,26.85],[118.8,27.025],[119.075,27.075],[119.325,27.2],[119.325,27.375],[119.375,27.525],[119.55,27.525],[119.775,27.45],[119.975,27.45],[119.95,27.175],[120.15,27.15],[120.2,27.225],[120.325,27.225],[120.375,27.15],[120.276,27.092],[120.164,26.924],[120.139,26.886],[120.136,26.879],[120.087,26.676],[120.087,26.672],[120.043,26.634],[119.968,26.586],[119.967,26.586],[119.882,26.61],[119.852,26.688],[119.842,26.689],[119.821,26.737],[119.817,26.777],[119.804,26.811],[119.769,26.78],[119.767,26.775],[119.715,26.732],[119.71,26.728],[119.593,26.761],[119.62,26.682],[119.624,26.676],[119.63,26.65],[119.639,26.625],[119.714,26.611],[119.726,26.609],[119.785,26.547],[119.831,26.45],[119.835,26.434],[119.849,26.404],[119.876,26.371],[119.881,26.334],[119.692,26.236],[119.567,26.127],[119.47,26.059],[119.463,26.054],[119.452,26.055],[119.37,26.054],[119.319,26.062],[119.313,26.062],[119.192,26.111],[119.171,26.091],[119.248,25.993],[119.262,25.976],[119.332,25.949],[119.418,25.955],[119.5,26.009],[119.501,26.009],[119.619,26.004],[119.648,25.919],[119.617,25.823],[119.556,25.704],[119.553,25.698],[119.54,25.595],[119.549,25.574],[119.619,25.437],[119.622,25.391],[119.593,25.368],[119.592,25.368],[119.588,25.37],[119.499,25.409],[119.444,25.445],[119.419,25.458],[119.41,25.458],[119.344,25.446],[119.319,25.453],[119.177,25.446],[119.149,25.411],[119.159,25.381],[119.169,25.357],[119.171,25.355],[119.244,25.307],[119.286,25.232],[119.281,25.23],[119.235,25.205],[118.974,25.205],[118.966,25.194],[118.917,25.128],[118.946,25.034],[118.956,25.005],[118.942,24.983],[118.909,24.928],[118.726,24.859],[118.708,24.85],[118.69,24.846],[118.644,24.829],[118.681,24.788],[118.692,24.782],[118.719,24.746],[118.657,24.621],[118.655,24.621],[118.56,24.58],[118.412,24.6],[118.295,24.572],[118.195,24.625],[118.093,24.626],[118.021,24.567],[118.014,24.56],[118.006,24.482],[117.935,24.474],[117.897,24.48],[117.843,24.474],[117.848,24.432],[117.879,24.396],[118.024,24.38],[118.051,24.327],[118.056,24.246],[117.904,24.106],[117.839,24.012],[117.742,24.015],[117.668,23.939],[117.628,23.837],[117.579,23.857],[117.466,23.841],[117.433,23.792],[117.46,23.771],[117.462,23.736],[117.417,23.621],[117.368,23.589],[117.347,23.636],[117.331,23.709],[117.291,23.714],[117.225,23.647],[117.148,23.599],[117.083,23.579],[117.033,23.623],[116.911,23.647],[116.861,23.453],[116.76,23.383],[116.712,23.36],[116.629,23.354],[116.682,23.327],[116.699,23.278],[116.669,23.228],[116.586,23.218],[116.538,23.18],[116.52,23.007],[116.471,22.946],[116.346,22.941],[116.252,22.981],[116.222,22.95],[116.206,22.919],[116.157,22.887],[116.063,22.879],[115.852,22.802],[115.756,22.824],[115.64,22.853],[115.579,22.831],[115.55,22.85],[115.5,22.975],[115.325,23.15],[115.225,23.2],[115.075,23.15],[114.825,23.175],[114.7,23.325],[114.6,23.35],[114.7,23.45],[114.625,23.625],[114.45,23.625],[114.35,23.675],[114.3,23.975],[114.175,24.025],[114.15,24.1],[114.3,24.325],[114.425,24.375],[114.425,24.5],[114.325,24.525],[114.175,24.675],[113.95,24.575],[113.9,24.65],[113.75,24.625],[113.575,24.725],[113.575,24.85],[113.425,25.025],[113.475,25.025],[113.55,25.175],[113.55,25.4],[113.825,25.525],[113.825,25.625]]],[[[119.816,25.52],[119.813,25.51],[119.829,25.483],[119.832,25.48],[119.821,25.457],[119.748,25.411],[119.746,25.41],[119.7,25.432],[119.7,25.434],[119.699,25.495],[119.719,25.54],[119.72,25.548],[119.696,25.59],[119.696,25.591],[119.717,25.629],[119.722,25.638],[119.723,25.639],[119.772,25.652],[119.777,25.653],[119.778,25.653],[119.78,25.65],[119.815,25.614],[119.829,25.607],[119.838,25.591],[119.839,25.56],[119.816,25.52]]],[[[118.089,24.489],[118.077,24.501],[118.093,24.541],[118.102,24.551],[118.103,24.552],[118.104,24.552],[118.171,24.519],[118.183,24.496],[118.15,24.436],[118.091,24.446],[118.089,24.489]]],[[[104.85,27.3],[105.025,27.4],[105.15,27.325],[105.2,27.4],[105.375,27.375],[105.65,27.4],[105.7,27.3],[105.875,27.3],[105.875,27.35],[106.05,27.425],[106.1,27.575],[106.325,27.6],[106.425,27.575],[106.55,27.725],[106.8,27.8],[106.85,27.975],[106.925,28.05],[107.175,28.0],[107.25,27.925],[107.4,27.9],[107.425,27.725],[107.4,27.4],[107.525,27.25],[107.525,27.125],[107.45,26.95],[107.45,26.75],[107.4,26.65],[107.4,26.45],[107.5,26.225],[107.675,26.175],[107.825,26.4],[107.95,26.4],[108.15,26.325],[108.125,26.0],[107.85,26.0],[107.7,25.825],[107.7,25.525],[107.625,25.4],[107.625,25.225],[107.7,25.175],[107.7,25.0],[107.525,24.85],[107.525,24.5],[107.425,24.525],[107.3,24.65],[107.3,24.8],[107.225,24.875],[107.1,24.825],[107.075,24.725],[106.95,24.675],[106.875,24.525],[106.75,24.525],[106.7,24.425],[106.55,24.475],[106.175,24.475],[106.075,24.35],[105.7,24.3],[105.475,24.35],[105.325,24.45],[105.225,24.625],[104.95,24.625],[104.9,24.75],[104.8,24.7],[104.75,24.85],[104.6,24.925],[104.525,25.05],[104.525,25.225],[104.375,25.35],[104.2,25.325],[104.125,25.375],[104.175,25.675],[104.325,25.8],[104.375,25.925],[104.375,26.25],[104.45,26.375],[104.45,26.5],[104.55,26.575],[104.6,26.725],[104.7,26.8],[104.7,26.9],[104.475,26.975],[104.5,27.2],[104.625,27.2],[104.75,27.3],[104.85,27.3]]]]}},{"type":"Feature","properties":{"focus":true,"kind":"state","approx":true,"color":"#c9a227","name":"Zhou royal domain","name_zh":"周","label":[112.55,34.45],"area":3.0},"geometry":{"type":"Polygon","coordinates":[[[110.825,34.075],[110.775,34.175],[110.925,34.25],[111.15,34.45],[111.3,34.5],[111.275,34.8],[111.575,34.85],[111.675,35.025],[111.825,35.1],[112.05,35.1],[112.1,35.175],[112.1,35.4],[112.325,35.325],[112.4,35.45],[112.525,35.475],[112.575,35.375],[112.875,35.325],[112.975,35.4],[113.15,35.45],[113.2,35.275],[113.4,35.1],[113.425,35.0],[113.45,35.0],[113.45,34.775],[113.375,34.6],[113.2,34.6],[112.975,34.45],[113.0,34.3],[113.075,34.275],[113.1,34.15],[113.025,34.075],[112.925,33.775],[112.5,33.8],[112.475,33.85],[112.275,33.85],[112.225,33.75],[111.975,33.75],[111.825,33.675],[111.625,33.7],[111.45,33.8],[111.45,33.875],[111.275,33.875],[111.125,33.9],[110.85,33.825],[110.825,34.075]]]}},{"type":"Feature","properties":{"focus":true,"kind":"state","approx":true,"color":"#7a5195","name":"Jin","name_zh":"晋","label":[111.89,37.64],"area":19.4},"geometry":{"type":"Polygon","coordinates":[[[110.45,36.4],[110.5,36.6],[110.425,36.65],[110.4,37.025],[110.45,37.05],[110.45,37.275],[110.5,37.275],[110.55,37.65],[110.675,37.775],[110.575,37.95],[110.5,37.975],[110.5,38.2],[110.675,38.3],[110.775,38.45],[110.85,38.475],[111.225,38.475],[111.3,38.575],[111.55,38.525],[111.775,38.625],[111.875,38.75],[112.15,38.925],[112.075,39.35],[112.125,39.375],[112.125,39.65],[111.975,39.825],[111.875,39.85],[111.725,40.0],[111.7,40.125],[111.575,40.225],[111.525,40.4],[111.625,40.7],[111.725,40.875],[111.725,41.1],[111.825,41.225],[111.95,41.25],[112.075,41.375],[112.075,41.575],[112.175,41.775],[112.275,41.85],[112.35,41.825],[112.65,41.85],[112.9,41.9],[112.95,41.975],[113.175,41.95],[113.25,41.9],[113.625,41.875],[113.775,41.925],[113.75,41.75],[113.75,41.275],[113.825,41.2],[113.975,41.175],[113.975,40.95],[113.925,40.925],[113.925,40.7],[113.85,40.6],[114.0,40.575],[114.025,40.625],[114.225,40.625],[114.35,40.5],[114.35,40.3],[114.8,40.275],[114.825,40.15],[115.05,40.15],[115.125,40.05],[115.025,39.925],[114.7,39.625],[114.075,39.625],[113.95,39.65],[113.775,39.475],[113.75,39.2],[113.6,39.025],[113.65,38.775],[113.4,38.525],[113.35,38.35],[113.375,38.175],[113.25,38.15],[113.225,38.075],[113.35,37.975],[113.35,37.75],[113.4,37.725],[113.45,37.475],[113.4,37.3],[113.5,37.225],[113.625,37.225],[113.95,37.425],[114.225,37.15],[114.45,37.075],[114.575,36.95],[114.75,36.85],[114.8,36.85],[114.9,36.6],[114.875,36.6],[114.85,36.45],[114.775,36.4],[114.675,36.2],[114.375,36.225],[114.35,36.125],[114.1,35.9],[114.025,35.725],[113.9,35.65],[113.65,35.575],[113.575,35.675],[113.425,35.725],[113.15,35.45],[112.975,35.4],[112.875,35.325],[112.575,35.375],[112.525,35.475],[112.4,35.45],[112.325,35.325],[112.1,35.4],[112.1,35.175],[112.05,35.1],[111.825,35.1],[111.675,35.025],[111.575,34.85],[111.275,34.8],[111.3,34.5],[111.15,34.45],[110.925,34.25],[110.925,34.5],[110.875,34.65],[110.725,34.6],[110.3,34.6],[110.25,34.625],[110.25,35.0],[110.325,35.3],[110.2,35.475],[110.075,35.475],[109.975,35.575],[109.975,35.7],[110.1,35.7],[110.25,35.9],[110.45,35.9],[110.45,36.4]]]}},{"type":"Feature","properties":{"focus":true,"kind":"state","approx":true,"color":"#8c7a4a","minor":true,"name":"Zhongshan","name_zh":"中山","label":[114.25,38.64],"area":3.8},"geometry":{"type":"Polygon","coordinates":[[[114.8,39.15],[114.8,38.925],[114.85,38.875],[114.95,38.525],[115.025,38.425],[115.125,38.175],[115.375,37.925],[115.4,37.925],[115.25,37.475],[115.025,37.1],[114.825,36.9],[114.825,36.85],[114.75,36.85],[114.575,36.95],[114.45,37.075],[114.225,37.15],[113.95,37.425],[113.625,37.225],[113.5,37.225],[113.4,37.3],[113.45,37.475],[113.4,37.725],[113.35,37.75],[113.35,37.975],[113.225,38.075],[113.25,38.15],[113.375,38.175],[113.35,38.35],[113.4,38.525],[113.65,38.775],[113.6,39.025],[113.75,39.2],[113.775,39.475],[113.95,39.65],[114.075,39.625],[114.7,39.625],[114.725,39.375],[114.825,39.325],[114.85,39.175],[114.8,39.15]]]}},{"type":"Feature","properties":{"focus":true,"kind":"state","approx":true,"color":"#8a6f9e","minor":true,"name":"Wey","name_zh":"卫","label":[115.06,35.79],"area":2.2},"geometry":{"type":"Polygon","coordinates":[[[113.15,35.45],[113.425,35.725],[113.575,35.675],[113.65,35.575],[113.9,35.65],[114.025,35.725],[114.1,35.9],[114.35,36.125],[114.375,36.225],[114.675,36.2],[114.775,36.4],[114.85,36.45],[114.875,36.6],[114.95,36.6],[115.15,36.475],[115.3,36.425],[115.425,36.275],[115.475,36.125],[115.75,35.825],[115.675,35.725],[115.525,35.725],[115.4,35.625],[115.35,35.5],[115.225,35.4],[115.075,35.4],[114.875,35.1],[114.85,35.1],[114.75,34.925],[114.25,34.925],[113.975,34.95],[113.675,34.925],[113.6,35.0],[113.425,35.0],[113.4,35.1],[113.2,35.275],[113.15,35.45]]]}},{"type":"Feature","properties":{"focus":true,"kind":"state","approx":true,"color":"#2f8f83","name":"Qi","name_zh":"齐","label":[118.93,36.98],"area":10.5},"geometry":{"type":"Polygon","coordinates":[[[114.825,36.9],[115.025,37.1],[115.25,37.475],[115.4,37.925],[115.45,37.925],[115.625,37.975],[115.725,38.05],[116.075,38.175],[116.125,38.1],[116.375,38.0],[116.4,37.95],[116.6,37.875],[116.8,37.75],[116.975,37.6],[117.275,37.45],[117.525,37.45],[117.7,37.375],[117.775,37.5],[117.8,37.675],[117.9,37.825],[118.056,38.176],[118.542,38.095],[118.546,38.096],[118.667,38.126],[118.8,38.127],[118.94,38.043],[119.028,37.904],[119.036,37.809],[119.038,37.78],[119.042,37.773],[119.07,37.749],[119.089,37.701],[119.089,37.7],[119.075,37.69],[119.033,37.661],[119.025,37.657],[118.989,37.633],[118.955,37.328],[118.956,37.327],[119.106,37.205],[119.112,37.201],[119.186,37.175],[119.29,37.138],[119.291,37.138],[119.761,37.156],[119.883,37.251],[119.883,37.28],[119.88,37.296],[119.882,37.336],[119.882,37.35],[119.883,37.35],[119.883,37.351],[120.004,37.415],[120.155,37.495],[120.298,37.612],[120.257,37.678],[120.258,37.678],[120.257,37.679],[120.285,37.692],[120.31,37.695],[120.732,37.828],[120.75,37.834],[121.049,37.725],[121.218,37.601],[121.287,37.592],[121.388,37.579],[121.401,37.572],[121.633,37.463],[121.64,37.46],[121.816,37.457],[121.952,37.446],[121.959,37.446],[121.986,37.469],[122.01,37.496],[122.057,37.529],[122.11,37.522],[122.129,37.501],[122.172,37.455],[122.338,37.405],[122.34,37.405],[122.598,37.426],[122.602,37.426],[122.667,37.403],[122.664,37.4],[122.575,37.317],[122.585,37.204],[122.587,37.181],[122.454,37.072],[122.521,37.004],[122.523,37.003],[122.52,36.947],[122.519,36.946],[122.346,36.836],[122.341,36.832],[122.34,36.832],[122.338,36.832],[122.274,36.834],[122.245,36.848],[122.242,36.849],[122.16,36.958],[121.936,36.959],[121.909,36.948],[121.67,36.836],[121.413,36.738],[121.274,36.698],[121.053,36.611],[121.052,36.611],[120.99,36.598],[120.917,36.622],[120.814,36.631],[120.805,36.601],[120.822,36.587],[120.883,36.539],[120.905,36.485],[120.896,36.444],[120.858,36.43],[120.847,36.426],[120.774,36.453],[120.712,36.412],[120.682,36.339],[120.681,36.168],[120.638,36.13],[120.542,36.113],[120.393,36.053],[120.39,36.055],[120.348,36.079],[120.331,36.109],[120.33,36.11],[120.325,36.224],[120.183,36.202],[120.101,36.111],[120.126,36.082],[120.18,36.019],[120.186,36.017],[120.265,36.007],[120.285,35.984],[120.219,35.935],[120.174,35.915],[120.074,35.852],[120.05,35.9],[119.825,35.95],[119.575,35.925],[119.25,35.925],[119.15,36.0],[118.9,36.075],[118.775,36.175],[118.575,36.175],[118.525,36.125],[118.375,36.15],[118.2,36.275],[118.05,36.2],[117.75,36.25],[117.7,36.15],[117.6,36.15],[117.35,36.4],[117.225,36.4],[117.1,36.275],[116.925,36.225],[116.85,36.125],[116.7,36.175],[116.575,36.15],[116.2,36.175],[116.1,36.1],[116.05,35.975],[115.925,35.975],[115.875,35.85],[115.775,35.85],[115.75,35.825],[115.475,36.125],[115.425,36.275],[115.3,36.425],[115.15,36.475],[114.95,36.6],[114.9,36.6],[114.8,36.85],[114.825,36.85],[114.825,36.9]]]}},{"type":"Feature","properties":{"focus":true,"kind":"state","approx":true,"color":"#8f8f8f","minor":true,"name":"Ju","name_zh":"莒","label":[118.94,35.21],"area":1.7},"geometry":{"type":"Polygon","coordinates":[[[118.575,36.175],[118.775,36.175],[118.9,36.075],[119.15,36.0],[119.25,35.925],[119.575,35.925],[119.825,35.95],[120.05,35.9],[120.074,35.852],[120.042,35.831],[120.041,35.83],[120.027,35.799],[119.979,35.74],[119.915,35.696],[119.866,35.643],[119.859,35.64],[119.811,35.618],[119.746,35.597],[119.717,35.586],[119.715,35.584],[119.526,35.358],[119.431,35.301],[119.372,35.16],[119.353,35.114],[119.352,35.113],[119.215,35.009],[119.167,34.843],[119.172,34.831],[119.206,34.75],[119.32,34.749],[119.351,34.749],[119.381,34.736],[119.175,34.55],[118.925,34.45],[118.65,34.45],[118.625,34.5],[118.625,34.925],[118.65,35.025],[118.55,35.15],[118.475,35.375],[118.3,35.525],[118.325,35.775],[118.275,35.925],[118.125,36.05],[118.05,36.2],[118.2,36.275],[118.375,36.15],[118.525,36.125],[118.575,36.175]]]}},{"type":"Feature","properties":{"focus":true,"kind":"state","approx":true,"color":"#9a7b4f","minor":true,"name":"Lu","name_zh":"鲁","label":[117.24,35.34],"area":3.7},"geometry":{"type":"Polygon","coordinates":[[[116.1,36.1],[116.2,36.175],[116.575,36.15],[116.7,36.175],[116.85,36.125],[116.925,36.225],[117.1,36.275],[117.225,36.4],[117.35,36.4],[117.6,36.15],[117.7,36.15],[117.75,36.25],[118.05,36.2],[118.125,36.05],[118.275,35.925],[118.325,35.775],[118.3,35.525],[118.475,35.375],[118.55,35.15],[118.65,35.025],[118.625,34.925],[118.625,34.5],[118.65,34.45],[118.275,34.0],[118.225,34.0],[118.05,34.225],[118.025,34.35],[117.7,34.65],[117.675,34.775],[117.575,34.875],[117.55,35.075],[117.4,35.075],[117.175,35.0],[116.925,34.85],[116.7,34.75],[116.425,34.75],[116.225,34.9],[116.025,35.45],[115.95,35.5],[115.825,35.85],[115.875,35.85],[115.925,35.975],[116.05,35.975],[116.1,36.1]]]}},{"type":"Feature","properties":{"focus":true,"kind":"state","approx":true,"color":"#b08a2e","name":"Song","name_zh":"宋","label":[116.43,34.23],"area":6.5},"geometry":{"type":"Polygon","coordinates":[[[115.35,35.5],[115.4,35.625],[115.525,35.725],[115.675,35.725],[115.75,35.825],[115.775,35.85],[115.825,35.85],[115.95,35.5],[116.025,35.45],[116.225,34.9],[116.425,34.75],[116.7,34.75],[116.925,34.85],[117.175,35.0],[117.4,35.075],[117.55,35.075],[117.575,34.875],[117.675,34.775],[117.7,34.65],[118.025,34.35],[118.05,34.225],[118.225,34.0],[118.25,34.0],[118.175,33.825],[118.2,33.6],[118.2,33.175],[117.925,33.15],[117.9,33.05],[117.8,33.05],[117.675,32.925],[117.575,32.95],[117.2,32.95],[117.075,32.725],[116.85,32.7],[116.825,32.8],[116.525,32.925],[116.35,32.95],[115.875,32.775],[115.65,33.025],[115.5,33.15],[115.45,33.325],[115.225,33.525],[114.9,33.95],[114.875,33.95],[114.9,34.1],[114.975,34.225],[115.025,34.8],[114.95,34.9],[114.925,35.1],[114.875,35.1],[115.075,35.4],[115.225,35.4],[115.35,35.5]]]}},{"type":"Feature","properties":{"focus":true,"kind":"state","approx":true,"color":"#5f9a9a","minor":true,"name":"Zheng","name_zh":"郑","label":[113.97,34.31],"area":2.4},"geometry":{"type":"Polygon","coordinates":[[[113.0,34.3],[112.975,34.45],[113.2,34.6],[113.375,34.6],[113.45,34.775],[113.45,35.0],[113.6,35.0],[113.675,34.925],[113.975,34.95],[114.25,34.925],[114.75,34.925],[114.85,35.1],[114.925,35.1],[114.95,34.9],[115.025,34.8],[114.975,34.225],[114.9,34.1],[114.875,33.95],[114.675,33.95],[114.45,33.85],[114.4,33.775],[114.05,33.575],[113.625,33.425],[113.425,33.3],[113.425,33.375],[113.275,33.5],[113.15,33.5],[113.05,33.575],[112.925,33.775],[113.025,34.075],[113.1,34.15],[113.075,34.275],[113.0,34.3]]]}},{"type":"Feature","properties":{"focus":true,"kind":"state","approx":true,"color":"#a33e3e","name":"Chu","name_zh":"楚","label":[113.8,30.86],"area":40.0},"geometry":{"type":"Polygon","coordinates":[[[108.225,33.025],[108.05,33.025],[107.95,33.125],[107.9,33.6],[107.825,33.75],[107.925,33.75],[108.05,33.7],[108.225,33.7],[108.275,33.75],[108.5,33.75],[108.6,33.825],[108.975,33.825],[109.15,33.85],[109.375,33.75],[109.375,33.475],[109.475,33.4],[109.475,33.25],[109.675,33.25],[109.825,32.95],[109.975,32.925],[110.1,32.825],[110.325,32.8],[110.625,32.825],[110.675,33.075],[110.775,33.0],[110.9,33.0],[111.175,33.275],[111.225,33.625],[111.2,33.8],[111.3,33.875],[111.45,33.875],[111.45,33.8],[111.625,33.7],[111.825,33.675],[111.975,33.75],[112.225,33.75],[112.275,33.85],[112.475,33.85],[112.5,33.8],[112.925,33.775],[113.05,33.575],[113.15,33.5],[113.275,33.5],[113.425,33.375],[113.425,33.3],[113.625,33.425],[114.05,33.575],[114.4,33.775],[114.45,33.85],[114.675,33.95],[114.9,33.95],[115.225,33.525],[115.45,33.325],[115.5,33.15],[115.65,33.025],[115.875,32.775],[116.35,32.95],[116.525,32.925],[116.825,32.8],[116.85,32.7],[117.075,32.725],[117.2,32.95],[117.575,32.95],[117.675,32.925],[117.8,33.05],[117.9,33.05],[117.925,33.15],[118.2,33.175],[118.2,33.05],[118.4,32.875],[118.4,32.7],[118.3,32.65],[118.3,32.475],[118.4,32.325],[118.45,32.1],[118.5,32.075],[118.325,31.875],[118.25,31.675],[118.275,31.425],[118.025,31.45],[117.975,31.1],[117.75,31.1],[117.75,30.95],[117.65,30.775],[117.5,30.725],[117.5,30.625],[117.625,30.5],[117.7,29.975],[117.6,29.95],[117.45,30.025],[117.45,29.9],[117.35,29.775],[117.1,29.65],[117.075,29.55],[116.95,29.475],[116.675,29.475],[116.45,29.575],[116.15,29.625],[116.075,29.45],[115.975,29.5],[115.8,29.475],[115.75,29.525],[115.475,29.5],[115.425,29.575],[115.225,29.5],[115.05,29.5],[114.9,29.4],[114.9,29.225],[114.95,29.125],[114.95,28.9],[114.725,28.725],[114.4,28.675],[114.3,28.45],[114.2,28.325],[114.2,28.175],[114.275,28.075],[114.275,27.95],[114.2,27.85],[114.25,27.525],[114.2,27.5],[114.175,27.45],[113.9,27.425],[113.75,27.35],[113.675,27.45],[113.175,27.425],[113.1,27.55],[112.9,27.525],[112.825,27.65],[112.7,27.7],[112.475,27.725],[112.425,27.8],[112.25,27.825],[112.225,27.875],[111.95,27.95],[111.875,28.05],[111.5,27.9],[111.45,27.975],[111.15,27.975],[111.175,28.15],[111.05,28.15],[110.95,28.225],[110.85,28.4],[110.85,28.65],[110.775,28.725],[110.9,28.775],[110.775,28.975],[110.8,29.1],[110.9,29.225],[110.875,29.6],[110.8,29.675],[110.675,29.675],[110.575,29.925],[110.45,30.025],[110.475,30.15],[110.35,30.175],[110.325,30.325],[110.2,30.35],[110.2,30.5],[110.3,30.575],[110.2,30.775],[110.25,31.025],[110.15,31.075],[110.15,31.425],[110.075,31.475],[109.8,31.55],[109.75,31.7],[109.575,31.75],[109.4,31.75],[109.275,31.825],[109.1,31.85],[109.025,31.725],[108.75,31.7],[108.45,31.85],[108.25,32.0],[108.125,32.15],[107.95,32.2],[107.925,32.15],[107.725,32.125],[107.625,32.225],[107.775,32.475],[107.95,32.425],[107.975,32.8],[108.225,32.95],[108.225,33.025]],[[111.2,28.15],[111.2,28.175],[111.175,28.15],[111.2,28.15]]]}},{"type":"Feature","properties":{"focus":true,"kind":"state","approx":true,"color":"#4f6db8","name":"Yan","name_zh":"燕","label":[116.36,39.55],"area":6.7},"geometry":{"type":"Polygon","coordinates":[[[115.25,40.325],[115.4,40.325],[115.5,40.4],[115.475,40.575],[115.625,40.625],[115.625,40.775],[115.55,40.925],[115.475,40.925],[115.45,41.225],[115.575,41.275],[115.9,41.3],[116.025,41.4],[116.125,41.4],[116.175,41.55],[116.45,41.525],[116.55,41.6],[116.725,41.5],[116.725,41.4],[116.625,41.325],[116.625,41.2],[116.775,41.2],[116.85,41.1],[116.95,41.075],[117.0,40.925],[117.275,40.7],[117.5,40.675],[117.45,40.55],[117.5,40.425],[117.45,40.35],[117.475,39.9],[117.55,39.725],[117.65,39.6],[117.725,39.35],[117.9,39.2],[117.901,39.198],[117.867,39.191],[117.806,39.149],[117.801,39.146],[117.624,38.865],[117.617,38.853],[117.6,38.81],[117.594,38.794],[117.5,38.775],[117.025,38.775],[116.725,38.9],[116.625,38.975],[116.475,38.975],[116.325,38.875],[116.225,38.75],[116.175,38.575],[116.075,38.4],[116.075,38.175],[115.725,38.05],[115.625,37.975],[115.45,37.925],[115.375,37.925],[115.125,38.175],[115.025,38.425],[114.95,38.525],[114.85,38.875],[114.8,38.925],[114.8,39.15],[114.85,39.175],[114.825,39.325],[114.725,39.375],[114.7,39.625],[115.025,39.925],[115.125,40.05],[115.225,40.05],[115.25,40.325]]]}},{"type":"Feature","properties":{"focus":true,"kind":"state","approx":true,"color":"#3d3d4f","name":"Qin","name_zh":"秦","label":[107.58,34.17],"area":14.3},"geometry":{"type":"Polygon","coordinates":[[[104.0,34.125],[104.25,34.2],[104.3,34.275],[104.325,34.5],[104.225,34.575],[104.2,34.7],[104.45,34.8],[104.6,35.025],[104.675,34.975],[104.775,35.025],[104.825,35.225],[104.95,35.375],[104.95,35.95],[105.0,36.125],[105.225,36.275],[105.275,36.4],[105.6,36.3],[105.675,36.175],[106.0,36.1],[106.05,35.95],[106.2,35.85],[106.225,35.775],[106.5,35.8],[106.65,35.675],[106.65,35.55],[107.0,35.475],[107.25,35.375],[107.65,35.35],[107.725,35.3],[107.95,35.275],[107.95,35.325],[108.175,35.425],[108.375,35.475],[108.625,35.475],[108.55,35.7],[108.675,35.725],[108.725,35.65],[109.025,35.65],[109.075,35.55],[109.2,35.6],[109.375,35.6],[109.675,35.75],[109.875,35.75],[109.925,35.7],[109.975,35.7],[109.975,35.575],[110.075,35.475],[110.2,35.475],[110.325,35.3],[110.25,35.0],[110.25,34.625],[110.3,34.6],[110.725,34.6],[110.875,34.65],[110.925,34.5],[110.925,34.25],[110.775,34.175],[110.825,34.075],[110.85,33.825],[111.125,33.9],[111.275,33.875],[111.3,33.875],[111.2,33.8],[111.225,33.625],[111.175,33.275],[110.9,33.0],[110.775,33.0],[110.675,33.075],[110.625,32.825],[110.325,32.8],[110.1,32.825],[109.975,32.925],[109.825,32.95],[109.675,33.25],[109.475,33.25],[109.475,33.4],[109.375,33.475],[109.375,33.75],[109.15,33.85],[108.975,33.825],[108.6,33.825],[108.5,33.75],[108.275,33.75],[108.225,33.7],[108.05,33.7],[107.925,33.75],[107.775,33.75],[107.7,33.875],[107.3,33.975],[107.15,34.125],[106.925,34.125],[106.775,34.075],[106.775,33.95],[106.65,33.85],[106.675,33.625],[106.4,33.625],[106.3,33.725],[106.025,33.525],[106.05,33.375],[106.125,33.25],[105.95,33.15],[105.775,32.975],[105.4,33.075],[105.175,33.1],[105.175,33.025],[105.025,33.0],[104.95,32.9],[104.85,32.9],[104.65,33.05],[104.525,33.1],[104.5,33.3],[104.3,33.3],[104.125,33.525],[103.925,33.625],[103.8,33.525],[103.825,33.7],[103.8,33.95],[103.95,34.025],[104.0,34.125]]]}},{"type":"Feature","properties":{"focus":true,"kind":"state","approx":true,"color":"#5e9a2a","name":"Yue","name_zh":"越","label":[119.75,31.01],"area":24.4},"geometry":{"type":"MultiPolygon","coordinates":[[[[122.394,29.846],[122.367,29.852],[122.331,29.934],[122.332,29.934],[122.332,29.935],[122.351,29.955],[122.402,29.95],[122.404,29.892],[122.394,29.846]]],[[[122.111,30.14],[122.284,30.068],[122.322,30.031],[122.296,29.963],[122.283,29.945],[122.281,29.943],[122.157,30.0],[122.024,30.013],[121.977,30.063],[121.969,30.143],[122.111,30.14]]],[[[122.169,29.66],[122.042,29.735],[122.055,29.759],[122.062,29.773],[122.12,29.782],[122.165,29.701],[122.173,29.679],[122.169,29.66]]],[[[117.5,30.725],[117.65,30.775],[117.75,30.95],[117.75,31.1],[117.975,31.1],[118.025,31.45],[118.275,31.425],[118.25,31.675],[118.325,31.875],[118.5,32.075],[118.45,32.1],[118.4,32.325],[118.3,32.475],[118.3,32.65],[118.4,32.7],[118.4,32.875],[118.2,33.05],[118.2,33.175],[118.2,33.6],[118.175,33.825],[118.25,34.0],[118.275,34.0],[118.65,34.45],[118.925,34.45],[119.175,34.55],[119.381,34.736],[119.427,34.714],[119.521,34.635],[119.584,34.582],[119.587,34.58],[119.954,34.45],[119.964,34.448],[120.201,34.326],[120.267,34.274],[120.323,34.169],[120.357,34.068],[120.494,33.727],[120.5,33.716],[120.502,33.681],[120.506,33.637],[120.616,33.491],[120.622,33.478],[120.868,33.021],[120.871,33.017],[120.897,32.843],[120.889,32.829],[120.853,32.762],[120.853,32.761],[120.856,32.66],[120.903,32.627],[120.99,32.567],[121.293,32.457],[121.342,32.425],[121.401,32.372],[121.402,32.33],[121.407,32.203],[121.412,32.197],[121.481,32.128],[121.491,32.121],[121.674,32.051],[121.751,31.993],[121.832,31.9],[121.856,31.816],[121.866,31.704],[121.866,31.703],[121.86,31.703],[121.764,31.7],[121.683,31.712],[121.68,31.712],[121.35,31.858],[121.145,31.842],[120.973,31.869],[120.789,32.032],[120.525,32.104],[120.184,31.966],[120.096,31.973],[120.071,31.937],[120.194,31.907],[120.195,31.907],[120.488,32.016],[120.497,32.02],[120.716,31.984],[120.752,31.923],[120.778,31.848],[120.792,31.818],[121.05,31.721],[121.055,31.719],[121.205,31.628],[121.351,31.485],[121.661,31.32],[121.786,31.163],[121.834,31.062],[121.878,30.917],[121.801,30.884],[121.769,30.87],[121.528,30.841],[121.473,30.815],[121.419,30.79],[121.31,30.7],[121.309,30.699],[120.999,30.558],[120.898,30.394],[120.897,30.393],[120.897,30.392],[120.821,30.354],[120.452,30.387],[120.262,30.273],[120.352,30.248],[120.494,30.303],[120.495,30.303],[120.503,30.293],[120.642,30.134],[120.658,30.136],[120.904,30.161],[121.04,30.236],[121.159,30.302],[121.258,30.304],[121.341,30.282],[121.433,30.227],[121.678,29.979],[121.812,29.952],[121.868,29.928],[122.016,29.888],[122.017,29.888],[122.083,29.87],[122.036,29.846],[121.905,29.779],[121.677,29.584],[121.596,29.547],[121.559,29.519],[121.578,29.495],[121.602,29.498],[121.688,29.511],[121.777,29.573],[121.822,29.605],[121.888,29.628],[121.941,29.606],[121.968,29.491],[121.918,29.135],[121.913,29.135],[121.853,29.128],[121.791,29.223],[121.718,29.254],[121.707,29.253],[121.656,29.236],[121.552,29.237],[121.536,29.235],[121.487,29.193],[121.465,29.132],[121.473,29.127],[121.521,29.118],[121.665,29.011],[121.68,28.953],[121.641,28.916],[121.63,28.918],[121.609,28.903],[121.66,28.853],[121.663,28.851],[121.644,28.805],[121.63,28.767],[121.627,28.765],[121.59,28.735],[121.558,28.725],[121.556,28.724],[121.478,28.637],[121.479,28.633],[121.538,28.521],[121.602,28.367],[121.61,28.292],[121.609,28.292],[121.509,28.322],[121.354,28.229],[121.272,28.222],[121.219,28.337],[121.147,28.327],[121.097,28.287],[121.095,28.284],[121.035,28.157],[120.959,28.037],[120.938,28.027],[120.892,28.003],[120.764,28.004],[120.829,27.94],[120.833,27.938],[120.833,27.891],[120.749,27.808],[120.686,27.745],[120.665,27.642],[120.665,27.639],[120.66,27.636],[120.593,27.582],[120.628,27.485],[120.629,27.482],[120.608,27.412],[120.54,27.318],[120.482,27.268],[120.388,27.159],[120.385,27.156],[120.384,27.155],[120.375,27.15],[120.325,27.225],[120.2,27.225],[120.15,27.15],[119.95,27.175],[119.975,27.45],[119.775,27.45],[119.55,27.525],[119.375,27.525],[119.325,27.375],[119.325,27.2],[119.075,27.075],[118.8,27.025],[118.6,26.85],[118.425,26.85],[118.4,26.9],[118.175,26.9],[118.075,26.7],[117.8,26.8],[117.75,26.925],[117.65,27.0],[117.6,27.15],[117.6,27.425],[117.55,27.65],[117.625,27.75],[117.525,27.8],[117.475,28.05],[117.275,28.6],[117.325,28.95],[117.375,29.0],[117.375,29.225],[117.275,29.325],[117.275,29.6],[117.575,29.875],[117.6,29.95],[117.7,29.975],[117.625,30.5],[117.5,30.625],[117.5,30.725]]],[[[121.728,31.582],[121.808,31.552],[121.844,31.526],[121.863,31.492],[121.862,31.492],[121.78,31.463],[121.519,31.549],[121.336,31.643],[121.331,31.649],[121.227,31.758],[121.211,31.804],[121.211,31.805],[121.339,31.797],[121.464,31.756],[121.478,31.725],[121.492,31.694],[121.494,31.693],[121.542,31.674],[121.576,31.638],[121.728,31.582]]],[[[121.247,28.085],[121.164,28.063],[121.134,28.063],[121.131,28.062],[121.134,28.132],[121.134,28.135],[121.192,28.192],[121.205,28.204],[121.234,28.181],[121.251,28.145],[121.251,28.086],[121.247,28.085]]]]}},{"type":"Feature","properties":{"focus":true,"kind":"state","approx":true,"color":"#9a5f2e","name":"Shu","name_zh":"蜀","label":[103.24,30.46],"area":20.4},"geometry":{"type":"Polygon","coordinates":[[[103.925,33.625],[104.125,33.525],[104.3,33.3],[104.5,33.3],[104.525,33.1],[104.65,33.05],[104.85,32.9],[104.95,32.9],[105.025,33.0],[105.175,33.025],[105.175,33.1],[105.4,33.075],[105.775,32.975],[105.95,33.15],[106.125,33.25],[106.05,33.375],[106.025,33.525],[106.3,33.725],[106.4,33.625],[106.675,33.625],[106.65,33.85],[106.775,33.95],[106.775,34.075],[106.925,34.125],[107.15,34.125],[107.3,33.975],[107.7,33.875],[107.775,33.75],[107.825,33.75],[107.9,33.6],[107.95,33.125],[108.05,33.025],[108.225,33.025],[108.225,32.95],[107.975,32.8],[107.95,32.425],[107.775,32.475],[107.625,32.6],[107.2,32.6],[106.5,32.625],[106.45,32.55],[106.225,32.6],[106.075,32.5],[105.85,32.5],[105.725,32.375],[105.7,32.0],[105.75,31.95],[105.675,31.65],[105.675,31.1],[105.625,30.725],[105.425,30.375],[105.425,30.125],[105.375,29.975],[105.425,29.85],[105.525,29.8],[105.35,29.55],[105.35,29.325],[105.25,29.125],[105.25,28.8],[105.05,28.725],[105.025,28.825],[104.625,28.775],[104.525,28.65],[104.55,28.6],[104.55,28.275],[104.375,27.95],[104.375,27.825],[104.225,27.725],[104.325,27.575],[104.35,27.325],[104.5,27.2],[104.475,26.975],[104.225,26.95],[104.1,27.15],[103.95,27.15],[103.95,27.275],[103.85,27.4],[103.8,27.575],[103.5,27.65],[103.425,27.575],[103.2,27.55],[103.125,27.625],[103.15,27.825],[103.1,27.85],[102.9,27.65],[102.5,28.025],[102.325,28.225],[102.0,28.225],[101.7,28.275],[101.675,28.45],[101.575,28.575],[101.375,28.65],[101.425,28.9],[101.375,28.925],[101.325,29.225],[101.525,29.35],[101.525,29.5],[101.75,29.75],[101.7,29.95],[101.7,30.4],[101.725,30.5],[101.65,30.6],[101.675,30.825],[101.6,30.875],[101.575,31.0],[101.725,31.15],[101.75,31.0],[101.925,31.0],[101.975,30.9],[102.225,30.9],[102.25,31.125],[102.35,31.225],[102.35,31.4],[102.625,31.425],[102.625,31.6],[102.85,31.8],[102.775,31.95],[102.675,32.0],[102.675,32.175],[102.75,32.325],[102.975,32.625],[103.05,32.675],[103.325,32.65],[103.525,32.775],[103.65,32.925],[103.55,33.05],[103.525,33.2],[103.575,33.4],[103.725,33.425],[103.8,33.525],[103.925,33.625]]]}},{"type":"Feature","properties":{"focus":true,"kind":"state","approx":true,"color":"#7e5a3a","name":"Ba","name_zh":"巴","label":[107.58,30.48],"area":16.3},"geometry":{"type":"Polygon","coordinates":[[[107.95,32.2],[108.125,32.15],[108.25,32.0],[108.45,31.85],[108.75,31.7],[109.025,31.725],[109.1,31.85],[109.275,31.825],[109.4,31.75],[109.575,31.75],[109.75,31.7],[109.8,31.55],[110.075,31.475],[110.15,31.425],[110.15,31.075],[110.25,31.025],[110.2,30.775],[110.05,30.775],[109.9,30.675],[109.7,30.725],[109.3,30.55],[109.275,30.475],[109.15,30.45],[109.0,30.225],[108.925,30.175],[108.6,30.175],[108.4,29.975],[108.35,29.875],[108.175,29.7],[108.15,29.4],[108.025,29.2],[108.025,28.925],[107.85,28.825],[107.8,28.625],[107.9,28.55],[107.75,28.325],[107.625,28.275],[107.5,28.15],[107.4,27.9],[107.25,27.925],[107.175,28.0],[106.925,28.05],[106.85,27.975],[106.8,27.8],[106.55,27.725],[106.425,27.575],[106.325,27.6],[106.1,27.575],[106.05,27.425],[105.875,27.35],[105.875,27.3],[105.7,27.3],[105.65,27.4],[105.375,27.375],[105.2,27.4],[105.15,27.325],[105.025,27.4],[104.85,27.3],[104.75,27.3],[104.625,27.2],[104.5,27.2],[104.35,27.325],[104.325,27.575],[104.225,27.725],[104.375,27.825],[104.375,27.95],[104.55,28.275],[104.55,28.6],[104.525,28.65],[104.625,28.775],[105.025,28.825],[105.05,28.725],[105.25,28.8],[105.25,29.125],[105.35,29.325],[105.35,29.55],[105.525,29.8],[105.425,29.85],[105.375,29.975],[105.425,30.125],[105.425,30.375],[105.625,30.725],[105.675,31.1],[105.675,31.65],[105.75,31.95],[105.7,32.0],[105.725,32.375],[105.85,32.5],[106.075,32.5],[106.225,32.6],[106.45,32.55],[106.5,32.625],[107.2,32.6],[107.625,32.6],[107.775,32.475],[107.625,32.225],[107.725,32.125],[107.925,32.15],[107.95,32.2]]]}}],"snapped":true}