{"type":"FeatureCollection","features":[{"type":"Feature","properties":{"name":"Dakapeng culture","name_zh":"","focus":false,"label":[120.67,23.51],"area":2.9,"color":"#7d6b5a"},"geometry":{"type":"Polygon","coordinates":[[[120.622,21.925],[120.528,22.096],[120.113,22.641],[119.964,23.086],[119.950,23.283],[120.020,23.619],[120.856,24.809],[121.428,25.134],[121.780,24.900],[121.592,24.645],[121.572,24.226],[121.399,23.933],[121.325,23.400],[121.182,23.037],[120.781,22.344],[120.724,21.988],[120.622,21.925]]]}},{"type":"Feature","properties":{"name":"Austronesians","name_zh":"","focus":false,"label":[120.59,15.69],"area":23.3,"color":"#5f87a3"},"geometry":{"type":"MultiPolygon","coordinates":[[[[114.853,5.015],[114.849,5.0],[114.799,5.0],[114.853,5.015]]],[[[95.283,5.550],[95.464,5.569],[95.627,5.525],[96.024,5.215],[96.187,5.145],[96.752,5.064],[97.384,5.180],[97.561,5.0],[95.293,5.0],[95.190,5.410],[95.283,5.550]]],[[[115.291,5.453],[115.717,5.467],[115.787,5.740],[115.970,5.881],[116.098,6.097],[116.337,6.358],[116.595,6.899],[116.740,6.689],[116.889,6.645],[117.031,6.836],[117.168,6.614],[117.507,6.392],[117.540,6.240],[117.353,5.877],[117.370,5.788],[117.866,5.904],[117.918,5.802],[117.761,5.580],[118.256,5.663],[118.377,5.638],[118.997,5.277],[119.042,5.169],[118.908,5.0],[115.432,5.0],[115.417,5.111],[115.203,5.275],[115.291,5.453]]],[[[118.088,9.431],[118.508,9.921],[118.557,9.673],[118.504,9.482],[118.384,9.349],[117.967,9.113],[117.857,8.833],[117.710,8.712],[117.444,8.635],[117.270,8.450],[117.127,8.469],[117.378,8.895],[118.088,9.431]]],[[[119.108,10.627],[119.207,11.129],[119.353,11.212],[119.416,11.130],[119.344,11.002],[119.564,10.501],[118.864,10.023],[118.699,10.035],[118.756,10.169],[118.847,10.214],[118.989,10.392],[119.108,10.627]]],[[[120.340,13.387],[121.039,13.407],[121.180,13.332],[121.304,13.129],[121.316,12.741],[121.273,12.525],[121.094,12.201],[120.733,12.549],[120.546,13.152],[120.340,13.387]]],[[[125.280,6.593],[125.465,6.244],[125.532,5.939],[125.461,5.717],[125.289,5.488],[125.072,5.722],[125.163,5.907],[125.129,6.053],[124.965,6.084],[124.803,5.785],[124.224,6.089],[123.973,6.336],[123.880,6.565],[123.864,6.851],[124.073,7.258],[124.024,7.474],[123.815,7.658],[123.464,7.790],[123.333,7.771],[123.247,7.593],[123.022,7.478],[122.725,7.452],[122.713,7.674],[122.635,7.782],[122.455,7.693],[121.991,6.872],[121.839,6.967],[121.824,7.056],[122.093,7.775],[122.211,7.902],[122.384,7.985],[122.637,8.004],[122.736,8.062],[122.796,8.272],[122.888,8.342],[123.135,8.450],[123.485,8.496],[123.616,8.337],[123.662,8.013],[123.805,8.083],[124.023,8.109],[124.117,8.192],[124.210,8.446],[124.371,8.561],[124.670,8.428],[124.741,8.918],[124.872,8.924],[124.990,8.715],[125.224,8.995],[125.401,8.951],[125.460,9.053],[125.439,9.370],[125.362,9.624],[125.428,9.783],[125.933,9.174],[126.037,8.958],[126.074,8.812],[125.923,8.482],[126.029,8.380],[126.271,8.425],[126.306,8.235],[126.254,8.044],[126.279,7.733],[126.372,7.536],[126.372,7.339],[126.321,7.148],[126.045,6.608],[125.954,6.652],[125.910,6.849],[125.747,7.185],[125.614,7.236],[125.280,6.593]]],[[[122.700,10.031],[122.920,10.851],[123.117,10.934],[123.239,10.922],[123.312,10.738],[123.104,10.229],[122.962,9.594],[123.132,9.251],[123.037,9.066],[122.941,9.047],[122.395,9.478],[122.303,9.649],[122.347,9.815],[122.602,9.910],[122.700,10.031]]],[[[122.470,11.454],[122.635,11.442],[122.919,11.525],[122.896,11.150],[122.706,10.940],[122.297,10.647],[121.873,10.468],[121.993,11.758],[122.210,11.580],[122.470,11.454]]],[[[124.875,11.834],[124.330,12.208],[124.264,12.417],[124.952,12.527],[125.119,12.476],[125.246,12.292],[125.333,11.562],[125.448,11.206],[125.398,11.149],[125.323,11.123],[125.069,11.244],[124.883,11.434],[124.854,11.491],[124.916,11.643],[124.875,11.834]]],[[[119.681,16.187],[119.762,16.359],[120.202,16.042],[120.293,16.233],[120.246,16.874],[120.311,17.071],[120.393,18.043],[120.564,18.431],[120.800,18.552],[121.036,18.527],[121.580,18.294],[121.839,18.275],[122.049,18.447],[122.139,18.384],[122.147,18.206],[122.027,18.009],[122.007,17.793],[122.070,17.437],[122.313,17.260],[122.395,17.114],[122.203,16.542],[122.063,16.332],[121.402,15.873],[121.368,15.498],[121.242,15.307],[121.456,14.882],[121.728,14.108],[121.973,13.949],[122.106,13.918],[122.397,14.306],[122.486,14.319],[122.674,14.269],[122.776,14.174],[122.856,13.888],[122.985,13.729],[123.131,13.692],[123.359,13.952],[123.701,13.820],[123.736,13.763],[123.397,13.527],[123.818,12.975],[123.676,12.892],[123.238,13.025],[123.196,13.241],[123.093,13.380],[122.485,13.881],[122.369,13.880],[122.325,13.779],[122.491,13.430],[122.394,13.302],[122.067,13.651],[121.624,13.898],[121.486,13.891],[121.331,13.827],[121.187,13.681],[121.009,13.655],[120.598,13.921],[120.510,14.112],[120.798,14.385],[121.104,14.253],[121.285,14.342],[121.217,14.418],[120.896,14.551],[120.706,14.728],[120.471,14.804],[120.363,14.530],[119.971,14.904],[119.771,15.469],[119.812,15.978],[119.681,16.187]]]]}},{"type":"Feature","properties":{"name":"Jōmon","name_zh":"","focus":false,"label":[137.51,35.4],"area":17.1,"color":"#7272a8"},"geometry":{"type":"MultiPolygon","coordinates":[[[[130.674,31.211],[130.732,31.478],[130.581,31.528],[130.474,31.439],[130.404,31.229],[130.232,31.026],[130.086,31.121],[130.060,31.216],[130.205,31.426],[130.219,31.559],[130.058,31.972],[130.481,32.347],[130.496,32.557],[130.257,32.912],[130.107,32.930],[129.845,32.587],[129.733,32.637],[129.630,32.866],[129.460,32.986],[129.343,33.151],[129.528,33.297],[129.858,33.260],[130.176,33.337],[130.426,33.674],[130.644,33.700],[130.859,33.675],[130.971,33.503],[131.092,33.427],[131.286,33.390],[131.568,33.486],[131.669,33.308],[131.413,33.111],[131.795,32.807],[131.830,32.693],[131.562,32.432],[131.453,32.247],[131.319,31.511],[131.210,31.352],[130.959,31.193],[130.744,30.887],[130.579,30.906],[130.554,30.969],[130.674,31.211]]],[[[132.121,33.347],[132.449,33.519],[132.784,33.907],[132.968,33.793],[133.245,33.800],[133.462,33.883],[133.805,34.176],[134.010,34.189],[134.540,34.012],[134.609,33.898],[134.519,33.650],[133.998,33.148],[133.726,33.376],[133.516,33.394],[133.240,33.299],[133.154,33.216],[132.969,32.765],[132.900,32.669],[132.698,32.548],[132.467,32.757],[132.342,33.106],[132.121,33.347]]],[[[139.022,34.688],[138.863,34.567],[138.779,34.579],[138.751,34.922],[138.683,34.992],[138.450,34.902],[138.295,34.763],[138.149,34.527],[137.759,34.552],[137.248,34.481],[137.041,34.728],[136.733,34.874],[136.616,34.759],[136.507,34.518],[136.898,34.258],[136.766,34.169],[136.393,34.111],[136.199,34.003],[135.755,33.342],[135.062,33.690],[134.969,34.134],[135.236,34.350],[135.317,34.471],[135.286,34.598],[135.205,34.617],[134.935,34.540],[134.427,34.628],[133.825,34.385],[133.589,34.442],[132.481,34.129],[132.386,34.268],[132.183,34.287],[131.997,34.090],[131.994,33.804],[131.654,33.911],[130.899,33.903],[130.779,33.966],[130.892,34.246],[131.334,34.291],[131.672,34.501],[132.662,35.380],[132.980,35.444],[133.006,35.254],[133.804,35.427],[134.755,35.531],[135.156,35.646],[135.188,35.443],[135.357,35.322],[135.727,35.450],[135.928,35.603],[135.977,35.972],[136.668,36.667],[136.640,37.170],[136.810,37.310],[137.309,37.432],[137.334,37.273],[137.013,37.037],[136.983,36.833],[137.045,36.668],[137.176,36.643],[137.464,36.853],[137.887,37.024],[139.538,35.290],[139.422,35.165],[139.208,35.165],[139.052,35.024],[139.022,34.688]]]]}},{"type":"Feature","properties":{"name":"Indus valley civilization","name_zh":"","focus":false,"label":[66.55,26.19],"area":70.0,"color":"#6f9460"},"geometry":{"type":"Polygon","coordinates":[[[72.319,22.115],[72.127,21.828],[72.131,21.746],[72.288,21.549],[72.256,21.352],[72.120,21.155],[71.894,20.989],[71.024,20.657],[70.855,20.650],[70.467,20.777],[70.209,20.947],[69.126,21.968],[68.894,22.285],[69.492,22.248],[69.968,22.351],[70.176,22.478],[70.410,22.752],[70.380,22.860],[70.045,22.777],[69.664,22.789],[69.107,22.898],[68.790,23.028],[68.372,23.326],[68.072,23.675],[68.046,23.764],[67.692,23.814],[67.486,23.928],[67.315,24.092],[67.204,24.588],[67.153,24.651],[66.654,24.783],[66.700,25.114],[66.620,25.317],[66.432,25.488],[66.300,25.494],[65.768,25.309],[64.424,25.173],[64.238,25.210],[64.059,25.401],[63.650,25.336],[63.403,25.164],[63.018,25.157],[63.293,26.877],[64.812,28.514],[67.619,28.982],[69.022,31.086],[70.775,32.021],[73.698,32.138],[78.843,30.735],[79.193,30.034],[78.843,28.631],[72.295,28.982],[70.308,28.046],[69.723,26.994],[70.074,25.474],[72.529,24.422],[73.231,23.720],[72.695,22.128],[72.319,22.115]]]}},{"type":"Feature","properties":{"name":"Oxus","name_zh":"","focus":false,"label":[65.75,38.64],"area":29.1,"color":"#5f87a3"},"geometry":{"type":"Polygon","coordinates":[[[62.097,37.020],[62.583,38.284],[61.130,38.986],[61.183,39.088],[62.353,40.037],[64.847,40.893],[66.489,41.123],[67.994,41.180],[68.911,40.989],[70.564,40.014],[69.408,38.269],[65.455,36.774],[62.962,36.383],[61.606,36.823],[62.097,37.020]]]}},{"type":"Feature","properties":{"name":"Namazga","name_zh":"","focus":false,"label":[61.17,37.65],"area":5.1,"color":"#6f9460"},"geometry":{"type":"Polygon","coordinates":[[[60.059,39.079],[61.105,38.936],[61.130,38.986],[62.583,38.284],[62.097,37.020],[60.394,36.337],[60.0,36.449],[60.0,39.041],[60.059,39.079]]]}},{"type":"Feature","properties":{"name":"Ainu","name_zh":"","focus":false,"label":[140.19,38.13],"area":19.8,"color":"#7272a8"},"geometry":{"type":"MultiPolygon","coordinates":[[[[138.492,37.301],[138.698,37.448],[138.856,37.735],[139.197,37.920],[139.353,38.067],[139.439,38.188],[139.503,38.417],[139.745,38.679],[139.741,38.743],[139.896,38.998],[140.030,39.483],[140.011,39.693],[139.862,39.782],[139.804,39.890],[139.985,40.114],[139.915,40.574],[140.159,40.729],[140.386,40.985],[140.472,40.985],[140.656,40.723],[141.152,40.865],[141.076,41.102],[140.936,41.114],[140.774,41.255],[141.087,41.441],[141.436,41.269],[141.467,40.514],[141.675,40.316],[141.998,39.671],[141.998,39.448],[141.887,39.129],[141.568,38.785],[141.467,38.587],[141.496,38.421],[141.024,38.210],[140.872,37.917],[140.982,37.268],[140.963,36.956],[140.655,36.618],[140.546,36.287],[140.555,35.969],[140.834,35.677],[140.394,35.409],[140.316,35.033],[139.931,34.877],[139.807,35.007],[140.002,35.497],[139.913,35.554],[139.682,35.445],[139.538,35.290],[137.887,37.024],[138.492,37.301]]],[[[140.124,41.792],[140.099,41.945],[139.852,42.035],[139.777,42.112],[139.711,42.477],[139.973,42.651],[140.499,42.896],[140.516,43.057],[140.373,43.185],[140.498,43.320],[140.598,43.326],[140.896,43.134],[141.064,43.096],[141.303,43.187],[141.301,43.720],[141.709,43.914],[141.745,44.628],[141.566,44.969],[141.522,45.182],[141.597,45.279],[141.875,45.435],[143.020,44.463],[143.790,44.027],[144.613,43.842],[144.750,43.881],[145.139,44.178],[145.347,44.243],[145.059,43.785],[145.448,43.169],[144.994,42.937],[144.754,42.866],[144.590,42.859],[144.370,42.949],[144.166,42.942],[144.002,42.877],[143.508,42.420],[143.330,42.196],[143.213,41.926],[143.033,41.958],[141.928,42.501],[141.721,42.539],[141.396,42.519],[140.929,42.255],[140.860,42.390],[140.693,42.550],[140.540,42.537],[140.223,42.363],[140.245,42.228],[140.767,42.005],[141.155,41.749],[140.979,41.652],[140.588,41.677],[140.268,41.324],[140.112,41.273],[140.012,41.381],[139.977,41.503],[140.124,41.792]]]]}},{"type":"Feature","properties":{"name":"Dravidians","name_zh":"","focus":false,"label":[77.81,10.99],"area":25.3,"color":"#7d6b5a"},"geometry":{"type":"Polygon","coordinates":[[[80.136,14.488],[80.169,13.891],[80.075,13.669],[80.319,13.333],[80.313,13.104],[79.769,11.730],[79.710,11.444],[79.826,10.358],[79.789,10.250],[79.306,10.255],[79.222,10.192],[79.072,9.759],[78.926,9.492],[78.937,9.435],[79.159,9.277],[78.313,8.995],[78.181,8.811],[78.135,8.499],[78.064,8.385],[77.484,8.028],[77.341,8.053],[76.703,8.706],[76.537,9.118],[76.385,9.747],[76.075,10.553],[75.651,11.423],[75.210,12.102],[74.733,13.683],[74.209,14.752],[80.136,14.488]]]}},{"type":"Feature","properties":{"name":"Sintashta","name_zh":"","focus":false,"label":[61.51,51.69],"area":8.3,"color":"#6f9460"},"geometry":{"type":"Polygon","coordinates":[[[62.927,52.633],[63.124,50.744],[60.0,49.397],[60.0,52.938],[62.927,52.633]]]}},{"type":"Feature","properties":{"name":"Finno-Ugric taiga hunter-gatherers","name_zh":"","focus":false,"label":[62.17,57.48],"area":5.1,"color":"#5f87a3","nolabel":true},"geometry":{"type":"Polygon","coordinates":[[[62.805,56.955],[60.0,56.559],[60.0,58.0],[65.855,58.0],[62.805,56.955]]]}},{"type":"Feature","properties":{"name":"Paleo-Siberian hunter-gatherers","name_zh":"","focus":false,"label":[126.85,54.02],"area":242.8,"color":"#7d6b5a","nolabel":true},"geometry":{"type":"MultiPolygon","coordinates":[[[[139.293,57.336],[138.345,56.804],[137.229,55.982],[136.521,55.589],[135.269,55.028],[134.985,54.853],[134.893,54.719],[134.902,54.559],[135.094,54.432],[135.312,54.413],[135.725,54.407],[136.196,54.474],[136.491,54.455],[136.343,53.887],[136.350,53.701],[136.487,53.654],[136.770,53.695],[137.040,53.862],[137.382,53.809],[137.121,53.589],[137.071,53.489],[137.239,53.456],[137.979,53.464],[138.234,53.571],[138.409,53.805],[138.416,54.091],[139.378,54.080],[139.805,53.961],[140.102,53.801],[140.321,53.535],[141.121,53.051],[141.089,52.985],[140.828,52.825],[141.047,52.689],[134.869,52.009],[127.335,49.977],[119.935,51.257],[116.706,54.659],[114.867,58.0],[140.347,58.0],[140.028,57.644],[139.293,57.336]]],[[[104.256,58.0],[99.485,55.658],[99.537,55.281],[93.069,56.269],[85.489,55.425],[77.035,55.481],[66.144,55.075],[66.000,55.118],[65.311,55.046],[60.0,56.229],[60.0,56.559],[62.805,56.955],[65.855,58.0],[104.256,58.0]]]]}},{"type":"Feature","properties":{"name":"Andronovo","name_zh":"","focus":false,"label":[74.2,47.0],"area":386.2,"color":"#8a6f9e"},"geometry":{"type":"Polygon","coordinates":[[[91.931,48.761],[84.886,45.238],[78.244,43.326],[69.790,41.313],[68.883,40.979],[67.994,41.180],[66.489,41.123],[64.847,40.893],[62.353,40.037],[61.183,39.088],[61.111,38.935],[60.059,39.079],[60.0,39.041],[60.0,49.397],[63.124,50.744],[62.927,52.633],[60.0,52.938],[60.0,54.811],[61.760,54.934],[78.460,55.370],[86.964,55.453],[95.517,54.494],[91.931,48.761]]]}},{"type":"Feature","properties":{"name":"Afanasevo","name_zh":"","focus":false,"label":[87.21,51.47],"area":169.7,"color":"#9a8a4a"},"geometry":{"type":"Polygon","coordinates":[[[93.069,56.269],[98.766,55.419],[101.913,53.973],[100.382,52.273],[97.406,51.167],[93.324,48.021],[90.577,47.205],[88.463,47.038],[85.784,46.938],[82.933,46.904],[79.492,46.954],[74.380,47.571],[75.000,50.673],[76.657,51.762],[80.909,53.038],[87.117,55.929],[93.069,56.269]]]}},{"type":"Feature","properties":{"name":"Tibeto-Burmanese","name_zh":"","focus":false,"label":[90.54,33.01],"area":136.3,"color":"#8a6f9e"},"geometry":{"type":"Polygon","coordinates":[[[74.362,37.837],[88.984,36.917],[99.694,34.671],[98.071,29.035],[96.854,25.226],[95.506,27.315],[89.089,31.349],[73.466,34.939],[74.362,37.837]]]}},{"type":"Feature","properties":{"name":"Austro-Asiatic rice cultures","name_zh":"","focus":false,"label":[79.62,20.08],"area":505.6,"color":"#4f8f86"},"geometry":{"type":"Polygon","coordinates":[[[102.983,24.522],[106.623,20.438],[106.380,20.110],[105.964,19.880],[105.843,19.702],[105.532,18.844],[106.364,18.007],[106.433,17.550],[106.622,17.328],[107.114,16.954],[107.692,16.371],[107.809,16.282],[108.095,16.251],[108.236,16.080],[108.363,15.623],[108.498,15.363],[108.786,15.090],[108.917,14.792],[109.307,12.906],[109.068,12.486],[109.073,11.635],[108.897,11.342],[108.695,11.145],[108.164,10.966],[107.938,10.806],[107.672,10.526],[107.412,10.367],[107.265,10.347],[107.035,10.436],[106.773,10.639],[106.704,10.448],[106.748,10.067],[106.656,9.743],[106.482,9.552],[106.335,9.520],[106.229,9.551],[106.118,9.335],[105.926,9.188],[105.503,9.029],[105.208,8.653],[104.907,8.474],[104.742,8.493],[104.822,9.472],[104.890,9.694],[104.987,9.822],[104.978,9.980],[104.764,10.177],[104.427,10.284],[104.160,10.519],[104.003,10.537],[103.830,10.473],[103.606,10.473],[103.524,10.524],[103.670,10.765],[103.652,10.880],[103.524,11.057],[103.400,11.038],[103.192,10.904],[103.039,10.897],[102.962,11.367],[102.658,12.066],[102.529,12.148],[102.323,12.186],[101.918,12.585],[101.586,12.661],[101.329,12.558],[101.023,12.672],[100.871,12.678],[100.956,13.364],[100.908,13.447],[100.473,13.509],[100.239,13.490],[100.040,13.394],[99.930,13.261],[100.023,12.994],[99.833,12.523],[99.895,12.079],[99.186,10.489],[99.071,9.898],[99.118,9.371],[99.298,9.161],[99.724,9.257],[99.837,9.226],[99.898,9.067],[99.865,8.711],[100.009,8.490],[100.131,8.532],[100.301,7.886],[100.344,7.440],[100.539,7.048],[100.614,6.978],[100.975,6.852],[101.217,6.802],[101.427,6.828],[101.559,6.739],[101.679,6.464],[102.089,6.143],[102.325,6.099],[102.802,5.560],[103.212,5.0],[100.393,5.0],[100.139,6.177],[100.221,6.520],[100.154,6.603],[99.969,6.507],[99.833,6.538],[99.662,6.710],[99.610,6.938],[99.639,7.065],[99.571,7.262],[99.468,7.338],[99.293,7.319],[99.024,7.871],[98.544,8.264],[98.292,8.155],[98.195,8.327],[98.177,8.600],[98.250,8.937],[98.632,10.100],[98.431,10.201],[98.397,10.563],[98.605,10.862],[98.738,11.435],[98.867,11.645],[98.590,11.695],[98.588,11.822],[98.676,12.051],[98.596,12.737],[98.485,13.111],[98.198,13.644],[97.822,14.616],[97.573,16.445],[97.351,16.527],[97.214,16.939],[96.881,17.345],[96.770,17.332],[96.734,16.887],[96.662,16.697],[96.469,16.512],[95.713,16.155],[95.552,15.875],[95.329,15.677],[95.222,15.804],[95.220,16.001],[95.124,15.995],[94.972,15.835],[94.828,15.842],[94.753,15.937],[94.819,16.210],[94.415,16.076],[94.304,15.948],[94.144,16.005],[94.143,16.215],[94.392,16.908],[94.464,17.264],[94.465,17.664],[94.420,18.140],[94.053,19.061],[93.965,19.194],[93.839,18.952],[93.457,19.174],[93.814,19.257],[93.723,19.594],[93.334,20.025],[93.065,19.992],[92.894,20.113],[92.921,20.373],[92.827,20.424],[92.662,20.404],[92.403,20.613],[92.176,20.886],[91.946,21.362],[91.845,21.908],[91.571,22.543],[91.410,22.720],[91.081,22.561],[90.904,22.560],[90.619,22.960],[90.564,22.979],[90.495,22.922],[90.483,22.680],[90.651,22.325],[90.649,22.134],[90.585,22.058],[90.380,22.019],[90.274,21.778],[90.157,21.733],[89.869,22.133],[89.796,21.832],[89.670,21.719],[89.578,21.700],[89.456,21.941],[89.233,21.655],[89.072,21.774],[88.994,21.629],[89.025,21.546],[88.880,21.514],[88.723,21.539],[88.656,21.857],[88.567,21.895],[88.377,21.577],[88.299,21.551],[88.053,21.938],[87.867,21.696],[87.640,21.563],[86.937,21.288],[86.796,21.135],[86.926,20.691],[86.637,20.319],[86.632,20.203],[86.119,19.806],[85.379,19.605],[85.113,19.442],[84.262,18.455],[83.987,18.207],[83.684,18.083],[83.381,17.710],[82.353,17.085],[82.234,16.647],[82.081,16.462],[81.788,16.328],[81.596,16.302],[81.369,16.346],[81.253,16.225],[81.087,15.826],[80.963,15.723],[80.735,15.837],[80.459,15.773],[80.300,15.645],[80.089,15.175],[80.136,14.488],[74.209,14.752],[73.841,15.390],[73.409,16.558],[73.064,18.031],[72.759,20.057],[72.864,20.311],[73.109,20.687],[73.112,20.827],[72.931,20.953],[72.765,21.150],[72.665,21.848],[72.695,22.128],[73.231,23.720],[72.529,24.422],[70.074,25.474],[69.723,26.994],[70.308,28.046],[72.295,28.982],[78.843,28.631],[79.193,30.034],[78.843,30.735],[73.698,32.138],[70.775,32.021],[69.022,31.086],[67.619,28.982],[64.812,28.514],[63.293,26.877],[63.018,25.157],[62.449,25.162],[61.813,25.053],[61.343,25.026],[61.001,25.075],[62.895,32.154],[72.258,35.217],[89.089,31.349],[95.506,27.315],[96.854,25.226],[96.266,23.386],[96.410,23.477],[102.983,24.522]]]}},{"type":"Feature","properties":{"name":"Koreans","name_zh":"","focus":false,"label":[126.3,39.43],"area":86.0,"color":"#6f9460"},"geometry":{"type":"MultiPolygon","coordinates":[[[[126.106,34.387],[126.243,34.573],[126.380,34.494],[126.342,34.401],[126.186,34.351],[126.106,34.387]]],[[[125.914,34.685],[125.981,34.716],[126.008,34.691],[125.971,34.647],[125.914,34.685]]],[[[126.005,34.768],[125.932,34.718],[125.888,34.732],[125.908,34.772],[126.005,34.768]]],[[[125.986,34.860],[126.062,34.928],[126.094,34.909],[126.063,34.854],[125.986,34.860]]],[[[126.059,35.090],[126.137,35.142],[126.162,35.143],[126.106,35.046],[126.059,35.090]]],[[[126.335,36.438],[126.324,36.565],[126.376,36.590],[126.431,36.403],[126.335,36.438]]],[[[126.161,36.838],[126.169,36.825],[126.159,36.827],[126.161,36.838]]],[[[124.615,37.968],[124.718,37.983],[124.746,37.954],[124.651,37.914],[124.615,37.968]]],[[[129.631,41.277],[129.477,40.682],[129.177,40.630],[128.446,40.065],[128.236,39.969],[127.931,39.956],[127.671,39.866],[127.440,39.623],[127.276,39.221],[127.404,39.075],[128.269,38.420],[128.303,38.583],[128.363,38.625],[128.634,38.125],[129.049,37.685],[129.342,37.257],[129.433,37.058],[129.416,36.942],[129.474,36.774],[129.416,36.616],[129.438,36.400],[129.381,36.314],[129.388,36.025],[129.463,35.994],[129.557,36.078],[129.588,36.019],[129.439,35.475],[129.136,35.112],[128.978,35.084],[128.973,35.134],[128.810,35.084],[128.572,35.169],[128.378,35.036],[128.372,35.004],[128.477,35.053],[128.501,35.008],[128.434,34.834],[128.335,34.871],[128.329,34.949],[128.216,34.930],[128.203,34.888],[128.066,34.924],[128.020,34.986],[127.767,34.960],[127.643,34.900],[127.593,34.941],[127.576,34.886],[127.638,34.814],[127.773,34.843],[127.747,34.727],[127.640,34.616],[127.556,34.651],[127.567,34.766],[127.493,34.851],[127.363,34.751],[127.514,34.591],[127.389,34.471],[127.315,34.443],[127.124,34.537],[127.201,34.633],[127.192,34.569],[127.242,34.569],[127.328,34.652],[127.328,34.743],[127.009,34.602],[126.889,34.412],[126.811,34.445],[126.772,34.582],[126.600,34.300],[126.556,34.300],[126.478,34.345],[126.463,34.484],[126.288,34.590],[126.266,34.683],[126.303,34.751],[126.451,34.578],[126.451,34.648],[126.618,34.619],[126.476,34.724],[126.659,34.812],[126.539,34.873],[126.510,34.775],[126.375,34.785],[126.433,34.963],[126.318,34.932],[126.249,35.116],[126.344,35.151],[126.359,35.069],[126.431,35.023],[126.458,35.090],[126.360,35.180],[126.421,35.406],[126.523,35.524],[126.687,35.533],[126.664,35.591],[126.498,35.578],[126.474,35.635],[126.751,35.778],[126.801,35.861],[126.788,35.894],[126.615,35.890],[126.631,35.967],[126.761,35.995],[126.872,36.054],[126.685,35.999],[126.544,36.136],[126.464,36.574],[126.527,36.592],[126.497,36.723],[126.347,36.739],[126.293,36.581],[126.272,36.717],[126.172,36.672],[126.128,36.751],[126.191,36.819],[126.184,36.878],[126.291,36.962],[126.321,36.884],[126.289,36.785],[126.401,36.851],[126.413,36.933],[126.348,36.952],[126.355,36.996],[126.442,36.999],[126.483,36.842],[126.502,37.052],[126.619,36.972],[126.781,36.963],[126.838,36.753],[127.000,36.929],[126.908,36.919],[126.752,37.048],[126.776,37.123],[126.869,37.176],[126.694,37.121],[126.661,37.156],[126.661,37.253],[126.865,37.266],[126.722,37.328],[126.741,37.386],[126.656,37.411],[126.621,37.481],[126.674,37.488],[126.658,37.554],[126.549,37.642],[126.532,37.762],[126.513,37.597],[126.397,37.598],[126.209,37.754],[125.909,37.511],[125.741,37.784],[125.561,37.835],[125.269,37.484],[125.076,37.770],[124.769,37.935],[124.693,38.139],[124.736,38.279],[124.929,38.464],[125.268,38.567],[125.293,38.688],[125.027,38.815],[125.296,39.364],[125.206,39.485],[124.922,39.618],[124.688,39.605],[124.548,39.541],[124.442,39.573],[124.208,39.738],[124.104,39.884],[123.916,39.807],[123.039,39.672],[122.027,39.255],[121.488,38.878],[121.216,38.756],[121.065,38.750],[121.123,38.865],[121.660,39.331],[121.448,39.382],[121.282,39.349],[121.213,39.483],[121.239,39.553],[121.668,39.905],[121.788,40.078],[122.107,40.353],[122.082,40.488],[121.753,40.736],[121.426,40.864],[121.085,40.857],[121.010,40.850],[120.788,40.683],[120.272,40.151],[120.112,40.081],[119.823,40.042],[119.385,39.843],[119.210,39.639],[119.090,39.339],[118.977,39.224],[118.781,39.166],[118.559,39.172],[118.505,39.128],[111.420,43.558],[113.885,44.638],[128.365,44.366],[129.884,41.902],[129.641,41.655],[129.590,41.469],[129.631,41.277]]],[[[126.843,33.308],[126.266,33.190],[126.158,33.314],[126.317,33.452],[126.633,33.531],[126.821,33.550],[126.941,33.453],[126.843,33.308]]],[[[126.648,34.320],[126.694,34.389],[126.774,34.286],[126.700,34.284],[126.648,34.320]]],[[[127.114,34.463],[127.213,34.485],[127.245,34.465],[127.160,34.414],[127.114,34.463]]],[[[127.711,34.526],[127.770,34.538],[127.798,34.484],[127.780,34.474],[127.711,34.526]]],[[[127.739,34.604],[127.768,34.664],[127.812,34.641],[127.799,34.572],[127.739,34.604]]],[[[128.055,34.813],[128.060,34.701],[127.977,34.697],[127.860,34.719],[127.822,34.843],[127.898,34.933],[127.956,34.800],[128.055,34.813]]],[[[128.741,34.781],[128.585,34.703],[128.597,34.834],[128.526,34.805],[128.490,34.868],[128.711,34.976],[128.741,34.781]]],[[[127.997,34.835],[128.024,34.913],[128.085,34.830],[127.997,34.835]]],[[[130.805,37.513],[130.919,37.545],[130.922,37.481],[130.868,37.450],[130.805,37.513]]]]}},{"type":"Feature","properties":{"name":"Xia","name_zh":"夏","focus":true,"label":[110.09,35.07],"area":25.0},"geometry":{"type":"Polygon","coordinates":[[[113.762,35.955],[112.808,33.026],[107.904,31.936],[106.133,34.184],[107.291,35.955],[110.220,36.704],[113.762,35.955]]]}}]}