{"type":"FeatureCollection","features":[{"type":"Feature","properties":{"name":"Ainus","name_zh":"","focus":false,"label":[143.26,43.52],"area":18.8,"color":"#a07d5a"},"geometry":{"type":"MultiPolygon","coordinates":[[[[150.0,46.045],[150.0,45.831],[149.684,45.633],[149.437,45.583],[149.667,45.85],[149.856,45.923],[150.0,46.045]]],[[[147.762,44.938],[147.62,44.966],[147.585,44.918],[147.622,44.897],[147.548,44.812],[147.291,44.666],[147.209,44.55],[147.021,44.507],[146.948,44.408],[146.84,44.415],[146.846,44.476],[147.153,44.673],[147.111,44.793],[147.479,44.974],[147.504,45.043],[147.656,45.075],[147.763,45.189],[147.894,45.223],[147.856,45.356],[147.932,45.421],[148.0,45.273],[148.069,45.248],[148.321,45.27],[148.7,45.52],[148.856,45.474],[148.825,45.334],[148.582,45.316],[148.265,45.213],[147.868,44.971],[147.762,44.938]]],[[[146.599,43.793],[146.842,43.874],[146.904,43.839],[146.655,43.704],[146.598,43.732],[146.599,43.793]]],[[[146.102,44.243],[145.93,44.119],[145.779,43.928],[145.595,43.858],[145.554,43.65],[145.437,43.716],[145.409,43.835],[145.744,44.051],[146.127,44.507],[146.344,44.421],[146.568,44.438],[146.508,44.358],[146.102,44.243]]],[[[146.205,43.481],[146.124,43.459],[146.08,43.518],[146.226,43.525],[146.205,43.481]]],[[[141.721,42.539],[141.396,42.519],[140.929,42.255],[140.86,42.39],[140.693,42.55],[140.54,42.537],[140.349,42.432],[140.324,42.376],[140.315,42.334],[140.327,42.293],[140.417,42.201],[140.528,42.132],[140.578,42.119],[140.684,42.123],[140.734,42.116],[140.912,41.978],[141.108,41.848],[141.151,41.805],[141.109,41.779],[141.155,41.749],[140.979,41.652],[140.588,41.677],[140.268,41.324],[140.112,41.273],[140.012,41.381],[139.977,41.503],[140.002,41.551],[139.995,41.576],[140.021,41.696],[140.084,41.803],[140.106,41.902],[140.1,41.937],[140.098,41.946],[139.852,42.035],[139.777,42.112],[139.711,42.477],[139.859,42.575],[139.86,42.582],[139.891,42.649],[139.951,42.671],[140.015,42.685],[140.115,42.733],[140.224,42.796],[140.329,42.867],[140.432,42.954],[140.486,43.05],[140.407,43.154],[140.373,43.185],[140.389,43.202],[140.379,43.237],[140.392,43.303],[140.487,43.338],[140.544,43.323],[140.598,43.326],[140.736,43.237],[140.781,43.215],[140.819,43.205],[140.954,43.201],[141.138,43.18],[141.245,43.185],[141.296,43.2],[141.303,43.206],[141.301,43.72],[141.511,43.82],[141.601,43.919],[141.645,44.019],[141.661,44.264],[141.716,44.371],[141.734,44.416],[141.745,44.628],[141.566,44.969],[141.522,45.182],[141.597,45.279],[141.615,45.289],[141.653,45.349],[141.654,45.377],[141.668,45.401],[141.778,45.419],[141.829,45.439],[141.879,45.483],[141.938,45.51],[141.981,45.483],[142.0,45.459],[142.0,45.329],[143.02,44.463],[143.79,44.027],[144.613,43.842],[144.75,43.881],[145.139,44.178],[145.347,44.243],[145.059,43.785],[145.448,43.169],[144.994,42.937],[144.754,42.866],[144.59,42.859],[144.37,42.949],[144.166,42.942],[144.002,42.877],[143.508,42.42],[143.33,42.196],[143.213,41.926],[143.033,41.958],[142.0,42.466],[141.928,42.501],[141.721,42.539]]],[[[141.598,52.216],[141.811,52.628],[141.84,52.96],[141.689,53.165],[141.767,53.272],[141.828,53.276],[141.824,53.34],[141.852,53.389],[141.964,53.456],[142.0,53.464],[142.0,53.286],[142.214,53.299],[142.674,53.54],[142.863,53.34],[143.056,53.061],[143.138,52.856],[143.143,52.511],[143.033,52.312],[142.944,51.961],[142.943,51.617],[143.074,51.267],[143.34,50.885],[143.633,50.234],[144.038,49.508],[144.539,48.753],[143.598,49.233],[143.152,49.258],[142.853,49.127],[142.646,48.657],[142.489,47.901],[142.614,47.459],[142.993,46.953],[143.236,46.863],[143.444,46.571],[143.303,46.011],[143.004,46.577],[142.614,46.712],[142.513,46.699],[142.327,46.563],[142.0,46.068],[142.0,45.977],[141.963,46.012],[141.898,45.914],[141.708,46.139],[141.622,46.558],[141.909,47.073],[141.731,47.471],[141.81,47.675],[142.0,47.914],[142.036,47.959],[142.0,48.157],[141.977,48.284],[141.739,48.807],[141.921,48.943],[142.0,49.197],[142.049,49.354],[142.152,50.89],[142.112,51.219],[142.016,51.43],[142.0,51.446],[141.643,51.813],[141.598,52.216]]],[[[140.9,52.15],[140.775,52.275],[140.775,52.4],[140.65,52.6],[140.7,52.75],[141.05,52.8],[141.089,52.897],[141.256,52.84],[141.266,52.653],[141.245,52.55],[141.166,52.47],[141.15,52.475],[141.15,52.454],[141.132,52.436],[141.15,52.404],[141.15,52.4],[141.152,52.401],[141.17,52.368],[141.33,52.271],[141.409,52.234],[141.485,52.179],[141.386,52.057],[141.367,51.921],[141.258,51.861],[141.129,51.728],[141.05,51.684],[141.05,51.8],[141.0,51.95],[140.9,52.025],[140.9,52.15]]]]}},{"type":"Feature","properties":{"name":"Hainan","name_zh":"","focus":false,"label":[109.47,19.04],"area":3.0,"color":"#5f87a3"},"geometry":{"type":"Polygon","coordinates":[[[109.22,19.757],[109.177,19.768],[109.219,19.843],[109.263,19.883],[109.315,19.904],[109.418,19.889],[109.514,19.904],[109.584,19.97],[109.651,19.984],[109.906,19.963],[110.083,19.993],[110.172,20.054],[110.213,20.056],[110.344,20.039],[110.385,19.985],[110.391,19.986],[110.388,20.018],[110.394,20.059],[110.418,20.055],[110.527,20.005],[110.588,20.013],[110.589,20.072],[110.598,20.098],[110.652,20.138],[110.679,20.137],[110.745,20.059],[110.809,20.014],[110.889,19.992],[110.938,19.948],[110.971,19.883],[110.998,19.765],[111.014,19.655],[110.913,19.586],[110.822,19.558],[110.641,19.291],[110.603,19.207],[110.572,19.172],[110.563,19.135],[110.566,19.099],[110.519,18.97],[110.478,18.813],[110.451,18.748],[110.4,18.698],[110.334,18.673],[110.294,18.67],[110.262,18.625],[110.189,18.599],[110.156,18.57],[110.049,18.505],[110.066,18.476],[110.067,18.448],[110.02,18.416],[109.968,18.422],[109.816,18.397],[109.76,18.348],[109.703,18.259],[109.681,18.247],[109.59,18.226],[109.521,18.219],[109.429,18.096],[108.651,18.482],[108.576,19.187],[108.649,19.246],[108.65,19.265],[108.666,19.304],[108.694,19.338],[108.791,19.418],[108.903,19.481],[109.063,19.614],[109.179,19.674],[109.277,19.761],[109.22,19.757]]]}},{"type":"Feature","properties":{"name":"Sinhalese kingdom","name_zh":"","focus":false,"label":[80.73,7.62],"area":5.3,"color":"#5f87a3"},"geometry":{"type":"MultiPolygon","coordinates":[[[[79.708,8.066],[79.713,8.182],[79.75,8.294],[79.75,8.049],[79.783,8.018],[79.809,8.05],[79.818,8.145],[79.724,8.416],[79.808,8.647],[79.674,8.804],[79.705,8.93],[79.896,8.92],[80.052,9.113],[80.076,9.279],[80.117,9.346],[80.111,9.453],[80.086,9.578],[80.146,9.556],[80.123,9.636],[80.046,9.65],[79.979,9.699],[79.954,9.742],[79.967,9.793],[79.982,9.813],[80.078,9.807],[80.181,9.81],[80.253,9.796],[80.376,9.642],[80.711,9.366],[80.893,9.086],[80.91,9.025],[80.935,8.971],[80.979,8.957],[81.016,8.933],[81.198,8.662],[81.219,8.608],[81.216,8.549],[81.227,8.506],[81.275,8.484],[81.334,8.472],[81.373,8.431],[81.422,8.215],[81.422,8.148],[81.436,8.119],[81.517,8.0],[81.419,8.0],[81.445,7.928],[81.804,7.313],[81.866,7.084],[81.779,6.753],[81.599,6.448],[81.202,6.079],[80.851,5.951],[80.341,5.969],[80.222,6.058],[80.127,6.216],[79.854,7.061],[79.834,8.0],[79.721,8.0],[79.708,8.066]],[[80.428,9.481],[80.385,9.549],[80.258,9.611],[80.175,9.626],[80.344,9.473],[80.368,9.48],[80.428,9.481]]],[[[79.97,9.631],[79.907,9.62],[79.857,9.686],[79.846,9.715],[79.859,9.734],[79.872,9.744],[79.888,9.741],[79.912,9.679],[79.97,9.631]]],[[[79.875,9.051],[79.904,8.975],[79.821,9.027],[79.767,9.07],[79.748,9.105],[79.86,9.066],[79.875,9.051]]]]}},{"type":"Feature","properties":{"name":"Orissa","name_zh":"","focus":false,"label":[82.66,18.33],"area":11.6,"color":"#4f8f86"},"geometry":{"type":"Polygon","coordinates":[[[84.95,20.25],[85.125,20.2],[85.175,20.075],[85.35,19.825],[85.45,19.8],[85.6,19.675],[85.604,19.666],[85.425,19.618],[85.226,19.508],[85.023,19.338],[84.262,18.455],[84.145,18.349],[84.104,18.293],[84.055,18.268],[83.987,18.207],[83.684,18.083],[83.381,17.71],[83.021,17.491],[82.977,17.462],[82.956,17.452],[82.353,17.085],[82.301,16.893],[82.307,16.879],[82.35,16.825],[82.36,16.783],[82.339,16.707],[82.327,16.664],[82.259,16.56],[82.142,16.485],[82.049,16.447],[81.788,16.328],[81.596,16.302],[81.369,16.346],[81.253,16.225],[81.087,15.826],[80.963,15.723],[80.854,15.778],[80.826,15.766],[80.812,15.799],[80.735,15.837],[80.459,15.773],[80.3,15.645],[80.163,15.391],[80.089,15.175],[80.089,15.125],[80.075,15.125],[79.875,15.35],[79.65,15.475],[79.65,15.575],[79.425,15.825],[79.375,15.925],[79.075,16.075],[79.05,16.2],[78.875,16.25],[78.875,16.55],[78.8,16.775],[78.65,17.0],[78.75,17.225],[78.775,17.525],[78.85,17.6],[78.875,17.75],[79.075,17.75],[79.125,17.8],[79.3,17.725],[79.6,17.725],[79.8,17.8],[80.025,17.925],[80.55,17.95],[80.65,17.925],[80.725,18.025],[80.875,17.95],[80.875,17.7],[80.975,17.625],[81.175,17.625],[81.25,17.75],[81.6,17.725],[81.825,17.85],[82.0,18.025],[82.075,18.225],[82.275,18.4],[82.425,18.45],[82.45,18.525],[82.65,18.7],[82.725,18.825],[82.8,18.825],[82.9,19.075],[83.0,19.15],[83.075,19.325],[83.1,19.55],[83.3,19.675],[83.3,19.775],[83.45,19.875],[83.625,19.9],[83.7,19.975],[83.95,20.025],[83.95,20.125],[84.25,20.35],[84.5,20.45],[84.725,20.425],[84.825,20.475],[84.95,20.25]]]}},{"type":"Feature","properties":{"name":"Pandya state","name_zh":"","focus":false,"label":[77.71,9.62],"area":7.3,"color":"#a07d5a"},"geometry":{"type":"Polygon","coordinates":[[[76.925,10.325],[76.925,10.55],[77.075,10.8],[77.2,10.825],[77.475,11.025],[77.625,11.1],[77.675,11.25],[77.775,11.325],[77.775,11.625],[77.975,11.625],[78.075,11.675],[78.275,11.675],[78.275,11.575],[78.375,11.525],[78.4,11.425],[78.55,11.4],[78.625,11.3],[78.775,11.275],[78.875,11.2],[79.05,11.15],[79.45,11.1],[79.5,11.025],[79.625,11.0],[79.849,11.0],[79.85,10.769],[79.838,10.323],[79.812,10.317],[79.789,10.25],[79.313,10.255],[79.254,10.175],[79.258,10.035],[79.089,9.808],[79.072,9.759],[78.927,9.493],[78.926,9.491],[78.937,9.435],[79.116,9.308],[79.18,9.298],[79.175,9.275],[79.175,9.258],[79.112,9.261],[78.313,8.995],[78.181,8.811],[78.135,8.499],[78.064,8.385],[77.899,8.257],[77.8,8.21],[77.77,8.19],[77.732,8.177],[77.419,8.028],[77.341,8.053],[77.128,8.271],[77.066,8.316],[76.967,8.407],[76.845,8.561],[76.703,8.706],[76.676,8.773],[76.617,8.847],[76.553,8.903],[76.483,9.091],[76.472,9.161],[76.452,9.189],[76.419,9.208],[76.403,9.237],[76.325,9.452],[76.292,9.676],[76.242,9.927],[76.285,9.91],[76.343,9.827],[76.372,9.707],[76.376,9.54],[76.42,9.52],[76.438,9.528],[76.385,9.747],[76.3,9.968],[76.249,10.018],[76.223,10.024],[76.196,10.086],[76.193,10.164],[76.195,10.172],[76.35,10.25],[76.4,10.325],[76.6,10.4],[76.925,10.325]],[[78.375,11.4],[78.4,11.4],[78.4,11.425],[78.375,11.4]]]}},{"type":"Feature","properties":{"name":"Chola Empire","name_zh":"","focus":false,"label":[78.91,12.42],"area":7.2,"color":"#7d6b5a"},"geometry":{"type":"MultiPolygon","coordinates":[[[[77.7,12.175],[77.55,12.225],[77.525,12.3],[77.65,12.425],[77.75,12.65],[77.75,13.025],[77.6,13.15],[77.6,13.65],[77.675,13.825],[77.775,13.875],[77.925,14.1],[78.2,14.175],[78.225,14.125],[78.6,14.125],[78.825,14.1],[78.825,14.2],[79.025,14.45],[79.2,14.45],[79.45,14.55],[79.825,14.55],[79.95,14.525],[80.172,14.525],[80.179,14.478],[80.17,14.349],[80.138,14.29],[80.159,14.021],[80.224,13.858],[80.244,13.773],[80.246,13.686],[80.307,13.485],[80.266,13.521],[80.233,13.606],[80.156,13.714],[80.094,13.643],[80.215,13.476],[80.29,13.437],[80.342,13.361],[80.316,13.203],[80.313,13.104],[80.288,13.042],[80.229,12.69],[80.143,12.452],[80.038,12.296],[79.982,12.235],[79.921,12.114],[79.822,11.864],[79.771,11.69],[79.754,11.575],[79.793,11.447],[79.749,11.371],[79.721,11.341],[79.723,11.32],[79.799,11.339],[79.835,11.269],[79.849,11.197],[79.849,11.0],[79.625,11.0],[79.5,11.025],[79.45,11.1],[79.05,11.15],[78.875,11.2],[78.775,11.275],[78.625,11.3],[78.55,11.4],[78.4,11.425],[78.375,11.525],[78.275,11.575],[78.275,11.675],[78.075,11.675],[77.975,11.625],[77.8,11.625],[77.825,11.925],[77.675,11.95],[77.7,12.175]]],[[[78.4,11.4],[78.375,11.4],[78.4,11.425],[78.4,11.4]]]]}},{"type":"Feature","properties":{"name":"minor Hindu kingdoms","name_zh":"","focus":false,"label":[76.58,17.63],"area":87.4,"color":"#7272a8"},"geometry":{"type":"Polygon","coordinates":[[[70.75,23.75],[70.9,23.85],[71.025,23.875],[71.1,23.975],[71.475,24.15],[71.6,24.275],[71.875,24.275],[72.075,24.35],[72.275,24.475],[72.35,24.6],[72.45,24.65],[72.575,24.525],[72.75,24.6],[73.05,24.625],[73.15,24.7],[73.525,24.725],[73.8,24.575],[73.9,24.575],[74.25,24.3],[74.55,24.275],[74.7,24.075],[74.675,23.925],[74.75,23.75],[74.55,23.725],[74.525,23.525],[74.35,23.5],[74.225,23.275],[74.15,23.075],[74.1,23.05],[74.125,22.875],[74.025,22.875],[73.8,22.75],[73.7,22.65],[73.625,22.475],[73.525,22.425],[73.575,22.225],[73.55,21.95],[73.725,21.8],[73.8,21.65],[73.975,21.675],[74.025,21.5],[74.325,21.5],[74.4,21.425],[74.75,21.375],[74.8,21.3],[75.025,21.175],[75.525,21.15],[75.7,21.075],[75.825,21.075],[75.85,21.325],[76.025,21.2],[76.175,21.25],[76.225,21.325],[76.475,21.45],[76.675,21.45],[76.775,21.5],[76.8,21.6],[76.925,21.6],[77.025,21.7],[77.25,21.7],[77.325,21.6],[77.475,21.6],[77.625,21.8],[77.975,21.8],[78.1,21.875],[78.275,21.9],[78.275,21.975],[78.425,22.075],[78.475,22.225],[78.75,22.25],[79.0,22.375],[79.175,22.375],[79.425,22.625],[79.375,23.075],[79.5,23.125],[79.925,23.1],[79.925,22.925],[80.05,22.8],[80.15,22.8],[80.25,22.9],[80.425,22.9],[80.525,22.975],[80.85,23.0],[81.05,22.95],[81.05,22.9],[81.25,22.75],[81.675,22.775],[81.825,22.75],[81.925,22.8],[82.1,22.8],[82.325,22.65],[82.475,22.725],[82.8,22.725],[82.925,22.6],[82.975,22.675],[83.175,22.8],[83.3,22.8],[83.3,22.6],[83.2,22.475],[83.2,22.075],[83.275,21.975],[83.325,21.7],[83.5,21.65],[83.525,21.725],[83.65,21.725],[83.75,21.575],[83.95,21.475],[83.9,21.35],[83.9,21.15],[83.85,20.925],[83.95,20.825],[84.1,20.8],[84.275,20.675],[84.3,20.525],[84.25,20.35],[83.95,20.125],[83.95,20.025],[83.7,19.975],[83.625,19.9],[83.45,19.875],[83.3,19.775],[83.3,19.675],[83.1,19.55],[83.075,19.325],[83.0,19.15],[82.9,19.075],[82.8,18.825],[82.725,18.825],[82.65,18.7],[82.45,18.525],[82.425,18.45],[82.275,18.4],[82.075,18.225],[82.0,18.025],[81.825,17.85],[81.6,17.725],[81.25,17.75],[81.175,17.625],[80.975,17.625],[80.875,17.7],[80.875,17.95],[80.725,18.025],[80.65,17.925],[80.55,17.95],[80.025,17.925],[79.8,17.8],[79.6,17.725],[79.3,17.725],[79.125,17.8],[79.075,17.75],[78.875,17.75],[78.85,17.6],[78.775,17.525],[78.75,17.225],[78.65,17.0],[78.8,16.775],[78.875,16.55],[78.875,16.25],[79.05,16.2],[79.075,16.075],[79.375,15.925],[79.425,15.825],[79.65,15.575],[79.65,15.475],[79.875,15.35],[80.075,15.125],[80.089,15.125],[80.087,14.946],[80.098,14.8],[80.099,14.798],[80.165,14.578],[80.172,14.525],[79.95,14.525],[79.825,14.55],[79.45,14.55],[79.2,14.45],[79.025,14.45],[78.825,14.2],[78.825,14.1],[78.6,14.125],[78.225,14.125],[78.2,14.175],[77.925,14.1],[77.775,13.875],[77.675,13.825],[77.6,13.65],[77.6,13.15],[77.75,13.025],[77.75,12.65],[77.65,12.425],[77.525,12.3],[77.55,12.225],[77.7,12.175],[77.675,11.95],[77.825,11.925],[77.8,11.625],[77.775,11.625],[77.775,11.325],[77.675,11.25],[77.625,11.1],[77.475,11.025],[77.2,10.825],[77.075,10.8],[76.925,10.55],[76.925,10.325],[76.6,10.4],[76.4,10.325],[76.35,10.25],[76.195,10.172],[76.201,10.201],[76.123,10.327],[76.096,10.402],[75.923,10.784],[75.866,10.981],[75.651,11.423],[75.292,11.976],[75.23,12.023],[75.197,12.058],[74.946,12.565],[74.868,12.845],[74.803,12.977],[74.771,13.077],[74.682,13.507],[74.682,13.584],[74.671,13.668],[74.608,13.85],[74.499,14.046],[74.467,14.169],[74.467,14.217],[74.397,14.407],[74.393,14.433],[74.25,14.681],[74.223,14.709],[74.089,14.902],[74.041,14.949],[73.949,15.075],[73.884,15.306],[73.801,15.397],[73.838,15.397],[73.774,15.571],[73.772,15.573],[73.773,15.574],[73.742,15.657],[73.733,15.657],[73.68,15.709],[73.608,15.871],[73.476,16.054],[73.454,16.152],[73.338,16.46],[73.239,17.199],[73.149,17.527],[73.156,17.622],[73.047,17.907],[72.994,18.098],[72.972,18.259],[72.943,18.366],[72.917,18.576],[72.875,18.643],[72.871,18.683],[72.899,18.779],[72.94,18.857],[72.912,19.037],[72.901,19.015],[72.835,18.976],[72.803,19.079],[72.803,19.219],[72.795,19.252],[72.812,19.299],[72.874,19.291],[72.869,19.328],[72.788,19.363],[72.764,19.413],[72.756,19.451],[72.799,19.52],[72.727,19.578],[72.697,19.757],[72.676,19.798],[72.668,19.831],[72.709,20.078],[72.881,20.563],[72.894,20.673],[72.879,20.829],[72.841,20.952],[72.825,21.079],[72.789,21.122],[72.752,21.129],[72.692,21.178],[72.624,21.372],[72.687,21.436],[72.721,21.46],[72.72,21.467],[72.668,21.456],[72.613,21.462],[72.709,21.544],[72.687,21.692],[72.543,21.697],[72.592,21.878],[72.644,21.938],[72.677,21.958],[72.678,21.969],[72.617,21.962],[72.522,21.976],[72.547,22.123],[72.319,22.115],[72.25,22.038],[72.244,22.028],[72.236,22.023],[72.232,22.019],[72.127,21.828],[72.129,21.787],[72.171,21.774],[72.21,21.728],[72.257,21.661],[72.255,21.59],[72.288,21.549],[72.256,21.352],[72.12,21.155],[71.894,20.989],[71.528,20.823],[71.024,20.657],[70.855,20.65],[70.467,20.777],[70.209,20.947],[70.0,21.144],[69.126,21.968],[68.894,22.285],[69.492,22.248],[69.968,22.351],[70.0,22.371],[70.0,22.545],[70.006,22.548],[70.084,22.554],[70.177,22.573],[70.328,22.816],[70.356,22.854],[70.045,22.777],[70.0,22.778],[69.664,22.789],[69.107,22.898],[68.882,22.997],[70.0,23.433],[70.0,23.15],[70.15,23.2],[70.425,23.45],[70.625,23.5],[70.75,23.75]]]}},{"type":"Feature","properties":{"name":"Pagan","name_zh":"蒲甘","focus":false,"label":[96.4,20.75],"area":65.4,"color":"#7272a8"},"geometry":{"type":"MultiPolygon","coordinates":[[[[90.45,23.925],[90.45,24.275],[90.475,24.475],[90.575,24.675],[90.575,25.45],[90.45,25.5],[90.475,25.575],[90.675,25.625],[90.75,25.725],[90.9,25.725],[91.05,25.65],[91.175,25.65],[91.325,25.55],[91.425,25.55],[91.425,25.525],[91.85,25.525],[92.05,25.575],[92.075,25.65],[92.225,25.775],[92.225,25.85],[92.35,26.0],[92.575,26.025],[92.625,25.95],[93.05,25.8],[93.25,25.575],[93.35,25.55],[93.5,25.375],[93.625,25.475],[93.825,25.475],[93.925,25.325],[94.075,25.45],[94.175,25.35],[94.35,25.375],[94.375,25.325],[94.575,25.275],[94.575,25.35],[94.7,25.475],[94.725,25.7],[94.65,25.85],[94.725,26.025],[94.95,26.1],[95.1,26.05],[95.05,25.875],[95.275,25.875],[95.325,25.95],[95.5,26.0],[95.575,25.95],[95.65,26.025],[95.875,26.025],[95.975,26.1],[96.1,25.9],[96.2,25.875],[96.25,25.95],[96.45,25.925],[96.475,25.875],[96.8,25.875],[97.025,25.825],[97.05,25.725],[97.25,25.7],[97.3,25.65],[97.5,25.65],[97.525,25.725],[97.725,25.725],[97.75,25.65],[97.875,25.65],[98.1,25.85],[98.2,26.025],[98.2,26.15],[98.275,26.275],[98.3,26.525],[98.375,26.65],[98.625,26.675],[98.825,26.5],[98.95,26.5],[99.0,26.425],[99.0,25.975],[99.1,25.875],[99.1,25.75],[99.2,25.6],[99.325,25.575],[99.3,25.325],[99.4,25.2],[99.575,25.15],[99.65,25.025],[99.75,25.0],[99.9,24.75],[100.2,24.7],[100.425,24.725],[100.475,24.625],[100.625,24.525],[100.525,24.375],[100.55,24.175],[100.5,24.075],[100.4,24.075],[100.4,23.9],[100.3,23.875],[100.3,23.775],[100.2,23.725],[100.15,23.45],[100.075,23.375],[100.1,23.05],[100.05,23.05],[100.025,22.85],[100.225,22.675],[100.225,22.5],[100.275,22.425],[100.275,22.1],[100.175,22.025],[100.2,21.85],[100.325,21.85],[100.375,21.75],[100.25,21.625],[100.125,21.625],[99.95,21.525],[99.7,21.525],[99.55,21.45],[99.5,21.275],[99.575,21.1],[99.55,20.7],[99.4,20.575],[99.45,20.4],[99.3,20.375],[99.175,20.275],[99.175,20.15],[99.025,20.025],[99.0,19.775],[98.775,19.725],[98.775,19.55],[98.6,19.45],[98.6,19.15],[98.55,19.05],[98.4,19.0],[98.25,18.8],[98.275,18.55],[98.175,18.3],[98.2,18.15],[98.275,18.1],[98.3,17.875],[98.25,17.8],[97.975,17.7],[97.85,17.75],[97.725,17.7],[97.775,17.4],[97.675,17.325],[97.675,17.15],[97.625,17.075],[97.65,16.85],[97.6,16.675],[97.475,16.65],[97.404,16.508],[97.351,16.527],[97.286,16.722],[97.267,16.743],[97.212,16.893],[97.199,16.957],[96.881,17.345],[96.877,17.344],[96.878,17.342],[96.91,17.305],[96.851,17.203],[96.909,17.031],[96.858,16.921],[96.811,16.778],[96.765,16.71],[96.622,16.564],[96.507,16.514],[96.462,16.509],[96.323,16.443],[96.293,16.41],[96.135,16.343],[96.118,16.346],[96.037,16.308],[96.032,16.285],[96.012,16.254],[95.763,16.169],[95.711,16.073],[95.679,15.977],[95.556,15.838],[95.39,15.723],[95.382,15.724],[95.329,15.677],[95.222,15.804],[95.221,15.872],[95.177,15.826],[95.078,15.839],[94.943,15.818],[94.937,15.837],[94.828,15.842],[94.82,15.852],[94.805,15.819],[94.784,15.794],[94.743,15.812],[94.733,15.823],[94.791,15.889],[94.753,15.937],[94.756,15.951],[94.662,15.904],[94.656,15.989],[94.651,16.065],[94.681,16.133],[94.68,16.164],[94.618,16.143],[94.619,16.141],[94.566,16.019],[94.477,15.946],[94.412,15.848],[94.388,15.994],[94.494,16.075],[94.517,16.11],[94.415,16.076],[94.304,15.948],[94.144,16.005],[94.143,16.215],[94.392,16.908],[94.464,17.264],[94.465,17.664],[94.42,18.14],[94.296,18.452],[94.266,18.507],[94.262,18.537],[94.204,18.682],[94.171,18.732],[94.183,18.734],[94.155,18.804],[94.091,18.849],[94.085,18.862],[94.1,18.95],[94.063,18.95],[94.049,19.068],[93.981,19.17],[93.941,19.146],[93.968,18.995],[93.961,18.958],[93.929,18.9],[93.8,18.961],[93.705,19.027],[93.703,19.031],[93.457,19.174],[93.589,19.205],[93.493,19.369],[93.531,19.398],[93.579,19.401],[93.728,19.267],[93.785,19.25],[93.814,19.257],[93.801,19.305],[93.756,19.326],[93.732,19.416],[93.662,19.459],[93.644,19.495],[93.688,19.544],[93.715,19.558],[93.737,19.542],[93.723,19.594],[93.5,19.841],[93.513,19.755],[93.445,19.806],[93.42,19.878],[93.414,19.936],[93.334,20.025],[93.167,20.005],[93.199,19.898],[93.191,19.851],[93.129,19.858],[93.04,20.009],[92.894,20.113],[92.9,20.175],[92.882,20.152],[92.828,20.178],[92.791,20.211],[92.844,20.283],[92.872,20.302],[92.891,20.34],[92.854,20.41],[92.827,20.424],[92.73,20.412],[92.723,20.296],[92.639,20.422],[92.403,20.613],[92.176,20.886],[91.946,21.362],[91.919,21.506],[91.889,21.503],[91.859,21.533],[91.873,21.574],[91.857,21.709],[91.881,21.715],[91.863,21.809],[91.838,21.75],[91.82,21.81],[91.835,21.885],[91.844,21.91],[91.571,22.543],[91.41,22.72],[91.435,22.829],[91.41,22.797],[91.314,22.735],[91.216,22.642],[91.151,22.614],[90.946,22.597],[90.827,22.721],[90.656,23.025],[90.634,23.094],[90.656,23.273],[90.616,23.442],[90.616,23.532],[90.604,23.591],[90.573,23.578],[90.562,23.537],[90.568,23.474],[90.556,23.422],[90.408,23.432],[90.381,23.437],[90.45,23.525],[90.45,23.675],[90.325,23.725],[90.45,23.925]]],[[[93.01,19.924],[93.023,19.829],[92.975,19.868],[92.913,20.0],[92.915,20.086],[92.96,20.046],[93.01,19.924]]],[[[91.456,22.617],[91.484,22.577],[91.523,22.491],[91.548,22.425],[91.557,22.382],[91.51,22.353],[91.467,22.378],[91.411,22.476],[91.439,22.599],[91.456,22.617]]],[[[91.121,22.439],[91.075,22.45],[91.074,22.452],[91.079,22.52],[91.121,22.439]]],[[[90.565,22.618],[90.56,22.673],[90.523,22.748],[90.503,22.835],[90.596,22.864],[90.672,22.813],[90.683,22.785],[90.699,22.714],[90.737,22.639],[90.868,22.485],[90.866,22.391],[90.854,22.318],[90.7,22.45],[90.671,22.458],[90.649,22.541],[90.565,22.618]]],[[[90.58,23.035],[90.642,22.963],[90.66,22.92],[90.604,22.946],[90.562,22.975],[90.536,23.015],[90.58,23.035]]],[[[90.2,23.275],[90.275,23.3],[90.35,23.397],[90.392,23.367],[90.523,23.346],[90.591,23.266],[90.599,23.204],[90.595,23.134],[90.528,23.085],[90.466,23.054],[90.478,22.987],[90.552,22.905],[90.462,22.882],[90.437,22.828],[90.435,22.752],[90.481,22.685],[90.498,22.635],[90.487,22.589],[90.532,22.539],[90.563,22.489],[90.525,22.5],[90.325,22.675],[90.35,22.975],[90.2,23.275]]]]}},{"type":"Feature","properties":{"name":"Đại Việt","name_zh":"大越","focus":false,"label":[103.8,18.43],"area":22.2,"color":"#9a8a4a"},"geometry":{"type":"MultiPolygon","coordinates":[[[[107.479,20.952],[107.519,21.013],[107.551,21.034],[107.551,20.981],[107.521,20.927],[107.466,20.901],[107.399,20.903],[107.479,20.952]]],[[[101.9,20.45],[102.075,20.475],[102.175,20.55],[102.45,20.55],[102.725,20.6],[102.825,20.725],[103.05,20.85],[103.1,20.95],[103.3,20.85],[103.425,20.85],[103.45,21.125],[103.575,21.375],[103.825,21.375],[104.025,21.45],[104.3,21.45],[104.275,21.65],[104.175,21.725],[104.2,22.075],[104.3,22.175],[104.5,22.075],[104.5,22.2],[104.675,22.4],[104.625,22.675],[104.825,22.775],[105.0,22.65],[105.175,22.65],[105.325,22.6],[105.425,22.45],[105.6,22.425],[105.65,22.3],[105.875,22.3],[105.95,22.225],[105.925,21.95],[106.025,21.925],[106.075,21.825],[106.3,21.8],[106.5,21.675],[106.625,21.525],[106.75,21.575],[106.95,21.525],[106.95,21.475],[107.25,21.175],[107.4,21.3],[107.539,21.161],[107.459,21.092],[107.438,21.092],[107.465,20.976],[107.374,20.88],[106.815,20.905],[106.855,20.858],[106.866,20.816],[106.854,20.796],[106.803,20.844],[106.776,20.86],[106.746,20.815],[106.771,20.638],[106.532,20.315],[106.518,20.289],[106.507,20.281],[106.38,20.11],[105.964,19.88],[105.935,19.837],[105.814,19.587],[105.812,19.467],[105.785,19.379],[105.791,19.294],[105.716,19.128],[105.639,19.057],[105.622,18.966],[105.732,18.779],[105.744,18.746],[105.808,18.646],[105.839,18.574],[105.888,18.502],[106.066,18.316],[106.145,18.259],[106.24,18.221],[106.412,18.053],[106.499,17.946],[106.459,17.874],[106.479,17.72],[106.403,17.748],[106.406,17.726],[106.517,17.663],[106.736,17.367],[106.926,17.221],[107.12,17.056],[107.18,16.898],[107.355,16.794],[107.549,16.643],[107.545,16.625],[107.225,16.325],[107.15,16.325],[107.025,16.1],[107.025,16.0],[107.15,15.875],[107.125,15.625],[107.2,15.375],[107.1,15.225],[107.075,15.075],[107.0,15.0],[106.675,14.95],[106.675,14.775],[106.55,14.625],[106.425,14.575],[105.9,14.55],[105.925,14.875],[105.9,14.95],[105.875,14.95],[105.775,15.15],[105.55,15.325],[105.625,15.425],[105.65,15.675],[105.575,15.75],[105.425,15.775],[105.375,16.025],[105.275,16.025],[104.975,16.325],[104.925,16.525],[104.8,16.525],[104.775,17.025],[104.825,17.15],[104.825,17.375],[104.65,17.6],[104.65,17.85],[104.775,17.95],[104.8,18.1],[104.875,18.15],[104.85,18.25],[104.525,18.25],[104.325,18.275],[104.3,18.125],[104.15,18.075],[104.0,18.325],[103.85,18.3],[103.525,18.45],[103.35,18.45],[103.25,18.4],[103.25,18.275],[103.05,18.15],[103.025,18.0],[102.9,18.0],[102.775,17.9],[102.625,17.875],[102.575,17.975],[102.45,17.975],[102.175,18.2],[102.05,18.2],[101.925,18.05],[101.75,18.05],[101.75,18.0],[101.55,18.025],[101.425,18.1],[101.425,18.2],[101.775,18.575],[101.825,18.75],[101.775,18.875],[101.775,19.075],[101.6,19.075],[101.4,19.125],[101.4,19.2],[101.25,19.275],[101.25,19.375],[101.525,19.5],[101.625,19.65],[101.65,19.875],[101.575,19.875],[101.625,20.075],[101.7,20.075],[101.9,20.45]],[[107.44,21.199],[107.417,21.185],[107.424,21.154],[107.44,21.199]]],[[[107.031,20.747],[106.99,20.743],[106.911,20.824],[106.953,20.867],[107.044,20.837],[107.064,20.817],[107.064,20.8],[107.042,20.761],[107.031,20.747]]]]}},{"type":"Feature","properties":{"name":"Khmer Empire","name_zh":"真腊 (吴哥)","focus":false,"label":[105.11,11.87],"area":25.1,"color":"#4f8f86"},"geometry":{"type":"MultiPolygon","coordinates":[[[[101.725,13.2],[101.775,13.225],[101.725,13.6],[101.75,13.625],[101.95,14.175],[102.1,14.25],[102.275,14.175],[102.475,14.175],[102.6,14.25],[102.9,14.25],[103.25,14.4],[103.8,14.4],[104.075,14.35],[104.2,14.425],[104.6,14.425],[104.7,14.475],[104.925,14.475],[105.125,14.35],[105.175,14.45],[105.325,14.475],[105.475,14.575],[105.6,14.95],[105.8,14.95],[105.9,14.95],[105.925,14.875],[105.9,14.55],[106.425,14.575],[106.55,14.625],[106.675,14.775],[106.675,14.95],[107.0,15.0],[107.075,15.075],[107.1,15.225],[107.2,15.375],[107.275,15.35],[107.5,15.125],[107.425,14.95],[107.475,14.525],[107.575,14.425],[107.575,14.2],[107.45,14.1],[107.35,13.925],[107.35,13.35],[107.425,13.2],[107.55,13.125],[107.55,13.0],[107.775,12.925],[107.925,12.675],[107.9,12.55],[107.7,12.475],[107.55,12.3],[107.625,12.225],[107.625,11.975],[107.725,11.8],[107.925,11.575],[108.1,11.525],[108.25,11.7],[108.575,11.725],[108.775,11.775],[108.825,11.875],[108.95,11.95],[109.0,11.825],[109.181,11.795],[109.193,11.773],[109.199,11.725],[109.173,11.665],[109.133,11.601],[109.049,11.594],[109.036,11.572],[109.018,11.468],[108.987,11.336],[108.858,11.32],[108.695,11.145],[108.439,11.059],[108.419,11.041],[108.272,10.934],[108.176,10.92],[108.095,10.897],[108.001,10.72],[107.845,10.7],[107.83,10.692],[107.672,10.526],[107.412,10.367],[107.265,10.347],[107.156,10.389],[107.084,10.337],[107.078,10.388],[107.116,10.405],[107.035,10.436],[106.971,10.486],[106.966,10.441],[106.947,10.4],[106.902,10.383],[106.813,10.433],[106.733,10.529],[106.708,10.458],[106.741,10.444],[106.778,10.376],[106.776,10.339],[106.757,10.296],[106.722,10.294],[106.734,10.19],[106.785,10.151],[106.785,10.116],[106.746,10.085],[106.748,10.067],[106.656,9.743],[106.571,9.65],[106.572,9.641],[106.539,9.604],[106.501,9.573],[106.482,9.552],[106.335,9.52],[106.229,9.551],[106.205,9.504],[106.206,9.502],[106.193,9.448],[106.168,9.397],[106.144,9.386],[106.118,9.335],[105.926,9.188],[105.503,9.029],[105.208,8.653],[105.025,8.519],[104.907,8.474],[104.742,8.493],[104.822,9.472],[104.84,9.53],[104.845,9.606],[104.903,9.816],[104.984,9.867],[104.978,9.98],[104.764,10.177],[104.722,10.19],[104.663,10.17],[104.613,10.208],[104.607,10.227],[104.427,10.284],[104.16,10.519],[104.003,10.537],[103.83,10.473],[103.606,10.473],[103.524,10.524],[103.558,10.58],[103.532,10.605],[103.54,10.669],[103.592,10.721],[103.661,10.75],[103.67,10.765],[103.652,10.88],[103.524,11.057],[103.447,11.045],[103.411,10.977],[103.354,10.922],[103.272,10.909],[103.204,10.912],[103.192,10.904],[103.039,10.897],[102.962,11.367],[102.658,12.066],[102.556,12.131],[102.54,12.109],[102.463,12.16],[102.323,12.186],[101.934,12.569],[101.894,12.59],[101.599,12.658],[101.543,12.644],[101.508,12.63],[101.475,12.675],[101.55,12.675],[101.75,12.875],[101.725,13.2]]],[[[103.986,10.427],[104.028,10.428],[104.064,10.391],[104.083,10.341],[104.076,10.225],[104.037,10.111],[104.048,10.061],[104.018,10.029],[103.952,10.243],[103.868,10.335],[103.85,10.371],[103.898,10.369],[103.986,10.427]]],[[[103.223,10.782],[103.318,10.719],[103.281,10.68],[103.223,10.76],[103.223,10.782]]]]}},{"type":"Feature","properties":{"name":"Champa","name_zh":"占城","focus":false,"label":[108.09,14.48],"area":7.4,"color":"#9a8a4a"},"geometry":{"type":"Polygon","coordinates":[[[107.025,16.1],[107.15,16.325],[107.225,16.325],[107.545,16.625],[107.541,16.609],[107.593,16.568],[107.724,16.488],[107.803,16.403],[107.834,16.322],[107.882,16.31],[107.936,16.329],[107.991,16.337],[108.029,16.331],[108.082,16.252],[108.095,16.251],[108.156,16.177],[108.17,16.164],[108.175,16.154],[108.223,16.095],[108.241,16.101],[108.267,16.09],[108.274,16.029],[108.286,15.989],[108.395,15.872],[108.447,15.763],[108.578,15.585],[108.674,15.484],[108.743,15.427],[108.821,15.378],[108.898,15.181],[108.94,15.001],[109.022,14.803],[109.085,14.716],[109.087,14.553],[109.137,14.384],[109.191,14.27],[109.207,14.154],[109.224,14.097],[109.245,14.053],[109.303,13.856],[109.288,13.765],[109.247,13.855],[109.252,13.591],[109.288,13.451],[109.272,13.279],[109.31,13.219],[109.377,13.025],[109.424,12.956],[109.42,12.719],[109.445,12.6],[109.381,12.671],[109.336,12.752],[109.274,12.709],[109.219,12.646],[109.305,12.391],[109.207,12.415],[109.216,12.073],[109.256,11.993],[109.259,11.955],[109.247,11.909],[109.22,11.959],[109.215,12.01],[109.199,11.999],[109.2,11.972],[109.167,11.912],[109.158,11.837],[109.181,11.795],[109.0,11.825],[108.95,11.95],[108.825,11.875],[108.775,11.775],[108.575,11.725],[108.25,11.7],[108.1,11.525],[107.925,11.575],[107.725,11.8],[107.625,11.975],[107.625,12.225],[107.55,12.3],[107.7,12.475],[107.9,12.55],[107.925,12.675],[107.775,12.925],[107.55,13.0],[107.55,13.125],[107.425,13.2],[107.35,13.35],[107.35,13.925],[107.45,14.1],[107.575,14.2],[107.575,14.425],[107.475,14.525],[107.425,14.95],[107.5,15.125],[107.275,15.35],[107.2,15.375],[107.125,15.625],[107.15,15.875],[107.025,16.0],[107.025,16.1]]]}},{"type":"Feature","properties":{"name":"Luva","name_zh":"","focus":false,"label":[100.4,13.71],"area":3.6,"color":"#b0805f"},"geometry":{"type":"Polygon","coordinates":[[[101.75,12.875],[101.55,12.675],[101.475,12.675],[101.508,12.63],[101.329,12.558],[101.055,12.66],[100.954,12.621],[100.898,12.654],[100.884,12.677],[100.871,12.678],[100.873,12.697],[100.863,12.715],[100.883,12.777],[100.9,12.908],[100.904,13.035],[100.924,13.109],[100.939,13.228],[100.926,13.303],[100.947,13.358],[100.95,13.374],[100.908,13.447],[100.477,13.508],[100.236,13.484],[100.19,13.466],[100.105,13.426],[100.017,13.353],[99.991,13.243],[100.051,13.171],[100.09,13.046],[99.982,12.771],[99.964,12.69],[100.006,12.355],[99.989,12.171],[99.93,12.047],[99.837,11.937],[99.799,11.749],[99.725,11.662],[99.627,11.463],[99.625,11.455],[99.575,11.475],[99.425,11.6],[99.375,11.7],[99.1,11.7],[98.975,11.8],[98.775,12.05],[98.666,12.137],[98.663,12.162],[98.925,12.4],[99.175,12.5],[99.2,12.75],[99.125,12.9],[99.125,13.075],[99.25,13.15],[99.325,13.4],[99.4,13.45],[99.475,13.675],[99.6,13.725],[99.75,13.85],[99.9,14.05],[100.125,14.1],[100.15,14.35],[100.425,14.425],[100.5,14.2],[100.7,14.225],[100.9,14.15],[101.025,14.0],[101.375,13.875],[101.45,13.775],[101.75,13.625],[101.725,13.6],[101.775,13.225],[101.725,13.2],[101.75,12.875]]]}},{"type":"Feature","properties":{"name":"Sultanate of Delhi","name_zh":"德里苏丹国","focus":false,"label":[77.18,26.71],"area":199.6,"color":"#b0805f"},"geometry":{"type":"MultiPolygon","coordinates":[[[[71.1,32.925],[71.3,33.125],[71.4,33.125],[71.5,33.225],[71.675,33.275],[71.725,33.475],[71.775,33.5],[71.8,33.675],[71.95,33.675],[72.05,33.775],[72.225,33.775],[72.225,33.925],[72.4,34.0],[72.675,34.025],[72.85,34.175],[72.85,34.525],[72.825,34.75],[73.0,34.8],[72.9,34.9],[72.925,35.025],[73.175,35.175],[73.2,35.1],[73.55,35.025],[73.7,35.1],[73.85,35.075],[73.825,34.925],[73.75,34.85],[73.65,34.6],[73.525,34.6],[73.525,34.425],[73.625,34.35],[73.65,34.225],[73.8,34.175],[73.85,34.05],[74.0,33.95],[74.325,33.95],[74.425,33.85],[74.525,33.55],[74.625,33.525],[74.725,33.35],[74.825,33.325],[74.85,33.225],[74.775,33.2],[74.775,33.0],[74.925,32.975],[75.075,32.85],[75.3,32.85],[75.35,32.925],[75.55,32.925],[75.675,32.825],[76.0,32.85],[76.1,32.975],[76.375,33.075],[76.45,33.0],[76.575,33.0],[76.6,33.1],[76.7,33.075],[76.85,32.75],[77.0,32.75],[77.2,32.6],[77.325,32.625],[77.45,32.525],[77.6,32.25],[77.725,32.125],[77.75,31.9],[77.9,31.8],[78.05,31.8],[78.1,31.625],[78.05,31.6],[78.05,31.425],[78.3,31.3],[78.475,31.25],[78.65,31.25],[78.7,31.3],[79.05,31.275],[79.25,31.2],[79.325,31.05],[79.5,31.05],[79.775,30.925],[79.8,30.925],[80.125,30.75],[80.175,30.625],[80.325,30.525],[80.6,30.475],[80.7,30.4],[80.925,30.35],[81.125,30.125],[81.15,30.025],[81.35,30.05],[81.4,30.15],[81.375,30.275],[81.525,30.2],[81.775,30.2],[81.95,30.35],[82.125,30.35],[82.225,30.2],[82.525,30.075],[82.675,29.875],[82.75,29.85],[82.875,29.7],[83.0,29.675],[83.2,29.55],[83.45,29.175],[83.6,29.175],[83.8,29.375],[83.825,29.45],[84.0,29.45],[84.3,29.3],[84.325,28.925],[84.65,28.925],[84.825,28.975],[85.025,28.925],[85.1,28.775],[85.4,28.775],[85.425,28.65],[85.575,28.6],[85.7,28.45],[85.875,28.425],[86.025,28.45],[86.2,28.325],[86.45,28.3],[86.625,28.125],[86.775,28.125],[86.975,28.05],[87.125,28.1],[87.55,28.125],[87.6,28.0],[87.725,27.875],[87.9,27.925],[88.1,27.825],[88.075,27.475],[88.0,27.375],[88.0,27.1],[88.05,27.025],[88.25,27.025],[88.3,27.1],[88.425,27.1],[88.45,26.975],[88.55,26.9],[88.7,26.9],[88.825,27.025],[88.85,27.125],[89.0,27.15],[89.0,27.3],[88.9,27.4],[89.125,27.525],[89.125,27.675],[89.225,27.8],[89.3,27.8],[89.375,27.925],[89.575,28.125],[89.825,28.175],[89.95,28.125],[90.15,28.225],[90.275,28.225],[90.45,28.1],[90.55,28.1],[90.6,28.2],[90.7,28.2],[91.125,28.35],[91.15,28.425],[91.275,28.425],[91.425,28.225],[91.525,28.2],[91.575,28.1],[92.05,28.1],[92.2,27.95],[92.175,27.675],[91.975,27.475],[91.975,27.325],[91.75,27.225],[91.65,27.225],[91.35,26.925],[91.4,26.725],[91.525,26.5],[91.55,26.175],[91.3,26.175],[91.35,26.0],[91.35,25.55],[91.325,25.55],[91.175,25.65],[91.05,25.65],[90.9,25.725],[90.75,25.725],[90.675,25.625],[90.475,25.575],[90.45,25.5],[90.575,25.45],[90.575,24.675],[90.475,24.475],[90.45,24.275],[90.45,23.925],[90.325,23.725],[90.45,23.675],[90.45,23.525],[90.381,23.437],[90.269,23.456],[90.35,23.397],[90.275,23.3],[90.2,23.275],[90.35,22.975],[90.325,22.675],[90.525,22.5],[90.563,22.489],[90.596,22.436],[90.616,22.362],[90.589,22.258],[90.553,22.218],[90.494,22.179],[90.356,22.048],[90.288,21.899],[90.231,21.83],[90.159,21.817],[90.131,21.847],[90.071,21.887],[90.07,21.96],[90.088,22.017],[90.21,22.157],[90.143,22.138],[90.069,22.098],[90.0,22.053],[90.0,21.93],[89.869,22.133],[89.796,21.832],[89.67,21.719],[89.578,21.7],[89.485,21.884],[89.452,21.821],[89.354,21.721],[89.279,21.707],[89.275,21.708],[89.233,21.655],[89.072,21.774],[89.045,21.724],[89.052,21.654],[89.004,21.647],[88.994,21.629],[89.025,21.546],[88.88,21.514],[88.723,21.539],[88.699,21.653],[88.695,21.662],[88.694,21.677],[88.656,21.857],[88.581,21.889],[88.567,21.832],[88.6,21.714],[88.585,21.66],[88.446,21.614],[88.414,21.639],[88.377,21.577],[88.299,21.551],[88.254,21.622],[88.122,21.636],[88.057,21.694],[88.099,21.794],[88.115,21.84],[88.053,21.938],[87.867,21.696],[87.64,21.563],[86.937,21.288],[86.857,21.22],[86.842,21.106],[86.896,20.966],[86.939,20.745],[86.975,20.7],[86.925,20.62],[86.836,20.534],[86.763,20.419],[86.769,20.356],[86.75,20.313],[86.634,20.248],[86.632,20.203],[86.304,19.949],[86.303,19.945],[86.279,19.919],[86.253,19.909],[86.119,19.806],[85.604,19.666],[85.6,19.675],[85.45,19.8],[85.35,19.825],[85.175,20.075],[85.125,20.2],[84.95,20.25],[84.825,20.475],[84.725,20.425],[84.5,20.45],[84.25,20.35],[84.3,20.525],[84.275,20.675],[84.1,20.8],[83.95,20.825],[83.85,20.925],[83.9,21.15],[83.9,21.35],[83.95,21.475],[83.75,21.575],[83.65,21.725],[83.525,21.725],[83.5,21.65],[83.325,21.7],[83.275,21.975],[83.2,22.075],[83.2,22.475],[83.3,22.6],[83.3,22.8],[83.175,22.8],[82.975,22.675],[82.925,22.6],[82.8,22.725],[82.475,22.725],[82.325,22.65],[82.1,22.8],[81.925,22.8],[81.825,22.75],[81.675,22.775],[81.25,22.75],[81.05,22.9],[81.05,22.95],[80.85,23.0],[80.525,22.975],[80.425,22.9],[80.25,22.9],[80.15,22.8],[80.05,22.8],[79.925,22.925],[79.925,23.1],[79.5,23.125],[79.375,23.075],[79.425,22.625],[79.175,22.375],[79.0,22.375],[78.75,22.25],[78.475,22.225],[78.425,22.075],[78.275,21.975],[78.275,21.9],[78.1,21.875],[77.975,21.8],[77.625,21.8],[77.475,21.6],[77.325,21.6],[77.25,21.7],[77.025,21.7],[76.925,21.6],[76.8,21.6],[76.775,21.5],[76.675,21.45],[76.475,21.45],[76.225,21.325],[76.175,21.25],[76.025,21.2],[75.85,21.325],[75.825,21.075],[75.7,21.075],[75.525,21.15],[75.025,21.175],[74.8,21.3],[74.75,21.375],[74.4,21.425],[74.325,21.5],[74.025,21.5],[73.975,21.675],[73.8,21.65],[73.725,21.8],[73.55,21.95],[73.575,22.225],[73.525,22.425],[73.625,22.475],[73.7,22.65],[73.8,22.75],[74.025,22.875],[74.125,22.875],[74.1,23.05],[74.15,23.075],[74.225,23.275],[74.35,23.5],[74.525,23.525],[74.55,23.725],[74.75,23.75],[74.675,23.925],[74.7,24.075],[74.55,24.275],[74.25,24.3],[73.9,24.575],[73.8,24.575],[73.525,24.725],[73.15,24.7],[73.05,24.625],[72.75,24.6],[72.575,24.525],[72.45,24.65],[72.35,24.6],[72.275,24.475],[72.075,24.35],[71.875,24.275],[71.6,24.275],[71.475,24.15],[71.1,23.975],[71.025,23.875],[70.9,23.85],[70.75,23.75],[70.625,23.5],[70.425,23.45],[70.15,23.2],[70.0,23.15],[70.0,23.433],[68.882,22.997],[68.79,23.028],[68.372,23.326],[68.072,23.675],[68.046,23.764],[67.692,23.814],[67.486,23.928],[67.315,24.092],[67.204,24.588],[66.999,24.714],[66.654,24.783],[66.7,25.114],[66.62,25.317],[66.432,25.488],[66.3,25.494],[68.236,29.372],[69.826,31.757],[70.0,31.948],[70.0,32.625],[70.55,32.625],[70.75,32.65],[70.975,32.9],[71.1,32.925]]],[[[90.778,22.089],[90.604,22.054],[90.515,22.065],[90.68,22.327],[90.675,22.445],[90.671,22.458],[90.7,22.45],[90.854,22.318],[90.83,22.16],[90.778,22.089]]]]}},{"type":"Feature","properties":{"name":"Kashmir and Ladakh","name_zh":"克什米尔 · 拉达克","focus":false,"label":[77.37,33.44],"area":20.1,"color":"#5f87a3"},"geometry":{"type":"Polygon","coordinates":[[[74.425,35.325],[74.45,35.45],[74.625,35.45],[74.65,35.775],[74.725,35.8],[74.75,35.7],[74.95,35.625],[75.15,35.675],[75.125,35.85],[75.025,35.9],[75.075,36.025],[75.225,36.0],[75.375,36.1],[75.65,36.1],[75.75,36.0],[75.875,35.975],[76.025,36.075],[76.2,35.875],[76.6,35.875],[76.675,35.75],[76.825,35.825],[76.95,35.825],[77.125,35.9],[77.325,35.825],[77.45,35.725],[77.75,35.725],[77.825,35.65],[78.05,35.625],[78.125,35.675],[78.4,35.675],[78.525,35.6],[78.675,35.425],[78.95,35.375],[79.175,35.55],[79.175,35.6],[79.375,35.6],[79.5,35.7],[79.65,35.65],[79.65,35.325],[79.7,35.175],[79.825,35.05],[79.85,34.85],[79.95,34.775],[79.95,34.575],[80.0,34.5],[80.0,34.275],[79.9,34.1],[80.075,34.025],[80.175,33.9],[80.175,33.675],[80.1,33.65],[80.05,33.3],[79.95,33.15],[79.95,32.975],[80.05,32.9],[79.975,32.725],[79.7,32.55],[79.55,32.375],[79.775,32.2],[79.825,32.05],[79.975,31.875],[79.975,31.8],[80.225,31.475],[80.225,31.375],[80.125,31.325],[79.85,30.925],[79.775,30.925],[79.5,31.05],[79.325,31.05],[79.25,31.2],[79.05,31.275],[78.7,31.3],[78.65,31.25],[78.475,31.25],[78.3,31.3],[78.05,31.425],[78.05,31.6],[78.1,31.625],[78.05,31.8],[77.9,31.8],[77.75,31.9],[77.725,32.125],[77.6,32.25],[77.45,32.525],[77.325,32.625],[77.2,32.6],[77.0,32.75],[76.85,32.75],[76.7,33.075],[76.6,33.1],[76.575,33.0],[76.45,33.0],[76.375,33.075],[76.1,32.975],[76.0,32.85],[75.675,32.825],[75.55,32.925],[75.35,32.925],[75.3,32.85],[75.075,32.85],[74.925,32.975],[74.775,33.0],[74.775,33.2],[74.85,33.225],[74.825,33.325],[74.725,33.35],[74.625,33.525],[74.525,33.55],[74.425,33.85],[74.325,33.95],[74.0,33.95],[73.85,34.05],[73.8,34.175],[73.65,34.225],[73.625,34.35],[73.525,34.425],[73.525,34.6],[73.65,34.6],[73.75,34.85],[73.825,34.925],[73.85,35.075],[73.95,35.15],[74.375,35.15],[74.525,35.225],[74.425,35.325]]]}},{"type":"Feature","properties":{"name":"Chagatai Khanate","name_zh":"察合台汗国","focus":false,"label":[76.11,40.78],"area":367.0,"color":"#b0805f"},"geometry":{"type":"Polygon","coordinates":[[[70.875,49.875],[71.05,49.925],[71.275,50.15],[71.425,50.15],[71.575,50.225],[71.875,50.175],[72.325,50.05],[72.5,50.15],[72.525,50.05],[72.675,49.9],[72.8,49.875],[72.825,49.775],[73.0,49.6],[73.025,49.5],[73.35,49.375],[73.4,49.425],[73.6,49.425],[73.8,49.35],[74.025,49.325],[74.175,49.15],[74.325,49.125],[74.4,49.025],[74.575,49.0],[74.625,49.075],[74.775,49.125],[74.8,49.075],[75.05,49.075],[75.075,49.025],[75.3,49.075],[75.475,49.2],[75.6,49.2],[75.65,49.125],[76.3,49.175],[76.3,49.225],[76.85,49.25],[77.1,49.2],[77.3,49.1],[77.95,49.05],[78.1,48.975],[78.325,49.0],[78.4,48.925],[78.7,48.95],[79.0,48.8],[79.2,49.025],[79.325,49.225],[79.525,49.2],[79.575,49.275],[79.85,49.375],[79.925,49.45],[80.35,49.525],[80.45,49.45],[80.675,49.525],[80.925,49.475],[81.0,49.35],[81.2,49.3],[81.3,49.35],[81.475,49.525],[81.65,49.575],[81.8,49.75],[82.05,49.675],[82.05,49.575],[82.3,49.425],[82.5,49.35],[82.525,49.3],[82.7,49.325],[82.85,49.625],[82.875,49.775],[83.05,49.675],[83.375,49.675],[83.45,49.6],[83.55,49.875],[83.55,49.975],[83.675,50.025],[83.675,50.2],[84.0,50.225],[84.3,50.325],[84.4,50.25],[84.6,50.25],[84.725,50.175],[84.95,50.175],[85.1,50.025],[85.125,49.925],[85.225,49.85],[85.425,49.925],[85.45,49.975],[85.65,49.975],[85.825,49.9],[85.95,49.925],[86.05,49.8],[86.275,49.875],[86.325,49.825],[86.7,49.85],[86.85,49.725],[87.125,49.725],[87.2,49.65],[87.425,49.675],[87.5,49.575],[87.775,49.6],[87.8,49.8],[87.725,49.825],[87.8,49.975],[87.95,50.0],[88.175,50.125],[88.2,50.225],[88.375,50.225],[88.4,50.175],[88.825,50.175],[89.05,50.25],[89.225,50.575],[89.475,50.65],[89.55,50.6],[89.825,50.6],[89.9,50.525],[90.2,50.5],[90.375,50.525],[90.55,50.4],[90.875,50.4],[90.875,50.5],[90.975,50.55],[91.425,50.625],[91.5,50.75],[91.825,50.75],[92.05,50.9],[92.4,50.975],[92.725,50.975],[92.875,50.95],[92.85,50.8],[92.775,50.75],[92.8,50.6],[92.875,50.475],[92.875,49.925],[92.775,49.65],[92.925,49.6],[93.3,49.6],[93.5,49.525],[93.475,49.075],[93.525,49.025],[93.5,48.75],[93.55,48.675],[93.55,48.375],[93.475,48.325],[93.4,48.125],[93.325,48.075],[93.2,47.725],[93.1,47.675],[92.975,47.525],[92.975,47.375],[92.825,47.25],[92.65,46.975],[92.4,46.75],[92.375,46.675],[92.2,46.775],[91.825,46.725],[91.525,46.975],[91.5,47.175],[91.325,47.325],[91.15,47.325],[90.875,47.375],[90.625,47.225],[90.475,46.975],[90.4,46.775],[90.175,46.65],[90.125,46.3],[90.025,46.225],[89.95,46.025],[89.95,45.875],[89.875,45.75],[89.825,45.45],[89.825,45.25],[89.975,45.2],[89.975,44.825],[90.025,44.75],[90.1,44.25],[90.125,44.25],[90.125,43.875],[90.175,43.8],[90.2,43.475],[90.6,43.475],[90.6,43.5],[91.175,43.5],[91.2,43.4],[91.4,43.35],[91.375,43.225],[91.375,42.75],[91.45,42.6],[91.4,42.15],[91.55,41.925],[91.225,41.925],[90.975,41.825],[90.7,41.8],[90.65,41.725],[90.425,41.575],[90.2,41.3],[90.025,41.275],[89.9,41.2],[89.65,41.2],[89.6,41.05],[89.6,40.675],[89.425,40.425],[89.3,40.4],[89.225,40.3],[89.05,39.8],[89.0,39.75],[88.925,39.5],[88.8,39.375],[88.8,38.9],[88.725,38.7],[88.95,38.325],[88.85,38.25],[88.7,38.25],[88.475,38.175],[88.325,38.025],[88.075,38.0],[87.95,37.725],[87.775,37.7],[87.775,37.55],[87.4,37.35],[87.15,37.35],[87.125,37.425],[86.95,37.4],[86.825,37.275],[86.575,37.25],[86.475,37.3],[86.375,37.15],[86.25,37.05],[86.0,37.075],[85.825,37.0],[85.7,36.8],[85.6,36.75],[84.9,36.75],[84.925,36.625],[84.775,36.475],[84.3,36.35],[84.075,36.325],[84.025,36.25],[83.825,36.15],[83.5,36.15],[83.5,36.125],[83.175,36.125],[82.975,36.075],[82.925,36.0],[82.65,35.95],[82.575,35.825],[82.475,35.8],[82.05,35.45],[81.85,35.425],[81.625,35.475],[81.525,35.375],[81.325,35.425],[81.15,35.425],[81.05,35.375],[80.7,35.375],[80.625,35.45],[80.4,35.5],[80.025,35.475],[79.95,35.55],[79.8,35.55],[79.65,35.65],[79.5,35.7],[79.375,35.6],[79.175,35.6],[79.175,35.55],[78.95,35.375],[78.675,35.425],[78.525,35.6],[78.4,35.675],[78.125,35.675],[78.05,35.625],[77.825,35.65],[77.75,35.725],[77.45,35.725],[77.325,35.825],[77.125,35.9],[76.95,35.825],[76.825,35.825],[76.675,35.75],[76.6,35.875],[76.2,35.875],[76.025,36.075],[75.875,35.975],[75.75,36.0],[75.65,36.1],[75.375,36.1],[75.225,36.0],[75.075,36.025],[75.025,35.9],[75.125,35.85],[75.15,35.675],[74.95,35.625],[74.75,35.7],[74.725,35.8],[74.65,35.775],[74.625,35.45],[74.45,35.45],[74.425,35.325],[74.525,35.225],[74.375,35.15],[73.95,35.15],[73.85,35.075],[73.7,35.1],[73.55,35.025],[73.2,35.1],[73.175,35.175],[72.925,35.025],[72.9,34.9],[73.0,34.8],[72.825,34.75],[72.85,34.525],[72.85,34.175],[72.675,34.025],[72.4,34.0],[72.225,33.925],[72.225,33.775],[72.05,33.775],[71.95,33.675],[71.8,33.675],[71.775,33.5],[71.725,33.475],[71.675,33.275],[71.5,33.225],[71.4,33.125],[71.3,33.125],[71.1,32.925],[70.975,32.9],[70.75,32.65],[70.55,32.625],[70.0,32.625],[70.0,31.948],[69.826,31.757],[67.884,36.851],[67.342,37.212],[66.709,37.212],[66.529,38.116],[64.632,38.838],[63.729,39.471],[62.103,40.374],[62.012,41.187],[61.109,41.187],[60.025,42.361],[63.548,45.252],[70.0,49.776],[70.0,49.775],[70.275,49.775],[70.4,49.85],[70.55,49.875],[70.875,49.875]]]}},{"type":"Feature","properties":{"name":"Siberians","name_zh":"","focus":false,"label":[129.82,55.79],"area":75.9,"color":"#b0805f"},"geometry":{"type":"Polygon","coordinates":[[[137.19,55.892],[137.033,55.807],[137.0,55.8],[137.0,55.79],[136.794,55.694],[136.566,55.614],[136.521,55.589],[136.369,55.521],[136.351,55.51],[136.175,55.352],[135.751,55.161],[135.541,55.114],[135.263,54.943],[135.235,54.903],[135.212,54.841],[135.258,54.731],[135.325,54.707],[135.425,54.694],[135.425,54.675],[135.3,54.45],[135.125,54.25],[135.125,54.05],[134.95,54.025],[134.825,53.9],[134.8,53.8],[134.475,53.575],[134.25,53.55],[134.2,53.5],[133.925,53.45],[133.825,53.575],[133.7,53.575],[133.675,53.7],[133.6,53.75],[133.55,53.925],[133.375,54.175],[132.975,54.15],[132.85,54.475],[132.75,54.4],[132.725,54.525],[132.375,54.625],[132.275,54.725],[132.275,54.875],[132.075,54.95],[131.9,54.95],[131.875,55.0],[131.7,55.025],[131.65,55.2],[131.55,55.2],[131.375,55.35],[131.2,55.35],[131.05,55.425],[131.0,55.3],[130.525,55.3],[130.4,55.35],[130.375,55.45],[130.1,55.425],[130.05,55.475],[129.8,55.475],[129.725,55.425],[129.25,55.45],[129.0,55.525],[128.825,55.425],[128.6,55.425],[128.45,55.475],[128.375,55.375],[128.1,55.375],[128.0,55.3],[127.8,55.3],[127.75,55.225],[127.55,55.35],[127.35,55.325],[127.125,55.175],[127.0,55.175],[126.85,55.3],[126.75,55.325],[126.675,55.525],[126.4,55.525],[126.25,55.425],[125.95,55.425],[125.925,55.3],[125.725,55.2],[125.425,54.9],[125.35,54.725],[125.35,54.55],[125.175,54.55],[125.025,54.625],[124.925,54.75],[124.8,54.825],[124.775,54.925],[124.55,55.15],[124.55,55.225],[124.3,55.375],[124.275,55.45],[124.125,55.45],[124.025,55.525],[123.725,55.45],[123.625,55.5],[123.45,55.5],[123.275,55.675],[123.15,55.625],[122.975,55.625],[122.8,55.725],[122.75,56.0],[121.872,56.0],[118.109,56.893],[109.076,57.598],[93.975,56.893],[86.227,58.0],[140.347,58.0],[140.028,57.644],[138.866,57.124],[138.345,56.804],[137.253,56.0],[137.419,56.0],[137.384,55.975],[137.19,55.892]]]}},{"type":"Feature","properties":{"name":"Ilkhanate","name_zh":"","focus":false,"label":[64.43,34.3],"area":116.8,"color":"#6f9460"},"geometry":{"type":"Polygon","coordinates":[[[60.025,42.361],[61.109,41.187],[62.012,41.187],[62.103,40.374],[63.729,39.471],[64.632,38.838],[66.529,38.116],[66.709,37.212],[67.342,37.212],[67.884,36.851],[69.826,31.757],[68.236,29.372],[66.3,25.494],[65.768,25.309],[64.851,25.205],[64.424,25.173],[64.238,25.21],[64.059,25.401],[63.65,25.336],[63.403,25.164],[62.449,25.162],[61.813,25.053],[61.343,25.026],[60.858,25.095],[60.479,25.298],[60.0,25.322],[60.025,42.361]]]}},{"type":"Feature","properties":{"name":"Khanate of the Golden Horde","name_zh":"金帐汗国","focus":false,"label":[72.64,50.22],"area":297.3,"color":"#5f87a3"},"geometry":{"type":"Polygon","coordinates":[[[93.2,55.6],[93.1,55.575],[93.1,55.475],[92.95,55.325],[92.8,55.325],[92.8,55.075],[92.7,54.9],[92.425,54.9],[92.3,54.775],[92.15,54.725],[92.15,54.4],[92.125,54.275],[91.925,54.1],[91.875,53.95],[91.875,53.775],[91.675,53.75],[91.675,53.575],[91.8,53.475],[91.925,53.475],[91.95,53.35],[91.875,53.325],[91.75,53.175],[91.5,53.15],[91.5,52.875],[91.4,52.85],[91.375,52.75],[91.725,52.725],[91.775,52.6],[92.075,52.575],[92.1,52.475],[92.0,52.325],[91.825,52.325],[91.675,52.25],[91.5,52.25],[91.25,52.025],[91.075,52.025],[90.875,51.925],[90.7,51.775],[90.275,51.775],[90.15,51.7],[90.025,51.7],[89.95,51.6],[90.2,51.425],[90.15,51.25],[89.975,51.225],[89.925,51.1],[89.45,50.825],[89.475,50.65],[89.225,50.575],[89.05,50.25],[88.825,50.175],[88.4,50.175],[88.375,50.225],[88.2,50.225],[88.175,50.125],[87.95,50.0],[87.8,49.975],[87.725,49.825],[87.8,49.8],[87.775,49.6],[87.5,49.575],[87.425,49.675],[87.2,49.65],[87.125,49.725],[86.85,49.725],[86.7,49.85],[86.325,49.825],[86.275,49.875],[86.05,49.8],[85.95,49.925],[85.825,49.9],[85.65,49.975],[85.45,49.975],[85.425,49.925],[85.225,49.85],[85.125,49.925],[85.1,50.025],[84.95,50.175],[84.725,50.175],[84.6,50.25],[84.4,50.25],[84.3,50.325],[84.0,50.225],[83.675,50.2],[83.675,50.025],[83.55,49.975],[83.55,49.875],[83.45,49.6],[83.375,49.675],[83.05,49.675],[82.875,49.775],[82.85,49.625],[82.7,49.325],[82.525,49.3],[82.5,49.35],[82.3,49.425],[82.05,49.575],[82.05,49.675],[81.8,49.75],[81.65,49.575],[81.475,49.525],[81.3,49.35],[81.2,49.3],[81.0,49.35],[80.925,49.475],[80.675,49.525],[80.45,49.45],[80.35,49.525],[79.925,49.45],[79.85,49.375],[79.575,49.275],[79.525,49.2],[79.325,49.225],[79.2,49.025],[79.0,48.8],[78.7,48.95],[78.4,48.925],[78.325,49.0],[78.1,48.975],[77.95,49.05],[77.3,49.1],[77.1,49.2],[76.85,49.25],[76.3,49.225],[76.3,49.175],[75.65,49.125],[75.6,49.2],[75.475,49.2],[75.3,49.075],[75.075,49.025],[75.05,49.075],[74.8,49.075],[74.775,49.125],[74.625,49.075],[74.575,49.0],[74.4,49.025],[74.325,49.125],[74.175,49.15],[74.025,49.325],[73.8,49.35],[73.6,49.425],[73.4,49.425],[73.35,49.375],[73.025,49.5],[73.0,49.6],[72.825,49.775],[72.8,49.875],[72.675,49.9],[72.525,50.05],[72.5,50.15],[72.325,50.05],[71.875,50.175],[71.575,50.225],[71.425,50.15],[71.275,50.15],[71.05,49.925],[70.875,49.875],[70.55,49.875],[70.4,49.85],[70.275,49.775],[70.0,49.775],[70.0,49.776],[63.548,45.252],[60.0,42.353],[60.0,58.0],[86.227,58.0],[93.975,56.893],[93.455,56.0],[93.15,56.0],[93.2,55.9],[93.2,55.6]]]}},{"type":"Feature","properties":{"name":"Aceh","name_zh":"","focus":false,"label":[95.54,5.36],"area":0.6,"color":"#7d6b5a"},"geometry":{"type":"Polygon","coordinates":[[[95.205,5.245],[95.216,5.499],[95.283,5.55],[95.464,5.569],[95.74,5.468],[96.024,5.215],[96.187,5.145],[96.752,5.064],[97.384,5.18],[97.561,5.0],[95.293,5.0],[95.205,5.245]]]}},{"type":"Feature","properties":{"name":"Srivijaya Empire","name_zh":"","focus":false,"label":[100.04,7.16],"area":6.6,"color":"#b0805f"},"geometry":{"type":"MultiPolygon","coordinates":[[[[98.789,8.06],[98.786,8.066],[98.555,8.255],[98.7,8.4],[98.7,8.575],[98.825,8.6],[98.925,8.725],[99.175,8.775],[99.3,8.875],[99.475,8.9],[99.55,8.825],[99.7,8.875],[99.7,8.975],[99.875,9.15],[99.892,9.15],[99.905,9.113],[99.961,8.671],[99.99,8.589],[100.056,8.511],[100.06,8.507],[100.131,8.532],[100.154,8.444],[100.159,8.474],[100.163,8.508],[100.229,8.425],[100.279,8.269],[100.336,8.0],[100.271,8.0],[100.301,7.886],[100.344,7.44],[100.539,7.048],[100.614,6.978],[100.975,6.852],[101.217,6.802],[101.427,6.828],[101.559,6.739],[101.679,6.464],[102.089,6.143],[102.325,6.099],[102.802,5.56],[103.212,5.0],[100.379,5.021],[100.139,6.177],[100.221,6.52],[100.154,6.603],[99.969,6.507],[99.833,6.538],[99.662,6.71],[99.61,6.938],[99.639,7.065],[99.571,7.262],[99.468,7.338],[99.293,7.319],[99.024,7.871],[98.866,8.0],[98.799,8.056],[98.789,8.06]]],[[[98.599,8.0],[98.558,8.0],[98.529,8.109],[98.604,8.057],[98.599,8.0]]]]}},{"type":"Feature","properties":{"name":"minor Hindu and Buddhist kingdoms","name_zh":"","focus":false,"label":[116.73,6.0],"area":3.6,"color":"#5f87a3"},"geometry":{"type":"MultiPolygon","coordinates":[[[[114.849,5.0],[114.799,5.0],[114.853,5.015],[114.849,5.0]]],[[[115.417,5.111],[115.203,5.275],[115.291,5.453],[115.717,5.467],[115.787,5.74],[115.97,5.881],[116.098,6.097],[116.337,6.358],[116.595,6.899],[116.74,6.689],[116.889,6.645],[117.031,6.836],[117.168,6.614],[117.507,6.392],[117.54,6.24],[117.353,5.877],[117.37,5.788],[117.866,5.904],[117.918,5.802],[117.761,5.58],[118.256,5.663],[118.377,5.638],[118.997,5.277],[119.042,5.169],[118.908,5.0],[115.432,5.0],[115.417,5.111]]]]}},{"type":"Feature","properties":{"name":"Sukhothai","name_zh":"素可泰 (暹)","focus":false,"label":[101.34,14.33],"area":41.8,"color":"#a3727a"},"geometry":{"type":"MultiPolygon","coordinates":[[[[97.625,17.075],[97.675,17.15],[97.675,17.325],[97.775,17.4],[97.725,17.7],[97.85,17.75],[97.975,17.7],[98.25,17.8],[98.3,17.875],[98.275,18.1],[98.2,18.15],[98.175,18.3],[98.275,18.55],[98.25,18.8],[98.4,19.0],[98.55,19.05],[98.6,19.15],[98.6,19.45],[98.775,19.55],[98.775,19.725],[99.0,19.775],[99.025,20.025],[99.175,20.15],[99.175,20.275],[99.3,20.375],[99.45,20.4],[99.4,20.575],[99.55,20.7],[99.575,21.1],[99.5,21.275],[99.55,21.45],[99.7,21.525],[99.95,21.525],[100.125,21.625],[100.25,21.625],[100.375,21.75],[100.425,21.725],[100.4,21.575],[100.675,21.375],[100.675,21.175],[100.625,21.05],[100.55,21.05],[100.525,20.825],[100.35,20.8],[100.475,20.75],[100.55,20.625],[100.725,20.6],[100.8,20.65],[101.0,20.425],[100.925,20.25],[100.925,20.05],[100.975,20.0],[101.25,20.025],[101.35,19.925],[101.475,19.925],[101.475,19.85],[101.6,19.875],[101.65,19.875],[101.625,19.65],[101.525,19.5],[101.25,19.375],[101.25,19.275],[101.4,19.2],[101.4,19.125],[101.6,19.075],[101.775,19.075],[101.775,18.875],[101.825,18.75],[101.775,18.575],[101.425,18.2],[101.425,18.1],[101.55,18.025],[101.75,18.0],[101.75,18.05],[101.925,18.05],[102.05,18.2],[102.175,18.2],[102.45,17.975],[102.575,17.975],[102.625,17.875],[102.775,17.9],[102.9,18.0],[103.025,18.0],[103.05,18.15],[103.25,18.275],[103.25,18.4],[103.35,18.45],[103.525,18.45],[103.85,18.3],[104.0,18.325],[104.15,18.075],[104.3,18.125],[104.325,18.275],[104.525,18.25],[104.85,18.25],[104.875,18.15],[104.8,18.1],[104.775,17.95],[104.65,17.85],[104.65,17.6],[104.825,17.375],[104.825,17.15],[104.775,17.025],[104.8,16.525],[104.925,16.525],[104.975,16.325],[105.275,16.025],[105.375,16.025],[105.425,15.775],[105.575,15.75],[105.65,15.675],[105.625,15.425],[105.55,15.325],[105.775,15.15],[105.875,14.95],[105.8,14.95],[105.6,14.95],[105.475,14.575],[105.325,14.475],[105.175,14.45],[105.125,14.35],[104.925,14.475],[104.7,14.475],[104.6,14.425],[104.2,14.425],[104.075,14.35],[103.8,14.4],[103.25,14.4],[102.9,14.25],[102.6,14.25],[102.475,14.175],[102.275,14.175],[102.1,14.25],[101.95,14.175],[101.75,13.625],[101.45,13.775],[101.375,13.875],[101.025,14.0],[100.9,14.15],[100.7,14.225],[100.5,14.2],[100.425,14.425],[100.15,14.35],[100.125,14.1],[99.9,14.05],[99.75,13.85],[99.6,13.725],[99.475,13.675],[99.4,13.45],[99.325,13.4],[99.25,13.15],[99.125,13.075],[99.125,12.9],[99.2,12.75],[99.175,12.5],[98.925,12.4],[98.663,12.162],[98.656,12.225],[98.631,12.225],[98.6,12.245],[98.619,12.3],[98.645,12.321],[98.632,12.428],[98.624,12.441],[98.629,12.452],[98.596,12.737],[98.485,13.111],[98.198,13.644],[98.163,13.735],[98.15,13.648],[98.111,13.713],[98.098,13.898],[98.094,13.913],[97.822,14.616],[97.64,15.956],[97.584,16.02],[97.609,16.144],[97.612,16.155],[97.585,16.355],[97.575,16.253],[97.537,16.24],[97.48,16.306],[97.469,16.461],[97.489,16.476],[97.404,16.508],[97.475,16.65],[97.6,16.675],[97.65,16.85],[97.625,17.075]]],[[[99.375,11.7],[99.425,11.6],[99.575,11.475],[99.625,11.455],[99.561,11.215],[99.514,11.101],[99.487,10.89],[99.285,10.569],[99.237,10.388],[99.165,10.32],[99.19,10.266],[99.195,10.175],[99.169,9.934],[99.161,9.734],[99.191,9.627],[99.288,9.415],[99.265,9.353],[99.254,9.265],[99.335,9.225],[99.394,9.214],[99.724,9.314],[99.836,9.288],[99.878,9.195],[99.892,9.15],[99.875,9.15],[99.7,8.975],[99.7,8.875],[99.55,8.825],[99.475,8.9],[99.3,8.875],[99.175,8.775],[98.925,8.725],[98.825,8.6],[98.7,8.575],[98.7,8.4],[98.555,8.255],[98.544,8.264],[98.459,8.227],[98.421,8.178],[98.365,8.186],[98.292,8.155],[98.195,8.327],[98.177,8.6],[98.358,9.198],[98.371,9.291],[98.443,9.493],[98.451,9.504],[98.632,10.1],[98.612,10.11],[98.563,10.035],[98.521,10.107],[98.503,10.165],[98.431,10.201],[98.397,10.563],[98.467,10.664],[98.465,10.676],[98.501,10.719],[98.509,10.724],[98.577,10.822],[98.599,10.864],[98.61,10.881],[98.733,11.412],[98.733,11.435],[98.746,11.521],[98.741,11.592],[98.787,11.659],[98.59,11.695],[98.588,11.822],[98.676,12.051],[98.669,12.107],[98.664,12.127],[98.666,12.134],[98.666,12.137],[98.775,12.05],[98.975,11.8],[99.1,11.7],[99.375,11.7]]],[[[98.454,12.061],[98.466,12.084],[98.525,12.005],[98.61,11.957],[98.576,11.925],[98.516,11.905],[98.474,11.899],[98.454,12.061]]],[[[98.554,11.745],[98.528,11.539],[98.465,11.567],[98.435,11.567],[98.397,11.684],[98.4,11.715],[98.376,11.792],[98.524,11.805],[98.554,11.745]]],[[[98.477,10.98],[98.527,11.087],[98.542,10.962],[98.519,10.959],[98.498,10.964],[98.477,10.98]]],[[[98.436,12.571],[98.468,12.571],[98.459,12.474],[98.381,12.354],[98.334,12.336],[98.314,12.336],[98.331,12.511],[98.303,12.612],[98.312,12.678],[98.396,12.647],[98.414,12.598],[98.436,12.571]]],[[[98.351,8.111],[98.435,8.086],[98.409,8.0],[98.276,8.0],[98.301,8.136],[98.322,8.166],[98.351,8.111]]],[[[98.308,9.051],[98.251,9.041],[98.258,9.095],[98.274,9.13],[98.301,9.139],[98.313,9.08],[98.308,9.051]]]]}},{"type":"Feature","properties":{"name":"Shogun Japan (Kamakura)","name_zh":"日本 (镰仓)","focus":false,"label":[139.78,37.37],"area":30.8,"color":"#9a8a4a"},"geometry":{"type":"MultiPolygon","coordinates":[[[[132.202,34.032],[132.159,33.944],[132.146,33.839],[132.09,33.855],[131.995,33.911],[131.994,33.804],[131.654,33.911],[130.899,33.903],[130.779,33.966],[130.891,34.244],[130.889,34.262],[130.904,34.3],[130.952,34.35],[131.004,34.393],[131.132,34.407],[131.262,34.393],[131.354,34.413],[131.433,34.47],[131.515,34.55],[131.608,34.615],[131.734,34.667],[131.856,34.726],[131.963,34.809],[132.065,34.9],[132.158,34.967],[132.258,35.022],[132.662,35.38],[132.672,35.382],[132.698,35.418],[132.747,35.449],[132.923,35.511],[133.157,35.559],[133.267,35.557],[133.376,35.459],[133.435,35.472],[133.495,35.497],[133.615,35.511],[133.739,35.495],[133.86,35.495],[133.981,35.507],[134.214,35.539],[134.337,35.578],[134.456,35.628],[134.882,35.663],[135.174,35.747],[135.221,35.741],[135.265,35.722],[135.269,35.66],[135.232,35.592],[135.268,35.551],[135.327,35.526],[135.602,35.518],[135.68,35.503],[135.795,35.55],[135.903,35.607],[135.931,35.626],[135.977,35.972],[136.017,36.012],[136.067,36.117],[136.156,36.223],[136.262,36.288],[136.359,36.362],[136.556,36.572],[136.666,36.704],[136.64,37.17],[136.775,37.282],[136.843,37.382],[136.962,37.414],[137.199,37.497],[137.323,37.522],[137.341,37.485],[137.338,37.437],[137.312,37.416],[137.334,37.273],[137.013,37.037],[137.007,36.993],[137.019,36.96],[137.013,36.895],[137.017,36.837],[137.124,36.774],[137.246,36.753],[137.298,36.754],[137.343,36.77],[137.483,36.925],[137.514,36.952],[137.913,37.065],[138.11,37.151],[138.182,37.166],[138.343,37.236],[138.548,37.392],[138.633,37.472],[138.709,37.561],[138.771,37.663],[138.819,37.775],[138.885,37.844],[139.247,38.009],[139.364,38.099],[139.401,38.143],[139.446,38.269],[139.477,38.4],[139.521,38.503],[139.58,38.599],[139.66,38.697],[139.749,38.788],[139.802,38.882],[139.879,39.105],[139.912,39.229],[139.939,39.273],[139.977,39.311],[139.986,39.323],[140.03,39.483],[140.011,39.693],[139.862,39.782],[139.811,39.878],[139.81,39.878],[139.742,39.921],[139.755,39.959],[139.826,39.966],[139.874,39.986],[139.908,40.022],[139.972,40.137],[139.979,40.156],[139.915,40.574],[139.923,40.579],[139.923,40.598],[139.967,40.673],[140.029,40.733],[140.085,40.747],[140.146,40.752],[140.199,40.774],[140.3,40.888],[140.326,40.948],[140.344,41.006],[140.315,41.161],[140.344,41.203],[140.386,41.23],[140.441,41.21],[140.498,41.206],[140.564,41.212],[140.628,41.195],[140.64,41.156],[140.679,40.893],[140.702,40.858],[140.749,40.83],[140.801,40.834],[140.846,40.875],[140.876,40.93],[140.936,40.941],[141.119,40.882],[141.142,40.897],[141.076,41.102],[140.936,41.114],[140.887,41.156],[140.801,41.139],[140.802,41.231],[140.774,41.255],[140.809,41.276],[140.86,41.425],[140.892,41.48],[140.937,41.506],[141.05,41.476],[141.106,41.456],[141.229,41.373],[141.269,41.354],[141.455,41.405],[141.425,41.274],[141.436,41.269],[141.463,40.611],[141.542,40.531],[141.646,40.474],[141.797,40.291],[141.878,40.067],[141.935,39.958],[141.978,39.844],[141.991,39.792],[141.992,39.74],[141.984,39.698],[141.998,39.671],[141.998,39.448],[141.907,39.186],[141.901,39.111],[141.855,39.095],[141.812,39.048],[141.807,39.04],[141.801,39.036],[141.568,38.785],[141.539,38.728],[141.519,38.632],[141.509,38.498],[141.49,38.455],[141.496,38.421],[141.47,38.409],[141.467,38.404],[141.447,38.399],[141.024,38.21],[140.929,38.026],[140.928,37.95],[140.96,37.823],[141.003,37.698],[141.036,37.467],[141.002,37.115],[140.968,37.002],[140.966,36.999],[140.963,36.956],[140.702,36.67],[140.627,36.503],[140.619,36.445],[140.619,36.386],[140.592,36.308],[140.574,36.231],[140.59,36.142],[140.622,36.059],[140.76,35.846],[140.813,35.783],[140.874,35.725],[140.806,35.706],[140.834,35.677],[140.426,35.428],[140.413,35.395],[140.417,35.267],[140.393,35.221],[140.355,35.181],[140.346,35.175],[140.316,35.033],[139.83,34.835],[139.788,34.962],[139.831,35.068],[139.83,35.072],[139.851,35.232],[139.826,35.297],[139.906,35.345],[139.944,35.423],[139.984,35.453],[140.002,35.497],[139.913,35.554],[139.731,35.468],[139.65,35.409],[139.666,35.319],[139.7,35.274],[139.744,35.252],[139.731,35.222],[139.675,35.149],[139.636,35.142],[139.564,35.243],[139.52,35.27],[139.422,35.165],[139.208,35.165],[139.116,35.082],[139.122,34.956],[139.086,34.839],[139.028,34.754],[139.022,34.688],[138.863,34.567],[138.779,34.579],[138.749,34.649],[138.751,34.922],[138.683,34.992],[138.45,34.902],[138.295,34.763],[138.149,34.527],[137.759,34.552],[137.248,34.481],[137.148,34.601],[137.062,34.583],[137.077,34.621],[137.117,34.637],[137.041,34.728],[136.939,34.777],[136.944,34.722],[136.913,34.709],[136.871,34.733],[136.884,34.802],[136.733,34.874],[136.616,34.759],[136.564,34.645],[136.616,34.589],[136.842,34.464],[136.88,34.434],[136.881,34.38],[136.854,34.324],[136.819,34.31],[136.898,34.258],[136.766,34.169],[136.393,34.111],[136.218,34.013],[136.073,33.778],[135.916,33.562],[135.899,33.556],[135.755,33.342],[135.062,33.69],[134.969,34.134],[135.113,34.25],[135.1,34.288],[135.132,34.317],[135.252,34.374],[135.317,34.471],[135.286,34.598],[135.205,34.617],[134.935,34.54],[134.427,34.628],[133.825,34.385],[133.589,34.442],[133.182,34.327],[133.142,34.302],[133.116,34.308],[132.552,34.149],[132.56,34.127],[132.578,34.115],[132.549,34.075],[132.461,34.087],[132.496,34.122],[132.505,34.136],[132.481,34.129],[132.386,34.268],[132.277,34.278],[132.238,34.227],[132.202,34.032]]],[[[134.824,34.203],[134.731,34.209],[134.683,34.247],[134.668,34.294],[134.757,34.368],[134.834,34.473],[134.904,34.519],[134.961,34.545],[135.005,34.544],[134.905,34.398],[134.933,34.288],[134.824,34.203]]],[[[134.675,33.848],[134.739,33.821],[134.549,33.729],[134.547,33.728],[134.519,33.65],[134.206,33.349],[134.206,33.347],[134.182,33.247],[134.135,33.28],[133.998,33.148],[133.726,33.376],[133.516,33.394],[133.264,33.307],[133.24,33.25],[133.146,33.083],[133.101,33.028],[133.073,33.02],[132.969,32.765],[132.9,32.669],[132.698,32.548],[132.467,32.757],[132.342,33.106],[132.121,33.347],[132.174,33.375],[132.086,33.34],[132.033,33.34],[132.114,33.395],[132.288,33.47],[132.366,33.512],[132.536,33.633],[132.557,33.644],[132.706,33.817],[132.716,33.852],[132.752,33.906],[132.784,33.992],[132.839,34.021],[132.935,34.095],[132.99,34.088],[133.051,33.997],[133.134,33.927],[133.193,33.933],[133.299,33.969],[133.35,33.977],[133.472,33.973],[133.582,34.017],[133.627,34.069],[133.643,34.135],[133.603,34.244],[133.656,34.233],[133.706,34.237],[133.826,34.307],[133.948,34.348],[134.076,34.358],[134.219,34.319],[134.357,34.256],[134.496,34.215],[134.638,34.227],[134.635,34.044],[134.655,33.983],[134.66,33.976],[134.65,33.95],[134.67,33.963],[134.695,33.928],[134.675,33.848]]],[[[134.188,34.496],[134.182,34.519],[134.326,34.534],[134.372,34.522],[134.352,34.484],[134.333,34.464],[134.315,34.469],[134.252,34.423],[134.238,34.467],[134.188,34.496]]],[[[132.267,33.871],[132.209,33.873],[132.201,33.928],[132.208,33.948],[132.266,33.945],[132.315,33.909],[132.403,33.92],[132.419,33.888],[132.411,33.88],[132.36,33.847],[132.267,33.871]]],[[[130.058,31.972],[130.195,32.082],[130.194,32.091],[130.214,32.115],[130.246,32.124],[130.443,32.283],[130.496,32.557],[130.361,32.758],[130.361,32.756],[130.34,32.702],[130.298,32.675],[130.246,32.677],[130.193,32.706],[130.152,32.748],[130.054,32.771],[129.951,32.722],[129.938,32.709],[129.845,32.587],[129.816,32.6],[129.769,32.571],[129.79,32.611],[129.733,32.637],[129.63,32.866],[129.46,32.986],[129.343,33.151],[129.375,33.176],[129.37,33.176],[129.417,33.231],[129.423,33.257],[129.462,33.331],[129.538,33.358],[129.57,33.361],[129.508,33.284],[129.507,33.28],[129.528,33.297],[129.595,33.289],[129.61,33.344],[129.66,33.365],[129.702,33.36],[129.844,33.322],[129.858,33.375],[129.837,33.404],[129.826,33.437],[129.919,33.483],[130.072,33.522],[130.103,33.54],[130.131,33.578],[130.168,33.598],[130.275,33.598],[130.365,33.634],[130.439,33.734],[130.457,33.789],[130.484,33.835],[130.67,33.915],[130.716,33.928],[130.84,33.918],[130.953,33.872],[131.009,33.776],[131.058,33.673],[131.175,33.603],[131.309,33.573],[131.366,33.571],[131.419,33.584],[131.499,33.624],[131.583,33.652],[131.643,33.638],[131.696,33.603],[131.724,33.554],[131.711,33.502],[131.619,33.396],[131.669,33.308],[131.613,33.265],[131.717,33.252],[131.897,33.255],[131.855,33.182],[131.848,33.118],[131.903,33.088],[131.949,33.047],[131.937,33.01],[131.91,32.974],[132.009,32.919],[132.002,32.882],[131.977,32.844],[131.83,32.693],[131.824,32.687],[131.732,32.593],[131.66,32.466],[131.61,32.325],[131.565,32.223],[131.531,32.117],[131.506,32.002],[131.46,31.883],[131.475,31.778],[131.46,31.671],[131.337,31.405],[131.25,31.41],[131.21,31.352],[131.089,31.275],[131.098,31.256],[130.902,31.112],[130.744,30.887],[130.579,30.906],[130.554,30.969],[130.674,31.211],[130.732,31.476],[130.731,31.478],[130.581,31.528],[130.537,31.491],[130.528,31.46],[130.54,31.403],[130.566,31.352],[130.645,31.267],[130.621,31.218],[130.589,31.179],[130.406,31.236],[130.404,31.229],[130.232,31.026],[130.086,31.121],[130.06,31.216],[130.165,31.369],[130.147,31.408],[130.202,31.422],[130.205,31.426],[130.219,31.559],[130.058,31.972]],[[130.175,32.851],[130.222,32.847],[130.28,32.867],[130.289,32.864],[130.257,32.912],[130.169,32.923],[130.175,32.851]]],[[[130.256,32.431],[130.242,32.463],[130.365,32.527],[130.461,32.516],[130.419,32.458],[130.381,32.424],[130.293,32.419],[130.256,32.431]]],[[[130.083,32.23],[130.004,32.194],[129.993,32.228],[129.96,32.244],[130.017,32.292],[130.015,32.314],[129.979,32.346],[130.021,32.469],[130.01,32.522],[130.168,32.541],[130.197,32.492],[130.2,32.341],[130.083,32.23]]]]}},{"type":"Feature","properties":{"name":"Yuan","name_zh":"元","focus":true,"label":[102.07,38.64],"area":1323.2},"geometry":{"type":"MultiPolygon","coordinates":[[[[80.225,31.475],[79.975,31.8],[79.975,31.875],[79.825,32.05],[79.775,32.2],[79.55,32.375],[79.7,32.55],[79.975,32.725],[80.05,32.9],[79.95,32.975],[79.95,33.15],[80.05,33.3],[80.1,33.65],[80.175,33.675],[80.175,33.9],[80.075,34.025],[79.9,34.1],[80.0,34.275],[80.0,34.5],[79.95,34.575],[79.95,34.775],[79.85,34.85],[79.825,35.05],[79.7,35.175],[79.65,35.325],[79.65,35.65],[79.8,35.55],[79.95,35.55],[80.025,35.475],[80.4,35.5],[80.625,35.45],[80.7,35.375],[81.05,35.375],[81.15,35.425],[81.325,35.425],[81.525,35.375],[81.625,35.475],[81.85,35.425],[82.05,35.45],[82.475,35.8],[82.575,35.825],[82.65,35.95],[82.925,36.0],[82.975,36.075],[83.175,36.125],[83.5,36.125],[83.5,36.15],[83.825,36.15],[84.025,36.25],[84.075,36.325],[84.3,36.35],[84.775,36.475],[84.925,36.625],[84.9,36.75],[85.6,36.75],[85.7,36.8],[85.825,37.0],[86.0,37.075],[86.25,37.05],[86.375,37.15],[86.475,37.3],[86.575,37.25],[86.825,37.275],[86.95,37.4],[87.125,37.425],[87.15,37.35],[87.4,37.35],[87.775,37.55],[87.775,37.7],[87.95,37.725],[88.075,38.0],[88.325,38.025],[88.475,38.175],[88.7,38.25],[88.85,38.25],[88.95,38.325],[88.725,38.7],[88.8,38.9],[88.8,39.375],[88.925,39.5],[89.0,39.75],[89.05,39.8],[89.225,40.3],[89.3,40.4],[89.425,40.425],[89.6,40.675],[89.6,41.05],[89.65,41.2],[89.9,41.2],[90.025,41.275],[90.2,41.3],[90.425,41.575],[90.65,41.725],[90.7,41.8],[90.975,41.825],[91.225,41.925],[91.55,41.925],[91.4,42.15],[91.45,42.6],[91.375,42.75],[91.375,43.225],[91.4,43.35],[91.2,43.4],[91.175,43.5],[90.6,43.5],[90.6,43.475],[90.2,43.475],[90.175,43.8],[90.125,43.875],[90.125,44.25],[90.1,44.25],[90.025,44.75],[89.975,44.825],[89.975,45.2],[89.825,45.25],[89.825,45.45],[89.875,45.75],[89.95,45.875],[89.95,46.025],[90.025,46.225],[90.125,46.3],[90.175,46.65],[90.4,46.775],[90.475,46.975],[90.625,47.225],[90.875,47.375],[91.15,47.325],[91.325,47.325],[91.5,47.175],[91.525,46.975],[91.825,46.725],[92.2,46.775],[92.375,46.675],[92.4,46.75],[92.65,46.975],[92.825,47.25],[92.975,47.375],[92.975,47.525],[93.1,47.675],[93.2,47.725],[93.325,48.075],[93.4,48.125],[93.475,48.325],[93.55,48.375],[93.55,48.675],[93.5,48.75],[93.525,49.025],[93.475,49.075],[93.5,49.525],[93.3,49.6],[92.925,49.6],[92.775,49.65],[92.875,49.925],[92.875,50.475],[92.8,50.6],[92.775,50.75],[92.85,50.8],[92.875,50.95],[92.725,50.975],[92.4,50.975],[92.05,50.9],[91.825,50.75],[91.5,50.75],[91.425,50.625],[90.975,50.55],[90.875,50.5],[90.875,50.4],[90.55,50.4],[90.375,50.525],[90.2,50.5],[89.9,50.525],[89.825,50.6],[89.55,50.6],[89.475,50.65],[89.45,50.825],[89.925,51.1],[89.975,51.225],[90.15,51.25],[90.2,51.425],[89.95,51.6],[90.025,51.7],[90.15,51.7],[90.275,51.775],[90.7,51.775],[90.875,51.925],[91.075,52.025],[91.25,52.025],[91.5,52.25],[91.675,52.25],[91.825,52.325],[92.0,52.325],[92.1,52.475],[92.075,52.575],[91.775,52.6],[91.725,52.725],[91.375,52.75],[91.4,52.85],[91.5,52.875],[91.5,53.15],[91.75,53.175],[91.875,53.325],[91.95,53.35],[91.925,53.475],[91.8,53.475],[91.675,53.575],[91.675,53.75],[91.875,53.775],[91.875,53.95],[91.925,54.1],[92.125,54.275],[92.15,54.4],[92.15,54.725],[92.3,54.775],[92.425,54.9],[92.7,54.9],[92.8,55.075],[92.8,55.325],[92.95,55.325],[93.1,55.475],[93.1,55.575],[93.2,55.6],[93.2,55.9],[93.15,56.0],[93.455,56.0],[93.975,56.893],[109.076,57.598],[118.109,56.893],[121.872,56.0],[122.75,56.0],[122.8,55.725],[122.975,55.625],[123.15,55.625],[123.275,55.675],[123.45,55.5],[123.625,55.5],[123.725,55.45],[124.025,55.525],[124.125,55.45],[124.275,55.45],[124.3,55.375],[124.55,55.225],[124.55,55.15],[124.775,54.925],[124.8,54.825],[124.925,54.75],[125.025,54.625],[125.175,54.55],[125.35,54.55],[125.35,54.725],[125.425,54.9],[125.725,55.2],[125.925,55.3],[125.95,55.425],[126.25,55.425],[126.4,55.525],[126.675,55.525],[126.75,55.325],[126.85,55.3],[127.0,55.175],[127.125,55.175],[127.35,55.325],[127.55,55.35],[127.75,55.225],[127.8,55.3],[128.0,55.3],[128.1,55.375],[128.375,55.375],[128.45,55.475],[128.6,55.425],[128.825,55.425],[129.0,55.525],[129.25,55.45],[129.725,55.425],[129.8,55.475],[130.05,55.475],[130.1,55.425],[130.375,55.45],[130.4,55.35],[130.525,55.3],[131.0,55.3],[131.05,55.425],[131.2,55.35],[131.375,55.35],[131.55,55.2],[131.65,55.2],[131.7,55.025],[131.875,55.0],[131.9,54.95],[132.075,54.95],[132.275,54.875],[132.275,54.725],[132.375,54.625],[132.725,54.525],[132.75,54.4],[132.85,54.475],[132.975,54.15],[133.375,54.175],[133.55,53.925],[133.6,53.75],[133.675,53.7],[133.7,53.575],[133.825,53.575],[133.925,53.45],[134.2,53.5],[134.25,53.55],[134.475,53.575],[134.8,53.8],[134.825,53.9],[134.95,54.025],[135.125,54.05],[135.125,54.25],[135.3,54.45],[135.425,54.675],[135.425,54.694],[135.438,54.692],[135.852,54.584],[136.238,54.614],[136.322,54.614],[136.35,54.6],[136.36,54.614],[136.58,54.614],[136.715,54.624],[136.797,54.621],[136.824,54.561],[136.82,54.452],[136.77,54.353],[136.729,54.061],[136.683,53.931],[136.719,53.804],[136.803,53.782],[136.886,53.839],[137.017,53.848],[137.04,53.862],[137.166,53.842],[137.258,54.025],[137.172,54.057],[137.096,54.129],[137.142,54.182],[137.378,54.282],[137.525,54.291],[137.666,54.283],[137.513,54.156],[137.451,54.13],[137.403,54.124],[137.339,54.101],[137.476,54.028],[137.623,53.97],[137.835,53.947],[137.786,53.903],[137.645,53.866],[137.517,53.707],[137.363,53.65],[137.35,53.65],[137.348,53.644],[137.314,53.632],[137.221,53.579],[137.254,53.546],[137.328,53.539],[137.738,53.56],[137.95,53.604],[138.253,53.726],[138.379,53.909],[138.412,53.924],[138.416,54.091],[138.715,54.088],[138.705,54.148],[138.716,54.223],[138.657,54.298],[138.696,54.32],[139.105,54.218],[139.32,54.193],[139.707,54.277],[139.796,54.256],[139.858,54.205],[140.179,54.052],[140.242,54.001],[140.347,53.813],[140.688,53.596],[141.006,53.495],[141.015,53.454],[141.05,53.434],[141.05,53.425],[141.061,53.427],[141.218,53.334],[141.374,53.293],[141.402,53.184],[141.328,53.097],[141.181,53.015],[141.112,53.033],[141.089,52.985],[141.02,52.943],[141.087,52.898],[141.089,52.897],[141.05,52.8],[140.7,52.75],[140.65,52.6],[140.775,52.4],[140.775,52.275],[140.9,52.15],[140.9,52.025],[141.0,51.95],[141.05,51.8],[141.05,51.684],[140.933,51.62],[140.839,51.414],[140.688,51.232],[140.671,51.051],[140.646,50.987],[140.521,50.8],[140.476,50.546],[140.535,50.131],[140.564,50.107],[140.625,50.082],[140.613,50.054],[140.585,50.033],[140.463,49.911],[140.465,49.826],[140.511,49.762],[140.517,49.596],[140.431,49.331],[140.399,49.29],[140.364,49.221],[140.349,49.159],[140.326,49.12],[140.309,49.054],[140.334,48.995],[140.378,48.964],[140.224,48.773],[140.171,48.524],[140.113,48.423],[139.998,48.324],[139.761,48.181],[139.676,48.09],[139.521,47.975],[139.373,47.887],[139.167,47.635],[139.001,47.383],[138.958,47.349],[138.949,47.322],[138.576,47.042],[138.53,46.976],[138.5,46.89],[138.392,46.745],[138.337,46.543],[138.21,46.463],[138.106,46.251],[137.769,45.929],[137.685,45.818],[137.425,45.64],[137.147,45.394],[136.804,45.171],[136.737,45.08],[136.604,44.978],[136.46,44.822],[136.251,44.667],[136.209,44.562],[136.142,44.489],[136.095,44.474],[136.033,44.398],[135.76,44.238],[135.533,43.971],[135.489,43.899],[135.483,43.835],[135.26,43.685],[135.131,43.526],[134.917,43.427],[134.692,43.291],[134.637,43.265],[134.568,43.212],[134.138,42.992],[134.037,42.964],[134.01,42.947],[133.709,42.83],[133.587,42.828],[133.329,42.764],[133.16,42.697],[133.106,42.711],[132.952,42.669],[132.87,42.795],[132.864,42.794],[132.726,42.867],[132.614,42.873],[132.576,42.872],[132.567,42.875],[132.484,42.88],[132.441,42.904],[132.304,42.883],[132.313,42.993],[132.181,43.194],[132.115,43.172],[132.029,43.119],[131.947,43.095],[131.883,43.095],[131.674,43.026],[131.854,43.274],[131.795,43.255],[131.722,43.203],[131.516,42.996],[131.393,42.822],[131.292,42.772],[131.245,42.697],[131.158,42.626],[131.025,42.645],[130.946,42.634],[130.918,42.64],[130.805,42.554],[130.834,42.523],[130.73,42.326],[130.687,42.303],[130.637,42.275],[130.569,42.292],[130.468,42.301],[130.435,42.276],[130.187,42.107],[130.18,42.097],[130.154,42.085],[129.996,41.978],[129.928,41.897],[129.876,41.806],[129.756,41.712],[129.686,41.595],[129.682,41.494],[129.735,41.424],[129.828,41.395],[129.759,40.885],[129.477,40.682],[129.227,40.639],[129.11,40.491],[128.945,40.428],[128.843,40.358],[128.815,40.351],[128.446,40.065],[128.236,39.969],[127.931,39.956],[127.925,39.954],[127.867,39.896],[127.604,39.796],[127.546,39.734],[127.527,39.696],[127.547,39.563],[127.549,39.461],[127.531,39.404],[127.544,39.374],[127.385,39.283],[127.395,39.208],[127.497,39.179],[127.581,39.143],[127.699,39.125],[127.708,39.121],[127.745,39.118],[127.772,39.091],[127.786,39.084],[127.972,38.898],[128.123,38.816],[128.163,38.786],[128.249,38.745],[128.275,38.725],[128.357,38.683],[128.506,38.382],[128.619,38.176],[128.822,37.925],[129.063,37.668],[129.092,37.62],[129.335,37.275],[129.394,37.123],[129.433,37.058],[129.423,36.987],[129.426,36.926],[129.473,36.742],[129.468,36.729],[129.473,36.71],[129.441,36.657],[129.433,36.637],[129.441,36.532],[129.45,36.5],[129.444,36.484],[129.445,36.471],[129.427,36.385],[129.393,36.323],[129.391,36.202],[129.402,36.138],[129.404,36.052],[129.426,36.019],[129.458,36.006],[129.509,36.037],[129.557,36.078],[129.569,36.05],[129.573,36.051],[129.572,36.043],[129.588,36.007],[129.439,35.475],[129.346,35.363],[129.329,35.333],[129.214,35.182],[129.183,35.168],[129.136,35.112],[128.978,35.084],[128.976,35.101],[128.85,35.096],[128.81,35.084],[128.77,35.098],[128.643,35.12],[128.511,35.101],[128.458,35.069],[128.43,35.031],[128.477,35.053],[128.501,35.008],[128.434,34.834],[128.335,34.871],[128.333,34.893],[128.276,34.911],[128.211,34.914],[128.203,34.888],[128.066,34.924],[128.02,34.986],[127.885,34.972],[127.873,34.966],[127.763,34.958],[127.646,34.901],[127.639,34.89],[127.663,34.843],[127.687,34.825],[127.773,34.843],[127.747,34.727],[127.634,34.614],[127.554,34.656],[127.567,34.764],[127.565,34.766],[127.524,34.84],[127.487,34.843],[127.418,34.818],[127.399,34.795],[127.39,34.743],[127.423,34.688],[127.443,34.666],[127.514,34.591],[127.389,34.471],[127.315,34.443],[127.124,34.537],[127.201,34.633],[127.197,34.607],[127.261,34.662],[127.268,34.717],[127.05,34.62],[127.031,34.607],[126.939,34.491],[126.889,34.412],[126.8,34.463],[126.796,34.495],[126.755,34.512],[126.717,34.483],[126.658,34.391],[126.7,34.396],[126.753,34.344],[126.77,34.296],[126.761,34.297],[126.771,34.281],[126.651,34.316],[126.654,34.343],[126.646,34.351],[126.65,34.379],[126.6,34.3],[126.557,34.316],[126.531,34.314],[126.522,34.329],[126.478,34.345],[126.463,34.484],[126.288,34.59],[126.288,34.644],[126.264,34.673],[126.289,34.704],[126.289,34.742],[126.313,34.717],[126.426,34.695],[126.512,34.697],[126.476,34.724],[126.505,34.738],[126.473,34.756],[126.539,34.779],[126.593,34.824],[126.548,34.837],[126.526,34.828],[126.51,34.775],[126.375,34.785],[126.408,34.885],[126.398,34.933],[126.387,34.951],[126.318,34.932],[126.249,35.116],[126.298,35.134],[126.291,35.154],[126.361,35.217],[126.396,35.314],[126.397,35.316],[126.421,35.406],[126.457,35.447],[126.46,35.456],[126.493,35.501],[126.508,35.507],[126.523,35.524],[126.559,35.526],[126.582,35.534],[126.614,35.571],[126.579,35.584],[126.498,35.578],[126.474,35.635],[126.488,35.642],[126.488,35.647],[126.535,35.666],[126.545,35.672],[126.602,35.714],[126.717,35.769],[126.753,35.872],[126.726,35.893],[126.615,35.89],[126.631,35.967],[126.664,35.974],[126.664,35.975],[126.683,36.001],[126.544,36.136],[126.464,36.574],[126.507,36.586],[126.488,36.694],[126.433,36.678],[126.389,36.651],[126.322,36.667],[126.293,36.581],[126.278,36.678],[126.231,36.689],[126.212,36.69],[126.172,36.672],[126.128,36.751],[126.182,36.809],[126.19,36.824],[126.184,36.878],[126.291,36.962],[126.304,36.927],[126.349,36.956],[126.355,36.996],[126.442,36.999],[126.447,36.981],[126.487,37.007],[126.498,37.009],[126.502,37.052],[126.554,37.016],[126.578,37.02],[126.671,36.969],[126.781,36.963],[126.785,36.947],[126.839,36.846],[126.872,36.824],[126.879,36.862],[126.958,36.906],[126.969,36.926],[126.908,36.919],[126.752,37.048],[126.776,37.123],[126.783,37.127],[126.778,37.147],[126.694,37.121],[126.661,37.156],[126.661,37.253],[126.775,37.26],[126.791,37.295],[126.786,37.3],[126.722,37.328],[126.734,37.364],[126.709,37.396],[126.656,37.411],[126.621,37.481],[126.653,37.485],[126.657,37.551],[126.64,37.574],[126.538,37.686],[126.516,37.608],[126.516,37.605],[126.515,37.605],[126.513,37.597],[126.41,37.593],[126.366,37.687],[126.33,37.661],[126.209,37.754],[126.132,37.75],[126.117,37.743],[126.113,37.749],[126.074,37.747],[125.914,37.806],[125.767,37.982],[125.618,37.772],[125.337,37.681],[124.769,37.935],[124.697,38.127],[124.691,38.129],[124.696,38.132],[124.693,38.139],[124.736,38.279],[124.929,38.464],[125.03,38.526],[125.067,38.557],[125.113,38.577],[125.293,38.688],[125.127,38.806],[125.158,38.87],[125.157,38.872],[125.161,38.877],[125.395,39.372],[125.381,39.41],[125.328,39.518],[125.193,39.491],[124.922,39.618],[124.688,39.605],[124.548,39.541],[124.208,39.738],[124.127,39.852],[124.106,39.841],[123.983,39.834],[123.916,39.807],[123.244,39.704],[123.227,39.687],[123.062,39.676],[123.039,39.672],[123.02,39.664],[122.961,39.62],[122.883,39.608],[122.634,39.505],[122.335,39.366],[122.225,39.267],[122.121,39.152],[122.048,39.094],[121.982,39.053],[121.923,39.037],[121.864,38.996],[121.805,38.991],[121.745,39.01],[121.677,39.003],[121.633,38.955],[121.67,38.892],[121.65,38.865],[121.517,38.831],[121.337,38.81],[121.231,38.763],[121.207,38.744],[121.164,38.732],[121.152,38.753],[121.065,38.75],[121.116,38.852],[121.107,38.921],[121.188,38.947],[121.225,38.953],[121.66,39.331],[121.476,39.375],[121.418,39.376],[121.282,39.349],[121.213,39.483],[121.239,39.553],[121.478,39.749],[121.474,39.755],[121.517,39.845],[121.659,39.898],[121.668,39.905],[121.788,40.078],[122.107,40.353],[122.082,40.488],[121.753,40.736],[121.368,40.87],[121.106,40.855],[121.086,40.842],[121.003,40.749],[120.922,40.683],[120.841,40.649],[120.771,40.589],[120.479,40.231],[120.369,40.204],[120.292,40.172],[120.272,40.151],[120.112,40.081],[120.057,40.074],[119.85,39.987],[119.591,39.903],[119.391,39.752],[119.322,39.662],[119.261,39.561],[119.225,39.408],[119.131,39.314],[119.075,39.3],[119.081,39.264],[119.04,39.222],[118.977,39.183],[118.912,39.166],[118.826,39.172],[118.752,39.16],[118.691,39.168],[118.61,39.171],[118.472,39.118],[118.468,39.117],[118.274,38.999],[118.107,39.207],[118.041,39.227],[117.866,39.191],[117.785,39.134],[117.617,38.853],[117.554,38.691],[117.558,38.625],[117.656,38.424],[117.767,38.312],[118.015,38.183],[118.543,38.095],[118.667,38.126],[118.8,38.127],[118.909,38.061],[118.95,38.0],[118.967,38.0],[119.028,37.904],[119.036,37.809],[119.038,37.777],[119.07,37.749],[119.089,37.701],[119.033,37.661],[118.991,37.641],[118.955,37.494],[118.954,37.4],[118.9,37.4],[118.95,37.225],[119.026,37.259],[119.112,37.201],[119.175,37.179],[119.175,37.125],[119.3,37.075],[119.31,37.136],[119.45,37.125],[119.637,37.143],[119.881,37.311],[119.883,37.351],[120.004,37.415],[120.169,37.576],[120.311,37.623],[120.287,37.656],[120.257,37.679],[120.285,37.692],[120.37,37.701],[120.75,37.834],[121.049,37.725],[121.22,37.6],[121.388,37.579],[121.505,37.515],[121.64,37.46],[121.816,37.457],[121.965,37.445],[122.01,37.496],[122.057,37.529],[122.11,37.522],[122.169,37.456],[122.338,37.405],[122.493,37.408],[122.602,37.426],[122.667,37.403],[122.573,37.318],[122.587,37.181],[122.516,37.138],[122.447,37.068],[122.487,37.022],[122.523,37.003],[122.52,36.947],[122.457,36.915],[122.341,36.832],[122.274,36.834],[122.266,36.838],[122.255,36.733],[121.846,36.86],[121.682,36.842],[121.67,36.836],[121.413,36.738],[121.144,36.66],[121.054,36.611],[120.99,36.598],[120.944,36.613],[120.855,36.584],[120.839,36.574],[120.883,36.539],[120.905,36.485],[120.896,36.444],[120.847,36.426],[120.776,36.456],[120.712,36.413],[120.682,36.341],[120.681,36.168],[120.638,36.13],[120.519,36.109],[120.509,36.104],[120.504,36.055],[120.281,35.989],[120.285,35.984],[120.219,35.935],[120.055,35.861],[120.027,35.799],[119.979,35.74],[119.912,35.693],[119.866,35.644],[119.811,35.618],[119.72,35.589],[119.608,35.47],[119.526,35.359],[119.43,35.301],[119.353,35.114],[119.216,35.012],[119.165,34.849],[119.201,34.748],[119.351,34.749],[119.427,34.714],[119.583,34.582],[119.725,34.517],[119.725,34.375],[119.9,34.4],[119.95,34.3],[120.075,34.35],[120.084,34.386],[120.201,34.326],[120.267,34.274],[120.291,34.229],[120.275,34.225],[120.275,34.075],[120.36,34.058],[120.426,33.866],[120.5,33.716],[120.505,33.638],[120.571,33.55],[120.55,33.525],[120.4,33.525],[120.5,33.375],[120.65,33.35],[120.669,33.376],[120.734,33.237],[120.871,33.017],[120.897,32.843],[120.853,32.764],[120.853,32.661],[120.99,32.567],[121.293,32.457],[121.342,32.425],[121.401,32.372],[121.404,32.206],[121.451,32.153],[121.491,32.121],[121.674,32.051],[121.751,31.993],[121.832,31.9],[121.856,31.816],[121.866,31.704],[121.764,31.7],[121.681,31.712],[121.612,31.743],[121.623,31.62],[121.808,31.552],[121.844,31.526],[121.863,31.492],[121.78,31.464],[121.52,31.55],[121.499,31.56],[121.347,31.489],[121.351,31.485],[121.661,31.32],[121.786,31.163],[121.834,31.062],[121.878,30.917],[121.769,30.87],[121.675,30.864],[121.635,30.858],[121.631,30.792],[121.568,30.71],[121.328,30.69],[121.185,30.643],[120.998,30.558],[120.938,30.47],[120.897,30.393],[120.821,30.355],[120.672,30.383],[120.608,30.346],[120.271,30.261],[120.353,30.247],[120.495,30.303],[120.633,30.133],[120.774,30.147],[120.862,30.187],[120.977,30.201],[121.159,30.302],[121.258,30.304],[121.341,30.282],[121.433,30.227],[121.678,29.979],[121.812,29.952],[121.944,29.894],[122.017,29.888],[122.083,29.87],[121.906,29.78],[121.677,29.584],[121.575,29.537],[121.506,29.485],[121.69,29.511],[121.822,29.605],[121.888,29.628],[121.941,29.606],[121.968,29.491],[121.918,29.135],[121.854,29.129],[121.791,29.226],[121.717,29.256],[121.656,29.236],[121.612,29.236],[121.549,29.097],[121.665,29.011],[121.68,28.953],[121.641,28.916],[121.54,28.932],[121.663,28.851],[121.63,28.768],[121.59,28.735],[121.519,28.714],[121.475,28.641],[121.538,28.521],[121.602,28.367],[121.61,28.292],[121.51,28.324],[121.355,28.23],[121.279,28.223],[121.259,28.182],[121.24,28.17],[121.251,28.145],[121.251,28.086],[121.164,28.063],[121.132,28.063],[121.134,28.135],[121.144,28.145],[121.065,28.22],[121.035,28.157],[120.959,28.037],[120.892,28.004],[120.813,28.013],[120.802,28.013],[120.773,27.972],[120.833,27.938],[120.833,27.891],[120.685,27.745],[120.661,27.688],[120.665,27.639],[120.588,27.581],[120.629,27.482],[120.608,27.412],[120.54,27.318],[120.469,27.256],[120.385,27.156],[120.279,27.097],[120.139,26.886],[120.097,26.781],[120.087,26.672],[120.043,26.634],[119.968,26.586],[119.882,26.61],[119.879,26.683],[119.842,26.689],[119.836,26.705],[119.613,26.693],[119.624,26.676],[119.638,26.621],[119.726,26.609],[119.785,26.547],[119.831,26.45],[119.84,26.414],[119.876,26.371],[119.881,26.334],[119.797,26.3],[119.693,26.236],[119.567,26.127],[119.463,26.055],[119.445,26.055],[119.436,26.038],[119.444,25.972],[119.501,26.009],[119.619,26.004],[119.648,25.919],[119.617,25.823],[119.553,25.699],[119.539,25.591],[119.619,25.437],[119.622,25.391],[119.593,25.368],[119.499,25.409],[119.422,25.46],[119.344,25.446],[119.263,25.468],[119.18,25.45],[119.146,25.414],[119.169,25.356],[119.244,25.307],[119.286,25.232],[119.236,25.206],[119.025,25.223],[118.986,25.212],[118.927,25.089],[118.956,25.005],[118.909,24.929],[118.844,24.916],[118.812,24.849],[118.693,24.781],[118.719,24.746],[118.657,24.621],[118.56,24.58],[118.452,24.595],[118.361,24.486],[118.407,24.522],[118.451,24.456],[118.433,24.414],[118.295,24.436],[118.287,24.477],[118.328,24.471],[118.179,24.504],[118.183,24.496],[118.15,24.436],[118.091,24.446],[118.089,24.489],[118.077,24.501],[118.086,24.525],[118.012,24.541],[118.006,24.482],[117.935,24.474],[117.897,24.48],[117.845,24.475],[117.843,24.472],[117.848,24.432],[117.879,24.396],[118.024,24.38],[118.051,24.327],[118.056,24.246],[117.904,24.106],[117.839,24.012],[117.807,24.013],[117.647,23.884],[117.628,23.837],[117.601,23.848],[117.462,23.736],[117.417,23.621],[117.368,23.589],[117.347,23.636],[117.339,23.67],[117.19,23.625],[117.148,23.599],[117.083,23.579],[117.071,23.589],[116.962,23.556],[116.867,23.477],[116.861,23.453],[116.76,23.383],[116.745,23.376],[116.709,23.346],[116.672,23.332],[116.682,23.327],[116.699,23.278],[116.669,23.228],[116.586,23.218],[116.538,23.18],[116.52,23.007],[116.471,22.946],[116.365,22.942],[116.34,22.913],[116.012,22.86],[115.852,22.802],[115.836,22.805],[115.706,22.638],[115.464,22.719],[115.383,22.719],[115.301,22.769],[115.185,22.745],[115.043,22.599],[114.847,22.51],[114.558,22.464],[114.552,22.529],[114.496,22.527],[114.42,22.583],[114.341,22.593],[114.285,22.554],[114.309,22.553],[114.413,22.436],[114.263,22.204],[114.233,22.213],[114.232,22.211],[114.207,22.195],[114.192,22.211],[114.133,22.171],[114.098,22.216],[114.144,22.331],[113.925,22.367],[113.913,22.387],[113.903,22.396],[113.896,22.428],[114.007,22.484],[114.015,22.512],[113.949,22.527],[113.845,22.463],[113.716,22.482],[113.462,22.773],[113.444,22.747],[113.45,22.726],[113.485,22.692],[113.548,22.601],[113.45,22.65],[113.475,22.575],[113.549,22.6],[113.553,22.594],[113.551,22.404],[113.589,22.35],[113.576,22.297],[113.548,22.223],[113.499,22.202],[113.416,22.178],[113.377,22.168],[113.377,22.163],[113.283,22.03],[113.096,21.979],[112.994,22.016],[112.984,21.938],[112.954,21.907],[112.904,21.881],[112.839,21.925],[112.815,21.826],[112.749,21.756],[112.039,21.659],[111.885,21.73],[111.873,21.717],[111.825,21.71],[111.776,21.719],[111.712,21.655],[111.682,21.608],[111.603,21.559],[111.596,21.558],[111.536,21.493],[111.434,21.461],[111.085,21.479],[111.003,21.454],[110.997,21.43],[110.878,21.396],[110.784,21.388],[110.766,21.382],[110.652,21.279],[110.567,21.214],[110.504,21.207],[110.458,21.231],[110.454,21.247],[110.399,21.256],[110.397,21.248],[110.375,21.172],[110.331,21.131],[110.194,21.038],[110.154,20.945],[110.18,20.859],[110.365,20.838],[110.388,20.791],[110.371,20.752],[110.326,20.72],[110.313,20.672],[110.512,20.518],[110.518,20.46],[110.487,20.427],[110.45,20.355],[110.345,20.295],[110.123,20.264],[110.068,20.273],[109.928,20.244],[109.711,20.568],[109.602,20.879],[109.608,21.057],[109.786,21.406],[109.779,21.482],[109.537,21.587],[109.544,21.538],[109.436,21.479],[109.347,21.454],[109.336,21.453],[109.321,21.431],[109.117,21.399],[108.813,21.493],[108.554,21.823],[108.485,21.793],[108.493,21.739],[108.526,21.671],[108.502,21.633],[108.444,21.607],[108.42,21.636],[108.387,21.53],[108.265,21.473],[107.9,21.479],[107.517,21.246],[107.563,21.22],[107.603,21.217],[107.539,21.161],[107.4,21.3],[107.25,21.175],[106.95,21.475],[106.95,21.525],[106.75,21.575],[106.625,21.525],[106.5,21.675],[106.3,21.8],[106.075,21.825],[106.025,21.925],[105.925,21.95],[105.95,22.225],[105.875,22.3],[105.65,22.3],[105.6,22.425],[105.425,22.45],[105.325,22.6],[105.175,22.65],[105.0,22.65],[104.825,22.775],[104.625,22.675],[104.675,22.4],[104.5,22.2],[104.5,22.075],[104.3,22.175],[104.2,22.075],[104.175,21.725],[104.275,21.65],[104.3,21.45],[104.025,21.45],[103.825,21.375],[103.575,21.375],[103.45,21.125],[103.425,20.85],[103.3,20.85],[103.1,20.95],[103.05,20.85],[102.825,20.725],[102.725,20.6],[102.45,20.55],[102.175,20.55],[102.075,20.475],[101.9,20.45],[101.7,20.075],[101.625,20.075],[101.575,19.875],[101.6,19.875],[101.475,19.85],[101.475,19.925],[101.35,19.925],[101.25,20.025],[100.975,20.0],[100.925,20.05],[100.925,20.25],[101.0,20.425],[100.8,20.65],[100.725,20.6],[100.55,20.625],[100.475,20.75],[100.35,20.8],[100.525,20.825],[100.55,21.05],[100.625,21.05],[100.675,21.175],[100.675,21.375],[100.4,21.575],[100.425,21.725],[100.375,21.75],[100.325,21.85],[100.2,21.85],[100.175,22.025],[100.275,22.1],[100.275,22.425],[100.225,22.5],[100.225,22.675],[100.025,22.85],[100.05,23.05],[100.1,23.05],[100.075,23.375],[100.15,23.45],[100.2,23.725],[100.3,23.775],[100.3,23.875],[100.4,23.9],[100.4,24.075],[100.5,24.075],[100.55,24.175],[100.525,24.375],[100.625,24.525],[100.475,24.625],[100.425,24.725],[100.2,24.7],[99.9,24.75],[99.75,25.0],[99.65,25.025],[99.575,25.15],[99.4,25.2],[99.3,25.325],[99.325,25.575],[99.2,25.6],[99.1,25.75],[99.1,25.875],[99.0,25.975],[99.0,26.425],[98.95,26.5],[99.0,27.3],[98.95,27.35],[98.925,27.75],[98.85,27.875],[98.9,28.15],[98.725,28.3],[98.675,28.45],[98.575,28.575],[98.4,28.5],[98.275,28.7],[98.1,28.675],[98.025,28.75],[97.825,28.75],[97.65,28.925],[97.6,29.125],[97.35,29.125],[97.175,29.3],[97.05,29.3],[96.95,29.525],[96.875,29.525],[96.75,29.4],[96.425,29.425],[96.35,29.5],[96.1,29.55],[95.925,29.65],[95.775,29.65],[95.675,29.8],[95.3,29.8],[95.15,29.85],[95.05,29.625],[94.95,29.625],[94.875,29.425],[94.725,29.325],[94.55,29.275],[94.35,29.275],[94.275,29.225],[93.825,29.25],[93.775,29.175],[93.625,29.15],[93.625,28.95],[93.5,28.8],[93.25,28.825],[93.2,28.725],[92.95,28.7],[92.65,28.575],[92.65,28.375],[92.575,28.3],[92.55,28.05],[92.375,27.975],[92.2,27.95],[92.05,28.1],[91.575,28.1],[91.525,28.2],[91.425,28.225],[91.275,28.425],[91.15,28.425],[91.125,28.35],[90.7,28.2],[90.6,28.2],[90.55,28.1],[90.45,28.1],[90.275,28.225],[90.15,28.225],[89.95,28.125],[89.825,28.175],[89.575,28.125],[89.375,27.925],[89.3,27.8],[89.225,27.8],[89.125,27.675],[89.125,27.525],[88.9,27.4],[89.0,27.3],[89.0,27.15],[88.85,27.125],[88.825,27.025],[88.7,26.9],[88.55,26.9],[88.45,26.975],[88.425,27.1],[88.3,27.1],[88.25,27.025],[88.05,27.025],[88.0,27.1],[88.0,27.375],[88.075,27.475],[88.1,27.825],[87.9,27.925],[87.725,27.875],[87.6,28.0],[87.55,28.125],[87.125,28.1],[86.975,28.05],[86.775,28.125],[86.625,28.125],[86.45,28.3],[86.2,28.325],[86.025,28.45],[85.875,28.425],[85.7,28.45],[85.575,28.6],[85.425,28.65],[85.4,28.775],[85.1,28.775],[85.025,28.925],[84.825,28.975],[84.65,28.925],[84.325,28.925],[84.3,29.3],[84.0,29.45],[83.825,29.45],[83.8,29.375],[83.6,29.175],[83.45,29.175],[83.2,29.55],[83.0,29.675],[82.875,29.7],[82.75,29.85],[82.675,29.875],[82.525,30.075],[82.225,30.2],[82.125,30.35],[81.95,30.35],[81.775,30.2],[81.525,30.2],[81.375,30.275],[81.4,30.15],[81.35,30.05],[81.15,30.025],[81.125,30.125],[80.925,30.35],[80.7,30.4],[80.6,30.475],[80.325,30.525],[80.175,30.625],[80.125,30.75],[79.8,30.925],[79.85,30.925],[80.125,31.325],[80.225,31.375],[80.225,31.475]],[[120.35,33.55],[120.35,33.625],[120.275,33.6],[120.35,33.55]],[[120.117,36.15],[120.094,36.119],[120.181,36.017],[120.254,36.009],[120.15,36.176],[120.117,36.15]],[[120.226,30.25],[120.221,30.248],[120.229,30.25],[120.235,30.252],[120.226,30.25]]],[[[128.741,34.799],[128.739,34.797],[128.741,34.781],[128.594,34.697],[128.596,34.77],[128.536,34.809],[128.526,34.805],[128.52,34.819],[128.52,34.82],[128.489,34.865],[128.498,34.871],[128.494,34.88],[128.54,34.9],[128.586,34.932],[128.668,35.009],[128.722,35.014],[128.741,34.799]]],[[[127.933,34.916],[127.932,34.912],[127.966,34.893],[128.002,34.886],[128.017,34.913],[128.075,34.873],[128.085,34.83],[128.055,34.834],[128.066,34.806],[128.066,34.804],[128.073,34.804],[128.06,34.701],[128.013,34.705],[127.984,34.703],[127.981,34.708],[127.86,34.719],[127.822,34.843],[127.834,34.861],[127.832,34.875],[127.848,34.883],[127.875,34.926],[127.913,34.919],[127.915,34.921],[127.921,34.918],[127.933,34.916]]],[[[127.787,34.682],[127.791,34.66],[127.794,34.661],[127.799,34.618],[127.799,34.615],[127.803,34.575],[127.748,34.596],[127.733,34.635],[127.747,34.641],[127.787,34.682]]],[[[127.713,34.521],[127.77,34.538],[127.798,34.49],[127.785,34.473],[127.713,34.521]]],[[[127.222,34.483],[127.219,34.42],[127.115,34.434],[127.125,34.471],[127.222,34.483]]],[[[126.378,36.586],[126.381,36.575],[126.387,36.571],[126.418,36.493],[126.411,36.462],[126.428,36.399],[126.335,36.438],[126.337,36.477],[126.319,36.613],[126.361,36.587],[126.378,36.586]]],[[[126.199,34.353],[126.143,34.355],[126.119,34.395],[126.109,34.399],[126.111,34.407],[126.101,34.424],[126.243,34.573],[126.263,34.56],[126.344,34.545],[126.38,34.498],[126.374,34.489],[126.383,34.483],[126.342,34.401],[126.199,34.353]]],[[[126.163,36.824],[126.166,36.839],[126.173,36.829],[126.163,36.824]]],[[[126.057,34.925],[126.062,34.904],[126.078,34.915],[126.169,34.83],[126.172,34.731],[126.159,34.707],[126.115,34.714],[126.071,34.783],[126.052,34.838],[126.015,34.862],[125.983,34.864],[126.057,34.925]]],[[[126.137,35.142],[126.144,35.08],[126.059,35.055],[126.059,35.09],[126.137,35.142]]],[[[125.917,34.676],[126.008,34.691],[125.971,34.647],[125.917,34.676]]],[[[125.995,34.758],[125.932,34.718],[125.888,34.732],[125.979,34.791],[125.995,34.758]]],[[[124.89,39.602],[124.935,39.608],[124.905,39.536],[124.849,39.508],[124.846,39.559],[124.89,39.602]]],[[[124.745,37.981],[124.755,37.97],[124.754,37.955],[124.74,37.947],[124.721,37.935],[124.695,37.916],[124.683,37.922],[124.656,37.925],[124.625,37.945],[124.626,37.949],[124.609,37.957],[124.629,37.957],[124.636,37.981],[124.661,37.973],[124.717,37.989],[124.745,37.981]]],[[[122.402,29.95],[122.404,29.892],[122.394,29.846],[122.368,29.853],[122.332,29.935],[122.351,29.955],[122.402,29.95]]],[[[121.969,30.143],[122.111,30.14],[122.284,30.068],[122.322,30.031],[122.296,29.963],[122.282,29.944],[122.158,30.001],[122.024,30.013],[121.978,30.064],[121.969,30.143]]],[[[119.829,25.607],[119.838,25.591],[119.839,25.56],[119.809,25.508],[119.832,25.48],[119.821,25.457],[119.747,25.411],[119.7,25.433],[119.699,25.495],[119.723,25.551],[119.696,25.591],[119.723,25.639],[119.778,25.653],[119.797,25.623],[119.829,25.607]]],[[[114.022,22.228],[113.999,22.226],[113.998,22.21],[113.877,22.21],[113.865,22.215],[113.836,22.213],[113.848,22.227],[113.839,22.242],[113.882,22.28],[113.897,22.285],[113.901,22.29],[114.046,22.34],[114.022,22.228]]],[[[112.742,21.618],[112.733,21.67],[112.713,21.698],[112.761,21.733],[112.782,21.772],[112.839,21.765],[112.863,21.753],[112.813,21.712],[112.801,21.695],[112.79,21.602],[112.771,21.582],[112.742,21.618]]],[[[112.648,21.71],[112.644,21.64],[112.546,21.619],[112.525,21.623],[112.559,21.675],[112.648,21.71]]],[[[110.522,21.083],[110.54,21.039],[110.539,21.018],[110.504,20.968],[110.422,21.007],[110.34,20.998],[110.281,21.001],[110.265,21.025],[110.31,21.075],[110.385,21.093],[110.422,21.059],[110.522,21.083]]]]}}],"snapped":true}